appointment_booking_url,brand,brand_website_store_url,district,email_id,full_address,google_maps_direction_url,manufacturer_unique_id,michelin_certified_centre,phone_number,pincode,state,store_name,website
https://www.tyres-n-services.in/dealers/mumbai/michelin-tyres-services-sign-tyres-sion-west/appointment?fitter=5d121d820dae941561e039fd&utm_source=michelin&utm_medium=dealerlocator&utm_campaign=bookappointment,MICHELIN,"https://www.michelin.in/auto/dealers/sign-tyres?search=Mumbai,%20Maharashtra,%20India",Mumbai,,"264, Panchshil,Shop No. 1 & 2,OPP SION HOSPITAL & ST BUS STANDSION (WEST) , MUMBAI,400022 MUMBAI","https://www.google.com/maps?daddr=19.076,72.878",132115069,1, 9711999394,,,SIGN TYRES,https://www.tyres-n-services.in/dealers/mumbai/michelin-tyres-services-sign-tyres-sion-west
,MICHELIN,"https://www.michelin.in/auto/dealers/popular-tyres6?search=Mumbai,%20Maharashtra,%20India",Mumbai,,OPP MUNICIPAL PUMPING STATION NEAR RAVI AUTOMOBILES GM ROAD CHEMBUR MUMBAI CITY400089 MUMBAI,"https://www.google.com/maps?daddr=19.071156,72.90162",424695069,1, 9867900801,,,POPULAR TYRES,
,MICHELIN,"https://www.michelin.in/auto/dealers/auto-nova-trading-pvt-ltd?search=Mumbai,%20Maharashtra,%20India",Mumbai,,"GROUND FLOOR, PLOT NO 5B, SINDHI SOCIETY, S.T ROAD MUMBAI SUBURBAN400071 MUMBAI","https://www.google.com/maps?daddr=19.05431,72.89066",616041069,1, 9920384560,,,AUTO NOVA TRADING PVT LTD,
,MICHELIN,"https://www.michelin.in/auto/dealers/k-k-tyres?search=Mumbai,%20Maharashtra,%20India",Mumbai,,"SHOP NO 2, 611/3 CHEMBUR NAKA SION400071 MUMBAI","https://www.google.com/maps?daddr=19.052113,72.900665",327748069,1,,,,K & K TYRES,
,MICHELIN,"https://www.michelin.in/auto/dealers/shri-balaji-tyres?search=Mumbai,%20Maharashtra,%20India",Mumbai,,"PLOT NO. 301, 5TH ROAD, NEAR RBI COLONY, DIAMOND GARDEN, CHEMBUR, MUMBAI, MAHARASHTRA400071 MUMBAI","https://www.google.com/maps?daddr=19.052786,72.902176",399018069,1, 9223266393,,,BALAJI TYRES,
https://www.tyres-n-services.in/dealers/mumbai/michelin-tyres-services-saifee-tyre-service-santacruz-central/appointment?fitter=5d121ab40dae941561e0346f&utm_source=michelin&utm_medium=dealerlocator&utm_campaign=bookappointment,MICHELIN,"https://www.michelin.in/auto/dealers/saifee-tyre-service2?search=Mumbai,%20Maharashtra,%20India",Mumbai,,"Jolly Apartments Opp. Gokul Ice Cream, Sarswati Road Santacruz (W)400054 Mumbai","https://www.google.com/maps?daddr=19.08175,72.83561",131556069,1, 9999873922,,,Saifee Tyre Service,https://www.tyres-n-services.in/dealers/mumbai/michelin-tyres-services-saifee-tyre-service-santacruz-central
,MICHELIN,"https://www.michelin.in/auto/dealers/r-v-tyre-service?search=Mumbai,%20Maharashtra,%20India",Mumbai,,"GROUND-B3, ANAMAYA CHS400099 MUMBAI","https://www.google.com/maps?daddr=19.116175,72.86989",437099069,1, 9820746911,,,R V TYRE SERVICE,
,MICHELIN,"https://www.michelin.in/auto/dealers/pal-tyres32?search=Mumbai,%20Maharashtra,%20India",Mumbai,,"SHOP NO 8, GROUND FLOOR, SUJATA SANTACRUZ RAJPIPLA CHS LTD, 27 C JUHU ROAD SANTACRUZ WEST MUMBAI, MUMBAI SUBURBAN400054 MUMBAI","https://www.google.com/maps?daddr=19.084656,72.83521",756115069,0, 9820061753,,,PAL TYRES,
,MICHELIN,"https://www.michelin.in/auto/dealers/r-v-tyre-service0?search=Mumbai,%20Maharashtra,%20India",Mumbai,,"Gala no B-1A,400059 MUMBAI","https://www.google.com/maps?daddr=19.119085,72.8868",622204069,1, 9820746911,,,R V TYRE SERVICE,
https://www.tyres-n-services.in/dealers/mumbai/michelin-tyres-services-premji-sales-co-pvt-ltd-mahim-west/appointment?fitter=5f1ec4ac65fc7334a8b80aaf&utm_source=michelin&utm_medium=dealerlocator&utm_campaign=bookappointment,MICHELIN,"https://www.michelin.in/auto/dealers/premji-sales-co-pvt-ltd?search=Mumbai,%20Maharashtra,%20India",Mumbai,,"109/C, L.J. ROAD,OPP. SITLADEVI TEMPLE,MAHIM,MUMBAI400016 MUMBAI","https://www.google.com/maps?daddr=19.036,72.839",132118069,1, 7303886259,,,PREMJI SALES CO. PVT. LTD.,https://www.tyres-n-services.in/dealers/mumbai/michelin-tyres-services-premji-sales-co-pvt-ltd-mahim-west
,MICHELIN,"https://www.michelin.in/auto/dealers/wheels-india5?search=Mumbai,%20Maharashtra,%20India",Mumbai,,"VISHAL APTS., SHOP NO.4, GROUND FLOOR, JANKI KUTIR, NEXT TO PRITHVI THEATRE, JUHU, MUMBAI MAHARASHTRA400049 MUMBAI","https://www.google.com/maps?daddr=19.106007,72.82639",723131069,1, 9820000416,,,WHEELS  INDIA,
,MICHELIN,"https://www.michelin.in/auto/dealers/kamal-automobiles88?search=Mumbai,%20Maharashtra,%20India",Mumbai,,"SURVENY NO 138/2, C/O SRI AMBAJI PETROLEUM, MUMBAI AHMEDABAD ROAD NH. NO -8, VILLAGE JUCHANDRA THANE VASAI410218 THANE","https://www.google.com/maps?daddr=19.017365,72.85849",723073069,1, 9323421157,,,Kamal Automobiles,
,MICHELIN,"https://www.michelin.in/auto/dealers/tejani-tyre-service-pc7?search=Mumbai,%20Maharashtra,%20India",Mumbai,,"SHOP NO -6., EVERSUN CHS LTD, (DHL JUNCTION), JP ROAD, NEAR APNA BAZAAR, ANDHERI (WEST), MUMBAI, MAHARASHTRA400058 MUMBAI","https://www.google.com/maps?daddr=19.127962,72.83178",723130069,1, 9820185926,,,TEJANI TYRE SERVICE- PC,
,MICHELIN,"https://www.michelin.in/auto/dealers/ashirwad-tyre-service?search=Mumbai,%20Maharashtra,%20India",Mumbai,,"LALJI DEOJI CHAWL, SHOP NO. 9,GOKUL DAS PASTA ROAD,DADAR (EAST),MUMBAI,400014 MUMBAI","https://www.google.com/maps?daddr=19.014,72.843",131554069,1, 24119632,,,ASHIRWAD TYRE SERVICE,
,MICHELIN,"https://www.michelin.in/auto/dealers/acme-tyre-services?search=Mumbai,%20Maharashtra,%20India",Mumbai,,"GROUND FLOOR, S-009, DEVRAJ CO-OP HOUSING SOCEITY LTD, S.V ROAD, GOREGAON EAST, MUMBAI SUBURBAN400062 MUMBAI","https://www.google.com/maps?daddr=19.148638,72.88109",616630069,1, 9322644196,,,ACME TYRE SERVICES,
,MICHELIN,"https://www.michelin.in/auto/dealers/navandar-agencies?search=Mumbai,%20Maharashtra,%20India",Mumbai,,"New Nagar Road, A/P Sangamner422605 Sangamner","https://www.google.com/maps?daddr=19.142757,72.83582",330679069,1, 02425-223408,,,Navandar Agencies,
,MICHELIN,"https://www.michelin.in/auto/dealers/sunder-tyres-private-limited?search=Mumbai,%20Maharashtra,%20India",Mumbai,,"SHOP NO -10, MANGATRAM COLONY LBS MARG BHANDUP (W)400078 MUMBAI","https://www.google.com/maps?daddr=19.140045,72.93118",416312069,1, 7678032461,,,SUNDER TYRES PRIVATE LIMITED,
,MICHELIN,"https://www.michelin.in/auto/dealers/reliable-tyres764?search=Mumbai,%20Maharashtra,%20India",Mumbai,,"640-B, ADARSH NAGAR, NEW LINK ROAD, JOGESHWARI WEST, MUMBAI400102 MUMBAI","https://www.google.com/maps?daddr=19.14532,72.83132",756116069,0, 9619689133,,,RELIABLE TYRES,
https://www.tyres-n-services.in/dealers/mumbai/michelin-tyres-services-reliable-tyres-andheri-west/appointment?fitter=5f1ec22ce4e15c72518eae21&utm_source=michelin&utm_medium=dealerlocator&utm_campaign=bookappointment,MICHELIN,"https://www.michelin.in/auto/dealers/reliable-tyres324?search=Mumbai,%20Maharashtra,%20India",Mumbai,,"690, ADARSH NAGAR,NEW LINK ROADANDHERI (WEST)MUMBAI400102 MUMBAI","https://www.google.com/maps?daddr=19.152,72.827",726386069,1, 7303886258,,,RELIABLE TYRES,https://www.tyres-n-services.in/dealers/mumbai/michelin-tyres-services-reliable-tyres-andheri-west
,MICHELIN,"https://www.michelin.in/auto/dealers/super-janata-automotive3?search=Mumbai,%20Maharashtra,%20India",Mumbai,,"SHOP No:2, Umashankar mishra hall, Aarey Road, Aarey Check Naka,  GOREGAON (EAST), MUMBAI, MAHARASHTRA400063 MUMBAI","https://www.google.com/maps?daddr=19.166477,72.85808",723123069,1, 9869007119,,,SUPER JANATA AUTOMOTIVE,
,MICHELIN,"https://www.michelin.in/auto/dealers/kwik-fix-automobiles?search=Mumbai,%20Maharashtra,%20India",Mumbai,,"SHOP NO 34/35,SARODAY NAGAR,WESTERN HIGHWAY,GOREGAON E MUMBAI400063 MUMBAI","https://www.google.com/maps?daddr=19.1674,72.8589",701267069,1, 9987653888,,,KWIK FIX AUTOMOBILES,
,MICHELIN,"https://www.michelin.in/auto/dealers/acme-tyres-service?search=Mumbai,%20Maharashtra,%20India",Mumbai,,"9, DEVRAJ, S.V.ROAD, Near Vijay Sales & Ratna Hotel, GOREGAON (WEST), MUMBAI,400062 MUMBAI","https://www.google.com/maps?daddr=19.163,72.839",131533069,1, 9322644196,,,Acme Tyres Service,
,MICHELIN,"https://www.michelin.in/auto/dealers/asian-tyres2?search=Mumbai,%20Maharashtra,%20India",Mumbai,,"GROUND FLOOR SHOP  NO -4, ELAVIA MANOR CHINCHOLI BUNDER ROAD MALAD WEST MUMBAI400064 MUMBAI","https://www.google.com/maps?daddr=19.178883,72.84371",723118069,1, 9820193245,,,ASIAN TYRES,
,MICHELIN,"https://www.michelin.in/auto/dealers/auto-wheels?search=Mumbai,%20Maharashtra,%20India",Mumbai,,"5, SHREE GAURAV,90 FT ROAD, OPP CAMPUS HOTEL,MULUND EAST,MUMBAI,400081 MUMBAI","https://www.google.com/maps?daddr=19.157,72.964",131537069,1, 21632321,,,AUTO WHEELS,
https://www.tyres-n-services.in/dealers/mumbai/michelin-tyres-services-tyre-x-mulund-west/appointment?fitter=5d12218e0dae941561e041bb&utm_source=michelin&utm_medium=dealerlocator&utm_campaign=bookappointment,MICHELIN,"https://www.michelin.in/auto/dealers/tyre-x0?search=Mumbai,%20Maharashtra,%20India",Mumbai,,"SHOP NO. 1&2, SANGEETA ENCLAVE,SARVODYA NAGAR,OPP DUTTA MANDIR, MULUND(W),MUMBAI,400080 MUMBAI","https://www.google.com/maps?daddr=19.173,72.943",132114069,1, 8929100573,,,TYRE X,https://www.tyres-n-services.in/dealers/mumbai/michelin-tyres-services-tyre-x-mulund-west
,MICHELIN,"https://www.michelin.in/auto/dealers/popular-tyres-and-access3?search=Mumbai,%20Maharashtra,%20India",Mumbai,,"SHOP NO. 1 & 2, LINKWAY ESTATE, CO-OP SOCIETY LTD.  NEW LINK ROAD, Next to CHINCHOLI FIRE STATTION MALAD (W)400064 MUMBAI","https://www.google.com/maps?daddr=19.187,72.841",723047069,1, 022-66938893,,,POPULAR TYRES AND ACCESS,
,MICHELIN,"https://www.michelin.in/auto/dealers/lakshmi-tyres47?search=Mumbai,%20Maharashtra,%20India",Mumbai,,"PLOT NO -71, SHOP NO -24, ARENJA CORNER, SECOTOR -17. VASHI MUMBAI CITY400703 VASHI","https://www.google.com/maps?daddr=19.0723,73.0007",723135069,1, 7208498828,,,LAKSHMI TYRES,
https://www.tyres-n-services.in/dealers/navi-mumbai/michelin-tyres-services-punjab-tyre-sole-nerul/appointment?fitter=5d12206a0dae941561e03f81&utm_source=michelin&utm_medium=dealerlocator&utm_campaign=bookappointment,MICHELIN,"https://www.michelin.in/auto/dealers/punjab-tyre-sole?search=Mumbai,%20Maharashtra,%20India",Mumbai,,SHOP NO -20 ARENJA CORNER SECTOR-17 VASHI NAVI MUMBAI400703 NAVI MUMBAI,"https://www.google.com/maps?daddr=19.073292,73.00188",132210069,1, 8929100539,,,PUNJAB TYRE SOLE,https://www.tyres-n-services.in/dealers/navi-mumbai/michelin-tyres-services-punjab-tyre-sole-nerul
,MICHELIN,"https://www.michelin.in/auto/dealers/four-seasons-automobiles-pvt-ltd?search=Mumbai,%20Maharashtra,%20India",Mumbai,,"Arch # 25-28 Lower E Moses Road,Under the Mahalaxmi Race Course Bridge, Mahalaxmi400034 Mumbai","https://www.google.com/maps?daddr=18.975582,72.81309",431185069,1, 9930932327,,,Four Seasons Automobiles Pvt Ltd,
,MICHELIN,"https://www.michelin.in/auto/dealers/cherry-agencies-pvt-ltd30?search=Mumbai,%20Maharashtra,%20India",Mumbai,,"SHOP NO. 1,2,3,4, BALAJI DARSHAN, SECTOR 2A, PLOT NO. 57A & 57B, NEAR DHRU MOTORS, KOPARKHAIRANE,  NAVI MUMBAI MAHARASHTRA400709 NAVI MUMBAI","https://www.google.com/maps?daddr=19.111086,73.0026",131430069,1, 9594334333,,,CHERRY AGENCIES PVT LTD.,
,MICHELIN,"https://www.michelin.in/auto/dealers/universal-tyres2?search=Mumbai,%20Maharashtra,%20India",Mumbai,,"Shop No. 2, Plot No. 67/68 Bhawani Complex, Near Parnav Hotel, Sector 19A, Vashi400703 VASHI","https://www.google.com/maps?daddr=19.09018,73.00804",723205069,1, 9320453300,,,UNIVERSAL TYRES,
,MICHELIN,"https://www.michelin.in/auto/dealers/pal-tyres?search=Mumbai,%20Maharashtra,%20India",Mumbai,,"209, NEAR APSARA CINEMA. LAMINGTON ROAD, GRANT ROAD MUMBAI400007 MUMBAI","https://www.google.com/maps?daddr=18.963,72.81757",431320069,1, 9820061753,,,PAL TYRES,
,MICHELIN,"https://www.michelin.in/auto/dealers/premier-tyre-service1?search=Mumbai,%20Maharashtra,%20India",Mumbai,,"Shop No 24, Jethabhai Bldg.,18, Bomanji Petit Road, Parsi Hospital Lane,400036 MUMBAI","https://www.google.com/maps?daddr=18.96509,72.80504",131557069,1, 9820238806,,,PREMIER TYRE SERVICE,
,MICHELIN,"https://www.michelin.in/auto/dealers/tyre-zone76?search=Mumbai,%20Maharashtra,%20India",Mumbai,,"UNIT NO -8, GR FLOOR CROWN W/H PVT LTD PLOT NO-11, SECTOR NO -19-C, VASHI400703 NAVI MUMBAI","https://www.google.com/maps?daddr=19.043877,73.01235",723143069,1, 9867160062,,,TYRE ZONE,
,MICHELIN,"https://www.michelin.in/auto/dealers/balaji-wheels1?search=Mumbai,%20Maharashtra,%20India",Mumbai,,"SHOP NO 4/5, GROUND FLOOR SAI GANESH, SEC-6, NERUL WEST NERUL NODE-II, NAVI MUMBAI400706 NAVI MUMBAI","https://www.google.com/maps?daddr=19.043583,73.01238",723133069,1, 9892359505,,,BALAJI WHEELS,
,MICHELIN,"https://www.michelin.in/auto/dealers/metro-vulcanizing-works?search=Mumbai,%20Maharashtra,%20India",Mumbai,,"6, PARMANAND BUILDING, FRENCH BRIDGE, CHOWPATTY400007 MUMBAI","https://www.google.com/maps?daddr=18.957365,72.81313",330675069,1, 9821404052,,,METRO VULCANIZING WORKS,
,MICHELIN,"https://www.michelin.in/auto/dealers/supreme-tyres-accessories-pc1?search=Mumbai,%20Maharashtra,%20India",Mumbai,,"DEV MILAN, LBS MARG, OPP. RAHEJA GARDENS, THANE (W), MAHARASHTRA400606 THANE","https://www.google.com/maps?daddr=19.18623,72.95934",723155069,1, 9821552231,,,SUPREME TYRES & ACCESSORIES PC,
,MICHELIN,"https://www.michelin.in/auto/dealers/national-eco-fuel-services0?search=Mumbai,%20Maharashtra,%20India",Mumbai,,"SHOP NO.36, GOKUL CONCORD TOWER, WESTREN EXPRESS HIGHWAY, THAKUR VILLAGE, KANDIVALIâ‚¬ MUMBAI400101 MUMBAI","https://www.google.com/maps?daddr=19.21425,72.86877",723121069,1, 9322515333,,,NATIONAL ECO FUEL SERVICES,
,MICHELIN,"https://www.michelin.in/auto/dealers/discovery-tyres?search=Mumbai,%20Maharashtra,%20India",Mumbai,,"SHOP NO -18, THER DISCOVERY BUILDING No -9, DATTA PADA ROAD, BORIVALI EAST MUMBAI408066 MUMBAI","https://www.google.com/maps?daddr=19.222198,72.85995",399420069,1, 9821879162,,,DISCOVERY TYRES,
https://www.tyres-n-services.in/dealers/thane/michelin-tyres-services-mahesh-tyres-chandanwadi/appointment?fitter=5d121eb70dae941561e03c36&utm_source=michelin&utm_medium=dealerlocator&utm_campaign=bookappointment,MICHELIN,"https://www.michelin.in/auto/dealers/mahesh-tyres?search=Mumbai,%20Maharashtra,%20India",Mumbai,,"Shop No 2/3, Akshata Apts, Almeida Road, Chandanwadi, Almeda Road, Thane(W)400601 Thane","https://www.google.com/maps?daddr=19.196909,72.9696",132213069,1, 8588898945,,,Mahesh Tyres,https://www.tyres-n-services.in/dealers/thane/michelin-tyres-services-mahesh-tyres-chandanwadi
,MICHELIN,"https://www.michelin.in/auto/dealers/premji-motors-private-limited?search=Mumbai,%20Maharashtra,%20India",Mumbai,,BARAF COMPOUND CHITALSAR MANPADA G.B ROAD THANE (WEST)400607 THANE,"https://www.google.com/maps?daddr=19.196207,72.97454",431352069,1,,,,PREMJI MOTORS PRIVATE LIMITED,
,MICHELIN,"https://www.michelin.in/auto/dealers/karisma-batteries?search=Mumbai,%20Maharashtra,%20India",Mumbai,,"SHOP NO -10, NIMESH KUNJ, SVP ROAD BORIVALI MUMBAI SUBURBAN400095 MUMBAI","https://www.google.com/maps?daddr=19.229362,72.84676",460823069,1, 9820616030,,,KARISMA BATTERIES,
,MICHELIN,"https://www.michelin.in/auto/dealers/bharat-auto-service?search=Mumbai,%20Maharashtra,%20India",Mumbai,,"SHIVAJI MAHARAJ MARG,BEHIND REGAL CINEMA, COLABA,MUMBAI,MAHARASHTRA400001 MUMBAI","https://www.google.com/maps?daddr=18.925,72.832",131549069,1, 9321577774,,,BHARAT AUTO SERVICE,
,MICHELIN,"https://www.michelin.in/auto/dealers/royal-tyres-batteries?search=Mumbai,%20Maharashtra,%20India",Mumbai,,"SHOP  NO -16, BRAHMA COM, PLOT NO -56, SEC-15, BELAPUR NAVI MUMBAI THANE400614 NAVI MUMBAI","https://www.google.com/maps?daddr=19.009876,73.03416",425000069,1, 8689939116,,,ROYAL TYRES & BATTERIES,
,MICHELIN,"https://www.michelin.in/auto/dealers/tyre-experts1?search=Mumbai,%20Maharashtra,%20India",Mumbai,,"1ST FLOOR, A-137, BALAJI BHAVAN PLOT NO-44A, THANE400614 THANE","https://www.google.com/maps?daddr=19.017332,73.03854",718362069,1, 9920841571,,,TYRE EXPERTS,
https://www.tyres-n-services.in/dealers/thane/michelin-tyres-car-service-premji-motors-pvt-ltd-kapurbawdi/appointment?fitter=5d1220370dae941561e03f23&utm_source=michelin&utm_medium=dealerlocator&utm_campaign=bookappointment,MICHELIN,"https://www.michelin.in/auto/dealers/premji-motors-private-limited6?search=Mumbai,%20Maharashtra,%20India",Mumbai,,"Arya Estate, Old Agra Road, Near Kapurbawdi Big Bazaar, Next to Vardhaman Garden and Vee Care Hospital, Balkum, Thane400608 Thane","https://www.google.com/maps?daddr=19.209902,72.98534",328814069,1, 8929100533,,,PREMJI MOTORS PRIVATE LIMITED,https://www.tyres-n-services.in/dealers/thane/michelin-tyres-car-service-premji-motors-pvt-ltd-kapurbawdi
,MICHELIN,"https://www.michelin.in/auto/dealers/suraksha-auto-service-center-pcr1?search=Mumbai,%20Maharashtra,%20India",Mumbai,,"HOTEL QUALITY COMPLEX, NEAR HOMEOPATHY MEDICAL COLLEGE, NARANGI BY PASS ROAD, VIRAR, MAHARASHTRA401303 THANE","https://www.google.com/maps?daddr=19.249372,72.86119",723129069,1, 9867353353,,,SURAKSHA AUTO SERVICE CENTER PCR,
,MICHELIN,"https://www.michelin.in/auto/dealers/virani-tyres6?search=Mumbai,%20Maharashtra,%20India",Mumbai,,"31, BHOOMI TOWER, PLOT NO 28, SEC-4, KHARGHAR NAVI MUMBAI, MAHARASHTRA410210 NAVI MUMBAI","https://www.google.com/maps?daddr=19.033224,73.06282",723144069,1, 9322273471,,,VIRANI TYRES,
https://www.tyres-n-services.in/dealers/mumbai/michelin-tyres-services-bombay-tyres-ketkipada/appointment?fitter=5d121e180dae941561e03b21&utm_source=michelin&utm_medium=dealerlocator&utm_campaign=bookappointment,MICHELIN,"https://www.michelin.in/auto/dealers/bombay-tyres9?search=Mumbai,%20Maharashtra,%20India",Mumbai,,"NEAR DAHISAR CHECK NAKA,OPP: WIRELESS STATION,S.V. ROAD,DAHISAR (WEST),MUMBAI400068 MUMBAI","https://www.google.com/maps?daddr=19.256,72.855",132116069,1, 9711989401,,,BOMBAY TYRES,https://www.tyres-n-services.in/dealers/mumbai/michelin-tyres-services-bombay-tyres-ketkipada
,MICHELIN,"https://www.michelin.in/auto/dealers/j-s-tyres-and-wheels1?search=Mumbai,%20Maharashtra,%20India",Mumbai,,"KABARA GALAXY STAR ONE HSG SOCIETY, SHOP NO 9 BRAHMAND, GHODBUNDER ROAD, KOLSHET, THANE WEST400607 THANE","https://www.google.com/maps?daddr=19.24557,72.97982",731371069,1, 7045930102,,,J S TYRES AND WHEELS,
https://www.tyres-n-services.in/dealers/thane/michelin-tyres-services-diwan-auto-care-manpada/appointment?fitter=5f1ec691e4e15c72519043cd&utm_source=michelin&utm_medium=dealerlocator&utm_campaign=bookappointment,MICHELIN,"https://www.michelin.in/auto/dealers/diwan-auto-care-llp?search=Mumbai,%20Maharashtra,%20India",Mumbai,,"SHOP NO 16, B WING SAGAR RESIDENCY, ANAND NAGAR, GB ROAD, THANE400607 THANE","https://www.google.com/maps?daddr=19.261711,72.9654",611601069,1, 7303886260,,,DIWAN AUTO CARE LLP,https://www.tyres-n-services.in/dealers/thane/michelin-tyres-services-diwan-auto-care-manpada
,MICHELIN,"https://www.michelin.in/auto/dealers/bhawani-tyre-services6?search=Mumbai,%20Maharashtra,%20India",Mumbai,,"SHOP NO:-D/6 NEW GOLDEN NEST, PHASE NOT 10 SONAM SAGAR KASHIMMIRA ROAD BHAYANDER401105 MUMBAI","https://www.google.com/maps?daddr=19.30639,72.86832",730042069,1, 7977935480,,,BHAWANI TYRE SERVICES,
https://www.tyres-n-services.in/dealers/thane/michelin-tyres-services-s.v.tyres-dombivali/appointment?fitter=5d1220840dae941561e03fb4&utm_source=michelin&utm_medium=dealerlocator&utm_campaign=bookappointment,MICHELIN,"https://www.michelin.in/auto/dealers/s-v-tyres0?search=Mumbai,%20Maharashtra,%20India",Mumbai,,"SHOP NO. 21-22,KDMC SPORTS COMPLEX,GHARDA CIRCLE, KALYAN ROAD,DOMBIVLI,421203 DOMBIVLI","https://www.google.com/maps?daddr=19.214,73.103",132214069,1, 8929100542,,,S.V.TYRES,https://www.tyres-n-services.in/dealers/thane/michelin-tyres-services-s.v.tyres-dombivali
,MICHELIN,"https://www.michelin.in/auto/dealers/national-ok-tyres6?search=Mumbai,%20Maharashtra,%20India",Mumbai,,"MUMBAI - POONA ROAD,PALASPA PHATA, POST ONGCPANVEL,MAHARSHATRA410221 PANVEL","https://www.google.com/maps?daddr=18.970783,73.131584",132037069,1, 022-32066248,,,NATIONAL OK TYRES,
,MICHELIN,"https://www.michelin.in/auto/dealers/chander-tyres1?search=Mumbai,%20Maharashtra,%20India",Mumbai,,"SHOP NO: 887, SHASTRI CHOWK, SECTION 17, ULHASNAGAR, DIST. THANE, MAHARASHTRA421003 ULHASNAGAR","https://www.google.com/maps?daddr=19.228628,73.15884",723134069,1, 9822659681,,,CHANDER TYRES,
,MICHELIN,"https://www.michelin.in/auto/dealers/nirankari-tyres6?search=Mumbai,%20Maharashtra,%20India",Mumbai,,"SHOP NO.788,SECTION-17,NEAR H.P PETROL PUMP,ULHASNAGAR, DISTT. THANE,421003 ULHASNAGAR","https://www.google.com/maps?daddr=19.221512,73.16446",132047069,1, 0251-2569712,,,NIRANKARI TYRES,
,MICHELIN,"https://www.michelin.in/auto/dealers/girnar-tyre-service3?search=Mumbai,%20Maharashtra,%20India",Mumbai,,"GROUND FLOOR, SHOP NO -7, REJOY SHOPS REVENUE VILLAGE MANIKPUR VASAI WEST PALGHAR401202 VASAI","https://www.google.com/maps?daddr=19.385315,72.82722",723120069,1, 9890211569,,,GIRNAR TYRE SERVICE,
,MICHELIN,"https://www.michelin.in/auto/dealers/vishnu-enterprises4?search=Mumbai,%20Maharashtra,%20India",Mumbai,,"GALA NO -03, SATIWALI ONXX TRIRUPATI IND. VASAI EAST, PALAGHAR401208 VASAI","https://www.google.com/maps?daddr=19.4059,72.862",611599069,1, 9322922614,,,VISHNU ENTERPRISES,
,MICHELIN,"https://www.michelin.in/auto/dealers/malhotra-tyres7?search=Mumbai,%20Maharashtra,%20India",Mumbai,,"BLDG :-7 FALT NO:--66, Mahvir Chamebr Boisar PALGHAR401501 PALGHAR","https://www.google.com/maps?daddr=19.43228,72.7743",723247069,1, 9890435844,,,MALHOTRA TYRES,
https://www.tyres-n-services.in/dealers/alibaug/michelin-tyres-services-mahalaxmi-agencies-pimpalbhat/appointment?fitter=5d121fb80dae941561e03e24&utm_source=michelin&utm_medium=dealerlocator&utm_campaign=bookappointment,MICHELIN,"https://www.michelin.in/auto/dealers/mahalaxmi-agencies?search=Mumbai,%20Maharashtra,%20India",Mumbai,,"NEAR SIMRAN MOTERS, SHOP NO.3, PIMPAL BHAT, CHENDHARE,  ALIBAG, RAIGAD, MAHARASHTRA402201 ALIBAUG","https://www.google.com/maps?daddr=18.652792,72.882805",132211069,1, 8929100518,,,Mahalaxmi Agencies,https://www.tyres-n-services.in/dealers/alibaug/michelin-tyres-services-mahalaxmi-agencies-pimpalbhat
,MICHELIN,"https://www.michelin.in/auto/dealers/nanda-tyres3?search=Mumbai,%20Maharashtra,%20India",Mumbai,,"MUMBAI PUNE ROAD, B1 GAVLIWADA LONAVALA PUNE410401 LONAVALA","https://www.google.com/maps?daddr=18.755024,73.40742",626559069,1, 9960511194,,,NANDA TYRES,
,MICHELIN,"https://www.michelin.in/auto/dealers/tyre-world1?search=Mumbai,%20Maharashtra,%20India",Mumbai,,"Shop No -3, Gurudatta Apartment, Kacheri Road, Near Kedarnath Lokmanya Nagar Palghar401404 Palghar","https://www.google.com/maps?daddr=19.69165,72.771286",428684069,1, 9850052127,,,Tyre World,
,MICHELIN,"https://www.michelin.in/auto/dealers/vakratund-tyres?search=Mumbai,%20Maharashtra,%20India",Mumbai,,"1, G No 2638/1, Ground Floor Mumbai Pune High Way Vadgaon Pune412106 Talegaon","https://www.google.com/maps?daddr=18.731363,73.53631",432134069,1, 7350506600,,,Vakratund Tyres,
,MICHELIN,"https://www.michelin.in/auto/dealers/ravi-tyres2?search=Akola,%20Maharashtra,%20India",Akola,,"RANPISE NAGAR CHOWK, OPP KUNAL COMMERCIAL COMPLEX444001 AKOLA","https://www.google.com/maps?daddr=20.709553,77.011826",731825069,1, 9823061790,,,RAVI TYRES,
,MICHELIN,"https://www.michelin.in/auto/dealers/punjab-tyres9?search=Akola,%20Maharashtra,%20India",Akola,,R.T.O ROAD GAUTAM NAGAR AKOLA444001 AKOLA,"https://www.google.com/maps?daddr=20.69737,77.01932",416327069,1, 9822691419,,,PUNJAB TYRES,
,MICHELIN,"https://www.michelin.in/auto/dealers/ajmera-tyres-pvt-ltd4?search=Akola,%20Maharashtra,%20India",Akola,,"C-10, SATURNA INDUSTRIAL ESTATE, BADNERA ROAD, SAI NAGAR, AMRAVATI444606 AMRAVATI","https://www.google.com/maps?daddr=20.905392,77.749245",723213069,1, 8882779999,,,AJMERA TYRES PVT LTD,
,MICHELIN,"https://www.michelin.in/auto/dealers/ajinkya-tyres6?search=Akola,%20Maharashtra,%20India",Akola,,"VILAS NAGAR COTTON MARKET ROAD, AMRAVATI444602 AMRAVATI","https://www.google.com/maps?daddr=20.934654,77.75503",723127069,1, 9420833002,,,AJINKYA TYRES,
,MICHELIN,"https://www.michelin.in/auto/dealers/plus-tyres9?search=Akola,%20Maharashtra,%20India",Akola,,"Rind Road, Near Kshitij Mangal Karyalaya, Navsari, Amravati,444604 Amravati","https://www.google.com/maps?daddr=20.972149,77.74076",912225069,0, 9096459076,,,PLUS TYRES,
,MICHELIN,"https://www.michelin.in/auto/dealers/gupta-tyro-zone?search=Akola,%20Maharashtra,%20India",Akola,,"IRWIN CHOWK, CAMP ROAD, AMRAVATI444601 AMRAVATI","https://www.google.com/maps?daddr=20.933832,77.76185",539345069,1, 9823063767,,,GUPTA TYRO ZONE,
,MICHELIN,"https://www.michelin.in/auto/dealers/murli-trading-co9?search=Akola,%20Maharashtra,%20India",Akola,,"CHANDRA BHAWAN, WALCUT COMPOUND, MORSHI ROAD444601 WALGAON","https://www.google.com/maps?daddr=20.93776,77.765495",460669069,1, 9822231296,,,MURLI TRADING CO,
,MICHELIN,"https://www.michelin.in/auto/dealers/vedika-tyres-and-auto-workshop?search=Akola,%20Maharashtra,%20India",Akola,,"GUT NO 56/57 ,PLOT NO 44/2,CHIKHALI ROAD , SANT GADGE NAGAR,SUNDARKHED ,BULDHANA443001 JALGAON","https://www.google.com/maps?daddr=20.52,76.21",731827069,1, 7720051713,,,VEDIKA TYRES AND AUTO WORKSHOP,
,MICHELIN,"https://www.michelin.in/auto/dealers/tulsi-tyres-2r-wholesaler32?search=Dhule,%20Maharashtra,%20India",Dhule,,"A - 22, MIDC, UDYOGANAGAR, MALEGAON ROAD, DHULIA, MAHARASHTRA,424311 DHULIA","https://www.google.com/maps?daddr=20.8556,74.77915",723024069,1, 9527348468,,,TULSI TYRES 2R WHOLESALER,
https://www.tyres-n-services.in/dealers/dhule/michelin-tyres-services-wasava-tyres-dhule-highway/appointment?fitter=5f1ecaca65fc7334a8b9d2f9&utm_source=michelin&utm_medium=dealerlocator&utm_campaign=bookappointment,MICHELIN,"https://www.michelin.in/auto/dealers/wasava-tyre-works94?search=Dhule,%20Maharashtra,%20India",Dhule,,"MUMBAI-AGRA ROAD,AWADHAN,DHULIA424311 DHULE","https://www.google.com/maps?daddr=20.855,74.765",726374069,1, 7303885759,,,WASAVA TYRE WORKS,https://www.tyres-n-services.in/dealers/dhule/michelin-tyres-services-wasava-tyres-dhule-highway
,MICHELIN,"https://www.michelin.in/auto/dealers/raka-tyres?search=Dhule,%20Maharashtra,%20India",Dhule,,LODHA MARKET SANGMESHWAR SATANA ROAD MALEGAON423203 MALEGAON,"https://www.google.com/maps?daddr=20.555769,74.52273",400053069,1, 9420483990,,,RAKA TYRES,
,MICHELIN,"https://www.michelin.in/auto/dealers/perfect-tyres5?search=Dhule,%20Maharashtra,%20India",Dhule,,"Collector Zone, Mosampuli423203 Malegaon","https://www.google.com/maps?daddr=20.550762,74.52388",628153069,1, 9822391190,,,Perfect Tyres,
,MICHELIN,"https://www.michelin.in/auto/dealers/new-sonai-tyres?search=Dhule,%20Maharashtra,%20India",Dhule,,SHOP NO.23 SUVARNATAI DESHMUKH COMPLEX BHADGAON ROAD424101 CHALISGAON,"https://www.google.com/maps?daddr=20.462746,75.00767",400123069,1, 9421586052,,,NEW SONAI TYRES,
,MICHELIN,"https://www.michelin.in/auto/dealers/anand-agencies?search=Dhule,%20Maharashtra,%20India",Dhule,,"15TH MUN, SHOPPING CENTRE, SHIVAJI CHOWK CHARPHATA SATANA423301 NASHIK","https://www.google.com/maps?daddr=20.598225,74.203255",140903069,1, 02555-223155,,,Anand  Agencies,
,MICHELIN,"https://www.michelin.in/auto/dealers/shree-sai-tyres-and-services3?search=Dhule,%20Maharashtra,%20India",Dhule,,"Rajiv Gandhi Complex, Shop No 48, Station Road, Nandurbar HO,425412 NANDURBAR","https://www.google.com/maps?daddr=21.35664,74.24618",757061069,0, 9325086474,,,SHREE SAI TYRES AND SERVICES,
,MICHELIN,"https://www.michelin.in/auto/dealers/new-asha-tyres?search=Dhule,%20Maharashtra,%20India",Dhule,,"SHOP NO -5 AND 6, MALARA MARKET, OPP OLD BUS STAND JALGAON (MCL)425001 JALGAON","https://www.google.com/maps?daddr=21.006556,75.564606",400015069,1, 7709778177,,,NEW ASHA TYRES,
,MICHELIN,"https://www.michelin.in/auto/dealers/raka-tyre-house7?search=Dhule,%20Maharashtra,%20India",Dhule,,"NAVI PETH, CHITRA CHOWK, JALGAON425001 JALGAON","https://www.google.com/maps?daddr=20.998,75.567",330691069,1, 0257-2240400,,,RAKA TYRE HOUSE,
https://www.tyres-n-services.in/dealers/jalgaon/michelin-tyres-services-raisoni-brothers-jalgaon-collectorate/appointment?fitter=5d121de50dae941561e03abb&utm_source=michelin&utm_medium=dealerlocator&utm_campaign=bookappointment,MICHELIN,"https://www.michelin.in/auto/dealers/raisoni-brothers6?search=Dhule,%20Maharashtra,%20India",Dhule,,"Shop No. 34, 35, Sureshdada Shopping Complex, Ajintha Choufully425001 JALGAON","https://www.google.com/maps?daddr=21.016,75.565",132194069,1, 9711993037,,,RAISONI BROTHERS,https://www.tyres-n-services.in/dealers/jalgaon/michelin-tyres-services-raisoni-brothers-jalgaon-collectorate
,MICHELIN,"https://www.michelin.in/auto/dealers/new-m-a-tyres9?search=Dhule,%20Maharashtra,%20India",Dhule,,"CS NO 3820, NEAR PANCHAYAT SAMITI,  VINCHUR ROAD, YEOLA423401 YEVLA","https://www.google.com/maps?daddr=20.04948,74.48662",756114069,0, 9850592486,,,NEW M.A. TYRES,
,MICHELIN,"https://www.michelin.in/auto/dealers/sharma-tyres0?search=Delhi,%20India",Delhi,,"SHOP NO -4, (G.F), D-6/19, SEC-6, ROHINI DELHI110085 DELHI","https://www.google.com/maps?daddr=28.714455,77.11219",330888069,1, 8447055617,,,SHARMA TYRES,
,MICHELIN,"https://www.michelin.in/auto/dealers/deep-tyres7?search=Delhi,%20India",Delhi,,"C - 581, Saraswati Vihar, Outer Ring Road, Delhi110034 Delhi","https://www.google.com/maps?daddr=28.699078,77.12238",140373069,1, 011-270130355,,,Deep Tyres,
,MICHELIN,"https://www.michelin.in/auto/dealers/sethi-tyres5?search=Delhi,%20India",Delhi,,"G/1, AMBA TOWER, DC CHOWK SEC-9, ROHINI NORTH DELHI DELHI110085 DELHI","https://www.google.com/maps?daddr=28.71868,77.12537",607845069,1, 9999752057,,,SETHI TYRES,
https://www.tyres-n-services.in/dealers/delhi/michelin-tyres-services-gupta-tyre-house-sector-24/appointment?fitter=5d12219f0dae941561e041dd&utm_source=michelin&utm_medium=dealerlocator&utm_campaign=bookappointment,MICHELIN,"https://www.michelin.in/auto/dealers/gupta-tyer-house4?search=Delhi,%20India",Delhi,,"House No -285, G.F Pkt-8, Sector-24, Delhi110085 Delhi","https://www.google.com/maps?daddr=28.728453,77.088104",425008069,1, 8929100575,,,Gupta Tyre House,https://www.tyres-n-services.in/dealers/delhi/michelin-tyres-services-gupta-tyre-house-sector-24
https://www.tyres-n-services.in/dealers/delhi/michelin-tyres-car-service-okara-wheel-care-pitampura/appointment?fitter=5d1220150dae941561e03edf&utm_source=michelin&utm_medium=dealerlocator&utm_campaign=bookappointment,MICHELIN,"https://www.michelin.in/auto/dealers/okara-wheel-care?search=Delhi,%20India",Delhi,,"313, RAJDHANI ENCLAVE,PITAMPURA,DELHI110034 DELHI","https://www.google.com/maps?daddr=28.68562,77.13409",329817069,1, 8929100529,,,OKARA WHEEL CARE,https://www.tyres-n-services.in/dealers/delhi/michelin-tyres-car-service-okara-wheel-care-pitampura
,MICHELIN,"https://www.michelin.in/auto/dealers/bombay-tyres-pcr-punjabi-bagh6?search=Delhi,%20India",Delhi,,"35, NORTH WEST AVENUE, PUNJABI BAGH EXTENSION, NEW DELHI,110026 DELHI","https://www.google.com/maps?daddr=28.666925,77.12087",723116069,1, 9313552515,,,BOMBAY TYRES PCR  ( PUNJABI BAGH ),
,MICHELIN,"https://www.michelin.in/auto/dealers/s-s-dua-sons5?search=Delhi,%20India",Delhi,,"B1/223, NEW MOTINAGAR WAST DELHI110015 DELHI","https://www.google.com/maps?daddr=28.664,77.1404",723111069,1, 9818912111,,,S S DUA & SONS,
https://www.tyres-n-services.in/dealers/new-delhi/michelin-tyres-services-derick-impex-moti-nagar/appointment?fitter=5d121acd0dae941561e034a2&utm_source=michelin&utm_medium=dealerlocator&utm_campaign=bookappointment,MICHELIN,"https://www.michelin.in/auto/dealers/derick-impex?search=Delhi,%20India",Delhi,,"Ground Floor, A207, Main Patel Road, New Moti Nagar, West Delhi110015 New Motinagar","https://www.google.com/maps?daddr=28.66114,77.14291",140799069,1, 9999869234,,,Derick Impex,https://www.tyres-n-services.in/dealers/new-delhi/michelin-tyres-services-derick-impex-moti-nagar
,MICHELIN,"https://www.michelin.in/auto/dealers/chakra-wheels-and-tires-llp2?search=Delhi,%20India",Delhi,,"PLOT NO 70, NAJAFGARH ROAD, IND AREA, MOTINAGAR110015 DELHI","https://www.google.com/maps?daddr=28.6603,77.1467",723113069,1, 9999995998,,,CHAKRA WHEELS AND TIRES LLP,
https://www.tyres-n-services.in/dealers/new-delhi/michelin-tyres-services-wheels-north-outer-ring-road/appointment?fitter=5d12217d0dae941561e04199&utm_source=michelin&utm_medium=dealerlocator&utm_campaign=bookappointment,MICHELIN,"https://www.michelin.in/auto/dealers/wheels-north?search=Delhi,%20India",Delhi,,"Ground Floor, G-133, Pushkar Enclave Outer Ring Road, New Delhi110063 Delhi","https://www.google.com/maps?daddr=28.641241,77.08281",427590069,1, 8929100571,,,Wheels North,https://www.tyres-n-services.in/dealers/new-delhi/michelin-tyres-services-wheels-north-outer-ring-road
,MICHELIN,"https://www.michelin.in/auto/dealers/nangia-s-tyre-junction-regd?search=Delhi,%20India",Delhi,,"54/57, OPP METRO PILLAR NO 553110018 DELHI","https://www.google.com/maps?daddr=28.63427,77.0845",327746069,1, 9971270271,,,NANGIA'S TYRE JUNCTION (REGD),
,MICHELIN,"https://www.michelin.in/auto/dealers/bindra-tyre-shoppe?search=Delhi,%20India",Delhi,,"2&3, D-169,FATEH NAGAR,JAIL ROAD,NEW DELHI110018 DELHI","https://www.google.com/maps?daddr=28.631752,77.098694",131728069,1, 9810037865,,,BINDRA TYRE SHOPPE,
,MICHELIN,"https://www.michelin.in/auto/dealers/luxmi-tyres2?search=Delhi,%20India",Delhi,,"A-6, KH NO 37/21/46/1, BRAHM PURI RANHOLLA NANGLOI110041 DELHI","https://www.google.com/maps?daddr=28.655172,77.036255",723105069,1, 9999134929,,,LUXMI TYRES,
https://www.tyres-n-services.in/dealers/delhi/michelin-tyres-services-liberty-tyres-model-town/appointment?fitter=5d1220c30dae941561e0402b&utm_source=michelin&utm_medium=dealerlocator&utm_campaign=bookappointment,MICHELIN,"https://www.michelin.in/auto/dealers/liberty-tyres?search=Delhi,%20India",Delhi,,"B - 5, DERAWAL NAGAR,NEAR DOUBLE PETROL PUMP,DELHI,110009 DELHI","https://www.google.com/maps?daddr=28.703201,77.192085",132157069,1, 8929100549,,,LIBERTY TYRES,https://www.tyres-n-services.in/dealers/delhi/michelin-tyres-services-liberty-tyres-model-town
,MICHELIN,"https://www.michelin.in/auto/dealers/rreliance-tyres6?search=Delhi,%20India",Delhi,,"WZ -33 A/6, SHOP NO -6 G/F, MAIN JANKPURI ROAD VIRENDER NAGAR110058 DELHI","https://www.google.com/maps?daddr=28.62367,77.09768",723110069,1, 9810033899,,,RRELIANCE TYRES,
,MICHELIN,"https://www.michelin.in/auto/dealers/new-quality-tyres?search=Delhi,%20India",Delhi,,"CB - 203, RING ROAD, NARAINA, NEXT TO PETROL PUMP, DELHI, NEW DELHI110028 DELHI","https://www.google.com/maps?daddr=28.625206,77.132126",131712069,1, 9212029599,,,NEW QUALITY TYRES PCR,
,MICHELIN,"https://www.michelin.in/auto/dealers/tyre-shoppe5?search=Delhi,%20India",Delhi,,"CB 385 A, Indira Market Ring Road  Delhi110028 DELHI","https://www.google.com/maps?daddr=28.623499,77.13531",638913069,1, 9811086826,,,TYRE SHOPPE,
,MICHELIN,"https://www.michelin.in/auto/dealers/guru-kripa-tyre-shoppe?search=Delhi,%20India",Delhi,,"160 WEST MUKHERJEE NAGAR, PARMANAND CHOWK KINGSWAY CAMP ROAD, DELHI110009 DELHI","https://www.google.com/maps?daddr=28.6962,77.1999",409320069,1, 9818574431,,,GURU KRIPA TYRE SHOPPE,
,MICHELIN,"https://www.michelin.in/auto/dealers/tyres-n-wheels?search=Delhi,%20India",Delhi,,"Plot No -9, Shop No -1, G/F, Main Dabri Palam Road Harijan Basti Dabri New Delhi110045 Delhi","https://www.google.com/maps?daddr=28.609217,77.08287",432998069,1, 9990888295,,,Tyres N Wheels,
https://www.tyres-n-services.in/dealers/new-delhi/michelin-tyres-services-rana-tyres-karol-bagh/appointment?fitter=5d121c640dae941561e037c4&utm_source=michelin&utm_medium=dealerlocator&utm_campaign=bookappointment,MICHELIN,"https://www.michelin.in/auto/dealers/rana-tyres?search=Delhi,%20India",Delhi,,"Shop No. 7, Building No. 888,East Park Road,Karol Bagh New Delhi110005 New Delhi","https://www.google.com/maps?daddr=28.650347,77.19503",132161069,1, 9953884139,,,RANA TYRES,https://www.tyres-n-services.in/dealers/new-delhi/michelin-tyres-services-rana-tyres-karol-bagh
,MICHELIN,"https://www.michelin.in/auto/dealers/kanwal-tyre-delhi0?search=Delhi,%20India",Delhi,,"1695, ARYA SAMAJ ROAD, KAROL BAGH, CENTRAL DELHI110005 DELHI","https://www.google.com/maps?daddr=28.64727,77.19467",755788069,1, 9899999936,,,KANWAL TYRE (DELHI),
,MICHELIN,"https://www.michelin.in/auto/dealers/new-krishna-tyres8?search=Delhi,%20India",Delhi,,"Shop No. 90,91,92, Azad Market, Patiala Road, Rajpura Town, Punjab140401 Rajpura","https://www.google.com/maps?daddr=28.663687,77.209564",431241069,1, 9815547024,,,New Krishna Tyres,
https://www.tyres-n-services.in/dealers/delhi/michelin-tyres-services-tyres-planet-dwarka/appointment?fitter=5d121ca70dae941561e0384c&utm_source=michelin&utm_medium=dealerlocator&utm_campaign=bookappointment,MICHELIN,"https://www.michelin.in/auto/dealers/tyres-planet7?search=Delhi,%20India",Delhi,,"E-561, SECTOR- 6&7, RAMPHAL CHOWK,NEAR CITY MALL,DWARKA,DELHI,110015 DELHI","https://www.google.com/maps?daddr=28.604038,77.04445",132159069,1, 9899888407,,,TYRES PLANET,https://www.tyres-n-services.in/dealers/delhi/michelin-tyres-services-tyres-planet-dwarka
,MICHELIN,"https://www.michelin.in/auto/dealers/promark-tyre-india-private-limited?search=Delhi,%20India",Delhi,,"GROUND FLOOR, SHOP NO 5, RZ-A1/25, KH NO 83/9, MUNSHI RAM COMPLEX, MAIN ROAD MAHAVIR ENCLAVE, PALAM COLONY, SOUTH WEST DELHI110045 DELHI","https://www.google.com/maps?daddr=28.589537,77.07683",702835069,1, 9999992202,,,PROMARK TYRE INDIA PRIVATE LIMITED,
,MICHELIN,"https://www.michelin.in/auto/dealers/auto-shoppe?search=Delhi,%20India",Delhi,,"SHOP NO. 38, PRITHVIRAJ MARKET, NEAR KHAN  MARKETNEW DELHI110003 DELHI","https://www.google.com/maps?daddr=28.614,77.209",131710069,1, 9818392506,,,AUTO SHOPPE,
,MICHELIN,"https://www.michelin.in/auto/dealers/embassy-tyres?search=Delhi,%20India",Delhi,,"SHOP NO. 2, BE - 359A, GALI No. 1,HARI NAGAR,NEW DELHI,110064 DELHI","https://www.google.com/maps?daddr=28.835,77.092",131723069,1, 9810019815,,,EMBASSY TYRES,
,MICHELIN,"https://www.michelin.in/auto/dealers/vikas-service-station7?search=Delhi,%20India",Delhi,,"GF, NEAR GUEST HOUSE, MAIN ROAD ALIPUR, NORTH WEST DELHI110036 DELHI","https://www.google.com/maps?daddr=28.842209,77.08991",757064069,0, 8587888148,,,VIKAS SERVICE STATION,
,MICHELIN,"https://www.michelin.in/auto/dealers/aman-tyre-shop?search=Delhi,%20India",Delhi,,"H.NO 839 A/3, POLE 276, HAIBAT PURA, NAJAFGARH, SOUTH WEST DELHI110043 DELHI","https://www.google.com/maps?daddr=28.613817,76.981224",330869069,1, 9313553896,,,AMAN TYRE SHOP,
,MICHELIN,"https://www.michelin.in/auto/dealers/jindal-trading-co22?search=Delhi,%20India",Delhi,,"2388, ALIPUR ROAD, NARELA, DELHI110040 DELHI","https://www.google.com/maps?daddr=28.84381,77.08944",757065069,0, 9210897507,,,JINDAL TRADING CO,
,MICHELIN,"https://www.michelin.in/auto/dealers/pushpa-wheels?search=Delhi,%20India",Delhi,,"KHERA MORE, GOPAL NAGAR, NAJAFGARH, NEW DELHI110043 DELHI","https://www.google.com/maps?daddr=28.611256,76.975555",131713069,1, 9212565710,,,PUSHPA WHEELS,
,MICHELIN,"https://www.michelin.in/auto/dealers/mahabir-tyres?search=Delhi,%20India",Delhi,,"SHOP NO G-14, PALLIKA BHAWAN, NEW DELHI110066 DELHI","https://www.google.com/maps?daddr=28.571178,77.184326",732848069,1, 9910010100,,,MAHABIR TYRES,
https://www.tyres-n-services.in/dealers/new-delhi/michelin-tyres-services-mahavir-tyre-house-rk-puram/appointment?fitter=5ecbbce65071953c668c023e&utm_source=michelin&utm_medium=dealerlocator&utm_campaign=bookappointment,MICHELIN,"https://www.michelin.in/auto/dealers/mahavir-tyre-house68?search=Delhi,%20India",Delhi,,"B-10,PALIKA BHAVAN,R.K PURAM,SECTOR-13,110066 DELHI","https://www.google.com/maps?daddr=28.571,77.184",723061069,1, 8929100538,,,MAHAVIR TYRE HOUSE,https://www.tyres-n-services.in/dealers/new-delhi/michelin-tyres-services-mahavir-tyre-house-rk-puram
,MICHELIN,"https://www.michelin.in/auto/dealers/goodluck-tyres?search=Delhi,%20India",Delhi,,"PLOT NO -1, KH NO 43/2/1, GROUND FLOOR ARYA SAMAJ ROAD RAJEEV COLONY110040 DELHI","https://www.google.com/maps?daddr=28.857027,77.091866",131715069,1, 9958013510,,,GOOD LUCK TYRE & WHEELS,
,MICHELIN,"https://www.michelin.in/auto/dealers/auto-gallery4?search=Delhi,%20India",Delhi,,"G-34, PALIKA BHAVAN, OPP. HYATT REGENCY HOTEL, R.K. PURAM, SECTOR-12110066 NEW DELHI","https://www.google.com/maps?daddr=28.55647,77.176",701271069,1, 9910052050,,,AUTO GALLERY,
,MICHELIN,"https://www.michelin.in/auto/dealers/continental-car-scanners?search=Delhi,%20India",Delhi,,"21, Mohan Singh Market, (Behind INA Market)110023 DELHI","https://www.google.com/maps?daddr=28.573696,77.21137",437128069,1, 9250488765,,,CONTINENTAL CAR SCANNERS,
,MICHELIN,"https://www.michelin.in/auto/dealers/jain-tyre-trading-co?search=Delhi,%20India",Delhi,,"Parnala Road, Near Bus Stand124507 Bahadurgarh","https://www.google.com/maps?daddr=28.68,76.92",140924069,1, 9810518535,,,Jain Tyre Trading Co,
,MICHELIN,"https://www.michelin.in/auto/dealers/balaji-motors?search=Delhi,%20India",Delhi,,"C-551, NEAR SHIV MANDIR, TRANSFORMERMAIN 100 FOOT ROAD ,EAST BABARPURSAHADARADELHI,110032 DELHI","https://www.google.com/maps?daddr=28.687,77.292",132076069,1, 9212632595,,,BALAJI MOTORS,
https://www.tyres-n-services.in/dealers/delhi/michelin-tyres-services-madaan-tyre-house-krishna-nagar/appointment?fitter=5d121be40dae941561e036cc&utm_source=michelin&utm_medium=dealerlocator&utm_campaign=bookappointment,MICHELIN,"https://www.michelin.in/auto/dealers/madaan-tyre-house39?search=Delhi,%20India",Delhi,,"C-60 EAST KRISHNA NAGAR DELHI DELHI,110051 DELHI","https://www.google.com/maps?daddr=28.661386,77.28689",726394069,1, 9999819338,,,MADAAN TYRE HOUSE,https://www.tyres-n-services.in/dealers/delhi/michelin-tyres-services-madaan-tyre-house-krishna-nagar
,MICHELIN,"https://www.michelin.in/auto/dealers/south-delhi-tyres09?search=Delhi,%20India",Delhi,,"204/2, AYA NAGAR, SOUTH DELHI110030 DELHI","https://www.google.com/maps?daddr=28.55944,77.2067",765657069,0, 9811080118,,,SOUTH DELHI TYRES,
https://www.tyres-n-services.in/dealers/new-delhi/michelin-tyres-services-south-delhi-tyres-green-park-market/appointment?fitter=5d121ef10dae941561e03cad&utm_source=michelin&utm_medium=dealerlocator&utm_campaign=bookappointment,MICHELIN,"https://www.michelin.in/auto/dealers/south-delhi-tyres0?search=Delhi,%20India",Delhi,,"C-1/3-4, GREEN PARK EXTENSON, NEW DELHI110016 DELHI","https://www.google.com/maps?daddr=28.559435,77.206696",460705069,1, 8588897228,,,SOUTH DELHI TYRES,https://www.tyres-n-services.in/dealers/new-delhi/michelin-tyres-services-south-delhi-tyres-green-park-market
,MICHELIN,"https://www.michelin.in/auto/dealers/high-speed-tyres-and-batteries?search=Delhi,%20India",Delhi,,"47, MOHAN PARK, OPP. RADHU PALACE CINEMA, DELHI110092 DELHI","https://www.google.com/maps?daddr=28.639826,77.28348",131695069,1, 9811868609,,,HIGH SPEED TYRE & BATTERY,
https://www.tyres-n-services.in/dealers/new-delhi/michelin-tyres-services-bk-tyres-lajpat-nagar/appointment?fitter=5d1221390dae941561e04111&utm_source=michelin&utm_medium=dealerlocator&utm_campaign=bookappointment,MICHELIN,"https://www.michelin.in/auto/dealers/b-k-tyres?search=Delhi,%20India",Delhi,,"A1 / 108, Lajpat Nagar I, NEW DELHI110024 DELHI","https://www.google.com/maps?daddr=28.57355,77.239044",437119069,1, 8929100563,,,B. K. TYRES,https://www.tyres-n-services.in/dealers/new-delhi/michelin-tyres-services-bk-tyres-lajpat-nagar
,MICHELIN,"https://www.michelin.in/auto/dealers/the-tyre-plaza?search=Delhi,%20India",Delhi,,"B-113 LAJPAT NAGAR PART1,NEAR DEFENCE COLONY FLYOVER,NEW DELHI110024 DELHI","https://www.google.com/maps?daddr=28.571,77.236",131709069,1, 9716086906,,,THE TYRE PLAZA,
,MICHELIN,"https://www.michelin.in/auto/dealers/tyre-gallery7?search=Delhi,%20India",Delhi,,"GT ROAD, PIO MANIYARI, NEAR TDI MALL, KUNDLI, SONIPAT, HARYANA131028 SONIPAT","https://www.google.com/maps?daddr=28.884962,77.11767",330721069,1, 9416015201,,,TYRE GALLERY PCR,
,MICHELIN,"https://www.michelin.in/auto/dealers/turbo-tyres?search=Delhi,%20India",Delhi,,"SHOP NO 9 AND 10, PARMESH BUSINESS CENTRE I, KARKARDOMA COMPLEX, EAST DELHI110092 DELHI","https://www.google.com/maps?daddr=28.69041,77.30894",616044069,1, 9873288088,,,TURBO TYRES,
,MICHELIN,"https://www.michelin.in/auto/dealers/kumar-services147?search=Delhi,%20India",Delhi,,"E - 10, PANDAV NAGAR, PATPARGANJ, NEW DELHI110091 DELHI","https://www.google.com/maps?daddr=28.616558,77.28761",726395069,1, 9582135884,,,KUMAR SERVICES,
,MICHELIN,"https://www.michelin.in/auto/dealers/shyam-battery-and-tyres1?search=Delhi,%20India",Delhi,,"FIRST FLOOR, 486/1, PLOT NO 26A, G.T ROAD, DILSHAD GARDEN EAST DELHI110095 DELHI","https://www.google.com/maps?daddr=28.67628,77.31843",611598069,1, 9650421880,,,SHYAM BATTERY AND TYRES,
,MICHELIN,"https://www.michelin.in/auto/dealers/dahiya-tyre-sole2?search=Delhi,%20India",Delhi,,"OPP. DEVILAL PARK, DELHI-ROHTAK ROAD, VILLAGE SANKHOL, BAHADURGARH124507 BAHADURGARH","https://www.google.com/maps?daddr=28.692415,76.881584",460684069,1, 9813630207,,,DAHIYA TYRE SOLE,
,MICHELIN,"https://www.michelin.in/auto/dealers/mahavir-tyre-shopee?search=Delhi,%20India",Delhi,,"161, B/9, Vasant Kunj Opp Church Delhi Delhi110070 New Delhi","https://www.google.com/maps?daddr=28.516342,77.159706",330775069,1, 9910010100,,,Mahavir Tyre Shopee,
,MICHELIN,"https://www.michelin.in/auto/dealers/the-tyre-x-india96?search=Delhi,%20India",Delhi,,"SHOP NO.3, AKASH TOWER, SAVITA VIHAR, NEW DELHI110092 DELHI","https://www.google.com/maps?daddr=28.661,77.319",723026069,1, 8700773541,,,THE TYRE'X INDIA,
,MICHELIN,"https://www.michelin.in/auto/dealers/gandhi-motor-store?search=Delhi,%20India",Delhi,,"SHOP NO. 35, JAGANNATH MARKET, ASHRAM CHOWK, NEW DELHI110065 DELHI","https://www.google.com/maps?daddr=28.567812,77.26165",327830069,1,,,,GANDHI MOTOR STORE,
,MICHELIN,"https://www.michelin.in/auto/dealers/tyre-villa?search=Delhi,%20India",Delhi,,"C-127, SHOP NO-1110028 DELHI","https://www.google.com/maps?daddr=28.628126,77.329834",327769069,1,,,,TYRE VILLA,
,MICHELIN,"https://www.michelin.in/auto/dealers/singh-shoppe?search=Delhi,%20India",Delhi,,"D-584, CHITTARANJAN PARK, NEW DELHI110019 DELHI","https://www.google.com/maps?daddr=28.535,77.251",131702069,1, 9971099239,,,SINGH SHOPPE,
,MICHELIN,"https://www.michelin.in/auto/dealers/jai-hind-solutions99?search=Delhi,%20India",Delhi,,"PLOT NO -162, NEAR BAWANA INDUSTRIAL AREA VILLAGE SULTANPUR DABAS NORTH WEST DELHI110039 DELHI","https://www.google.com/maps?daddr=28.49497,77.165726",723103069,1, 9013010188,,,JAI HIND SOLUTIONS,
,MICHELIN,"https://www.michelin.in/auto/dealers/shree-shyam-tyre-shoppe?search=Delhi,%20India",Delhi,,"Plot No.1 G/F, KH NO.48/21 NANGLOI,110073 DELHI","https://www.google.com/maps?daddr=28.57093,76.90583",327702069,1,,,,SHREE SHYAM TYRE SHOPPE,
https://www.tyres-n-services.in/dealers/gurugram/michelin-tyres-services-zig-wheels-sikanderpur/appointment?fitter=5d1221060dae941561e040ab&utm_source=michelin&utm_medium=dealerlocator&utm_campaign=bookappointment,MICHELIN,"https://www.michelin.in/auto/dealers/zig-wheels7?search=Delhi,%20India",Delhi,,"1-4, ZIG WHEELS, MEHRAULI TURN CYBER CITY, SIKANDERPUR GURGAON, HARYANA122001 GURGAON","https://www.google.com/maps?daddr=28.485115,77.09564",723009069,1, 8929100557,,,ZIG WHEELS,https://www.tyres-n-services.in/dealers/gurugram/michelin-tyres-services-zig-wheels-sikanderpur
https://www.tyres-n-services.in/dealers/gurugram/michelin-tyres-services-mahadev-tyre-house-sector-18/appointment?fitter=5d121e750dae941561e03bbc&utm_source=michelin&utm_medium=dealerlocator&utm_campaign=bookappointment,MICHELIN,"https://www.michelin.in/auto/dealers/mahadev-tyre-house85?search=Delhi,%20India",Delhi,,"SECTOR 17 - 18 LINK ROAD,NEAR MGF TOYOTA WORKSHOP,SECTOR - 18,GURGAON,122001 GURGAON","https://www.google.com/maps?daddr=28.485977,77.05968",726393069,1, 9711983130,,,MAHADEV TYRE HOUSE,https://www.tyres-n-services.in/dealers/gurugram/michelin-tyres-services-mahadev-tyre-house-sector-18
,MICHELIN,"https://www.michelin.in/auto/dealers/chhabra-tyres?search=Delhi,%20India",Delhi,,37 OM NAGAR SAHIBABAD GHAZIABAD201007 GHAZIABAD,"https://www.google.com/maps?daddr=28.682257,77.355446",399394069,1, 9810904500,,,CHHABRA TYRES,
,MICHELIN,"https://www.michelin.in/auto/dealers/a-b-n-automobiles-pvt-ltd7?search=Delhi,%20India",Delhi,,"B-35 SECTOR-16, NOIDA, DISTT. GAUTAM BUDH NAGAR201301 NOIDA","https://www.google.com/maps?daddr=28.57827,77.313965",723092069,1, 0120-4334462,,,A.B.N. AUTOMOBILES PVT. LTD,
,MICHELIN,"https://www.michelin.in/auto/dealers/jkm-automobiles-accessories?search=Delhi,%20India",Delhi,,"586/6, GOVINDPURI, KALKA JI SOUTH DELHI110019 DELHI","https://www.google.com/maps?daddr=28.53273,77.26766",634200069,1, 9999978740,,,JKM AUTOMOBILES & ACCESSORIES,
,MICHELIN,"https://www.michelin.in/auto/dealers/bs-impex4?search=Delhi,%20India",Delhi,,"GROUND FLOOR, HOUSE NO 116 MEHRAULI GURGAON ROAD, GHITORNI SIDE AYA NAGAR, SOUTH WEST DELHI110030 DELHI","https://www.google.com/maps?daddr=28.4802,77.1247",731373069,0, 9891919081,,,BS IMPEX,
,MICHELIN,"https://www.michelin.in/auto/dealers/grace-enterprizes?search=Delhi,%20India",Delhi,,"B - 69, 70, 71,CENTRAL AUTO MARKET,NOIDA,UTTAR PRADESH,201301 NOIDA","https://www.google.com/maps?daddr=28.589,77.323",131739069,1, 9810261878,,,GRACE ENTERPRIZES,
,MICHELIN,"https://www.michelin.in/auto/dealers/ashok-motors2?search=Delhi,%20India",Delhi,,"AB-62, CENTRAL, AUTO MARKET, SECTOR-16, NOIDA, GAUTAM BUDDHA NAGAR201301 NOIDA","https://www.google.com/maps?daddr=28.57522,77.31529",723087069,1, 9717841595,,,ASHOK MOTORS,
,MICHELIN,"https://www.michelin.in/auto/dealers/keshav-tyre-sales?search=Delhi,%20India",Delhi,,"Shop No. 2, Old Delhi Road, Opp. Ajit Cinema, Gurgaon ,Gurgaon122001 GURGAON","https://www.google.com/maps?daddr=28.466381,77.035736",460834069,1, 9212794001,,,KESHAV TYRE SALES,
https://www.tyres-n-services.in/dealers/gurugram/michelin-tyres-services-safe-wheels-and-batteries-mg-road/appointment?fitter=5d12216b0dae941561e04177&utm_source=michelin&utm_medium=dealerlocator&utm_campaign=bookappointment,MICHELIN,"https://www.michelin.in/auto/dealers/safe-wheels-and-batteries2?search=Delhi,%20India",Delhi,,"SHOP NO.321/2MEHRAULI ROADOPP.POWER HOUSEGURGAON,122001 GURGAON","https://www.google.com/maps?daddr=28.464376,77.03538",132192069,1, 8929100569,,,SAFE WHEELS AND BATTERIES,https://www.tyres-n-services.in/dealers/gurugram/michelin-tyres-services-safe-wheels-and-batteries-mg-road
https://www.tyres-n-services.in/dealers/ghaziabad/michelin-tyres-services-resham-tyres-pvt.-ltd.-indirapuram-road./appointment?fitter=5d121c1a0dae941561e03732&utm_source=michelin&utm_medium=dealerlocator&utm_campaign=bookappointment,MICHELIN,"https://www.michelin.in/auto/dealers/resham-tyres?search=Delhi,%20India",Delhi,,"G.H - 6M, Ahinsa Khand - 11, Indrapuram, Ghaziabad, Uttarpradesh201010 Ghaziabad","https://www.google.com/maps?daddr=28.63829,77.37866",433161069,1, 8588886304,,,Resham Tyres,https://www.tyres-n-services.in/dealers/ghaziabad/michelin-tyres-services-resham-tyres-pvt.-ltd.-indirapuram-road
,MICHELIN,"https://www.michelin.in/auto/dealers/new-century-tyres-and-batteries?search=Delhi,%20India",Delhi,,"GOLF COURSE ROAD, SECTOR-62, NEAR CNG PUMP, GURGAON122002 GURGAON","https://www.google.com/maps?daddr=28.45497,77.03205",755836069,0, 9810717369,,,NEW CENTURY TYRES AND BATTERIES,
,MICHELIN,"https://www.michelin.in/auto/dealers/new-chawla-tyre-service?search=Delhi,%20India",Delhi,,"SHOP NO 18, NEHRU STADIUM MARKET,SOHNA ALWAR ROAD,GURGAON,HARYANA122001 GURGAON","https://www.google.com/maps?daddr=28.455,77.022",131765069,1, 9811640165,,,NEW CHAWLA TYRE SERVICE,
https://www.tyres-n-services.in/dealers/noida/michelin-tyres-services-sunny-motors-sector-66/appointment?fitter=5d121a820dae941561e03409&utm_source=michelin&utm_medium=dealerlocator&utm_campaign=bookappointment,MICHELIN,"https://www.michelin.in/auto/dealers/sunny-motor1?search=Delhi,%20India",Delhi,,"KHASRA NO -227, SHOP NO -12 GROUND FLOOR VILLAGE MAMURA SECTOR -66 MAIN ROAD NOIDA201301 NOIDA","https://www.google.com/maps?daddr=28.611689,77.37839",460706069,1, 9999893650,,,SUNNY MOTOR,https://www.tyres-n-services.in/dealers/noida/michelin-tyres-services-sunny-motors-sector-66
,MICHELIN,"https://www.michelin.in/auto/dealers/wheels-world98?search=Delhi,%20India",Delhi,,"GROUND FLOOR , PLOT NO -1, DHANI MARKET, SEC-52, ARDEE CITY ROAD GURGAON122001 GURGAON","https://www.google.com/maps?daddr=28.440601,77.07879",460990069,1,,,,WHEELS WORLD,
,MICHELIN,"https://www.michelin.in/auto/dealers/zig-wheels1?search=Delhi,%20India",Delhi,,"Sector-54, Golf course road,besides Ocus Technopolis building,Opp HDFC Bank,GURGAON,122002 GURGAON","https://www.google.com/maps?daddr=28.43735,77.10152",132172069,1, 8800497465,,,ZIG WHEELS,
,MICHELIN,"https://www.michelin.in/auto/dealers/resham-tyres2?search=Delhi,%20India",Delhi,,"BASAI MARKET, SECTOR 70, NOIDA EXTENSION ROAD, NEAR CLEO COUNTY, NOIDA201301 NOIDA","https://www.google.com/maps?daddr=28.597439,77.38268",431355069,1, 9540332211,,,RESHAM TYRES,
,MICHELIN,"https://www.michelin.in/auto/dealers/miracle-tyres3?search=Delhi,%20India",Delhi,,"SHOP NO.133, ISLAMPUR SOHNA ROAD,122001 GURGAON","https://www.google.com/maps?daddr=28.43409,77.035645",741068069,1, 9891346000,,,MIRACLE TYRES,
https://www.tyres-n-services.in/dealers/gurugram/michelin-tyres-services-k-k-tyre-experts-pvt-ltd-sector-48/appointment?fitter=5d121c330dae941561e03765&utm_source=michelin&utm_medium=dealerlocator&utm_campaign=bookappointment,MICHELIN,"https://www.michelin.in/auto/dealers/k-k-tyre-experts-private-limited1?search=Delhi,%20India",Delhi,,"SHOP NO 4, VPO FATEHPUR, NEAR MALIBU TOWN, SECTOR 49-50 DIVIDING ROAD,122001 GURGAON","https://www.google.com/maps?daddr=28.42393,77.05419",723104069,1, 9999812420,,,K & K TYRE EXPERTS PRIVATE LIMITED,https://www.tyres-n-services.in/dealers/gurugram/michelin-tyres-services-k-k-tyre-experts-pvt-ltd-sector-48
https://www.tyres-n-services.in/dealers/gurugram/michelin-tyres-services-raj-tyres-sector-48/appointment?fitter=5d121aa40dae941561e0344d&utm_source=michelin&utm_medium=dealerlocator&utm_campaign=bookappointment,MICHELIN,"https://www.michelin.in/auto/dealers/raj-tyres3?search=Delhi,%20India",Delhi,,"Meer Singh Fuel Points, Sohna Road, Indian Oil Petrol Pump122001 GURGAON","https://www.google.com/maps?daddr=28.425116,77.0376",133929069,1, 9999875042,,,Raj Tyres,https://www.tyres-n-services.in/dealers/gurugram/michelin-tyres-services-raj-tyres-sector-48
https://www.tyres-n-services.in/dealers/noida/michelin-tyres-services-taskforce-auto-private-limited-sector-104/appointment?fitter=5e0ee89cead33d74506a7b9c&utm_source=michelin&utm_medium=dealerlocator&utm_campaign=bookappointment,MICHELIN,"https://www.michelin.in/auto/dealers/taskforce-auto-private-limited7?search=Delhi,%20India",Delhi,,"Plot No 5, Opposite Pathways School, Sector 104 Market.201306 Noida","https://www.google.com/maps?daddr=28.541365,77.369286",726850069,1, 9999870211,,,Taskforce Auto Private Limited,https://www.tyres-n-services.in/dealers/noida/michelin-tyres-services-taskforce-auto-private-limited-sector-104
,MICHELIN,"https://www.michelin.in/auto/dealers/mangal-tyres5?search=Delhi,%20India",Delhi,,"SHOP NO -15, GROUND FLOOR, KONARK BUILDING, GDA MARKET, RDC RAJ NAGAR GHAZIABAD201001 GHAZIABAD","https://www.google.com/maps?daddr=28.70285,77.42875",723059069,1, 9999776011,,,MANGAL TYRES,
,MICHELIN,"https://www.michelin.in/auto/dealers/balarama-tyre-zone2?search=Delhi,%20India",Delhi,,"SHOP NO -3-4, OMAXE SHOPPING COMPLEX, FOREST SPA, SURAJ  KUND RAOD, FARIDABAD121009 FARIDABAD","https://www.google.com/maps?daddr=28.46063,77.28632",723102069,1, 9873679666,,,BALARAMA TYRE ZONE,
,MICHELIN,"https://www.michelin.in/auto/dealers/victorious-managers-group-private-limited?search=Delhi,%20India",Delhi,,"18/1, CAREAGER XPRESS, NEAR MERCEDES BENZ,SECTOR- 35, BEGUMPUR KHATOLA, GURGAON122003 GURGAON","https://www.google.com/maps?daddr=28.42431,77.00088",607059069,1, 18008434300,,,VICTORIOUS MANAGERS' GROUP (PRIVATE) LIMITED,
,MICHELIN,"https://www.michelin.in/auto/dealers/manwans-tyres-and-battery-store2?search=Delhi,%20India",Delhi,,"NEAR HERITAGE SCHOOL, SHOP NO.2, SECTOR -62122001 GURGAON","https://www.google.com/maps?daddr=28.409943,77.09197",741081069,1, 9811803571,,,MANWANS TYRES AND BATTERY STORE,
,MICHELIN,"https://www.michelin.in/auto/dealers/bhushan-tyre-zone?search=Delhi,%20India",Delhi,,"DHANI MARKET, OPP-PROFESSIONAL HYUNDAI122002 Gurgaon","https://www.google.com/maps?daddr=28.41142,77.04153",431327069,1, 9999555595,,,BHUSHAN TYRE ZONE,
https://www.tyres-n-services.in/dealers/ghaziabad/michelin-tyres-services-tyre-world-shopee-nehru-nagar/appointment?fitter=5d1221b00dae941561e041ff&utm_source=michelin&utm_medium=dealerlocator&utm_campaign=bookappointment,MICHELIN,"https://www.michelin.in/auto/dealers/m-s-tyre-world-shopee4?search=Delhi,%20India",Delhi,,"11-A-42, NEHRU NAGAR GHAZIABAD UTTARPRADESH 0 0201001 GHAZIABAD","https://www.google.com/maps?daddr=28.65364,77.43703",460693069,1, 8929100577,,,M/S TYRE WORLD SHOPEE,https://www.tyres-n-services.in/dealers/ghaziabad/michelin-tyres-services-tyre-world-shopee-nehru-nagar
,MICHELIN,"https://www.michelin.in/auto/dealers/tyre-gallery24?search=Delhi,%20India",Delhi,,"H.No 20, VILLAGE DHUNDAERA, NEAR ABES CROSSING REPUBLIC GHAZIABAD201016 GHAZIABAD","https://www.google.com/maps?daddr=28.68264,77.44739",701268069,1, 9311666461,,,TYRE GALLERY,
,MICHELIN,"https://www.michelin.in/auto/dealers/tyre-shoppe-india-pvt-ltd?search=Delhi,%20India",Delhi,,"B-54, SECTOR-5, NOIDA, UTTAR PRADESH201301 Noida","https://www.google.com/maps?daddr=28.535517,77.39103",140392069,1, 9910003770,,,Tyre Shoppe India Pvt. Ltd.,
https://www.tyres-n-services.in/dealers/sonipat/michelin-tyres-services-puppy-tyre-works-barwasni/appointment?fitter=5d42b059daa8782d39386b77&utm_source=michelin&utm_medium=dealerlocator&utm_campaign=bookappointment,MICHELIN,"https://www.michelin.in/auto/dealers/pappi-tyre-works?search=Delhi,%20India",Delhi,,"GEETA BHAVAN ROAD,NEAR MAIN POST OFFICE,SONIPATHARYANA131001 SONIPAT","https://www.google.com/maps?daddr=28.991,76.987",132168069,1, 8929100585,,,PUPPY TYRE WORKS,https://www.tyres-n-services.in/dealers/sonipat/michelin-tyres-services-puppy-tyre-works-barwasni
,MICHELIN,"https://www.michelin.in/auto/dealers/t-c-s-automobiles?search=Delhi,%20India",Delhi,,"KILLA NO. 2-6, KHEWAT NO. 291/309,  PLOT NO. 30, VILLAGE MAIDAWAS, TEHSIL BADSHAHPUR122018 GURGAON","https://www.google.com/maps?daddr=28.39747,77.07494",616042069,1, 9354116203,,,T.C.S AUTOMOBILES,
,MICHELIN,"https://www.michelin.in/auto/dealers/ncr-wheels?search=Delhi,%20India",Delhi,,"Sector 4, Iteda Village, 130 mtr main road, (opposite indian oil petrol pump), Near Gaur Saundaryam, Noida Extension, Greater Noida, UP201310 GREATER NOIDA","https://www.google.com/maps?daddr=28.604656,77.4349",719113069,1, 9560910009,,,NCR WHEELS,
,MICHELIN,"https://www.michelin.in/auto/dealers/gulati-agencies-pvt-ltd58?search=Delhi,%20India",Delhi,,"A-5N, SECTOR-80, PHASE -II, NOIDA GAUTAM BUDHA NAGAR201301 NOIDA","https://www.google.com/maps?daddr=28.555885,77.41086",723076069,1, 9560092100,,,GULATI AGENCIES PVT LTD,
https://www.tyres-n-services.in/dealers/gurugram/michelin-tyres-services-jain-tyres-sector-67/appointment?fitter=5eeb8e00203abb21ea29b1cf&utm_source=michelin&utm_medium=dealerlocator&utm_campaign=bookappointment,MICHELIN,"https://www.michelin.in/auto/dealers/jain-tyres0?search=Delhi,%20India",Delhi,,"SHOP NO -1 TO 7, SECTOR -67, GURUGRAM122001 GURGAON","https://www.google.com/maps?daddr=28.386047,77.06076",431338069,1, 7428896614,,,JAIN TYRES,https://www.tyres-n-services.in/dealers/gurugram/michelin-tyres-services-jain-tyres-sector-67
,MICHELIN,"https://www.michelin.in/auto/dealers/s-s-tyres8?search=Delhi,%20India",Delhi,,"SHOP AT TILAWA MARKET, HAYATPUR ROAD,OPPOSITE BESTECH ANANDA SECTOR-82, GURGAON122505 GURGAON","https://www.google.com/maps?daddr=28.39181,76.95355",723207069,1, 9953084790,,,S S TYRES,
,MICHELIN,"https://www.michelin.in/auto/dealers/vaasu-tyres?search=Delhi,%20India",Delhi,,"SHOP NO -1, NEAR FLYOVER, RAMPURA122001 GURGAON","https://www.google.com/maps?daddr=28.37991,76.96399",460999069,1, 9911308748,,,VAASU TYRES,
https://www.tyres-n-services.in/dealers/faridabad/michelin-tyres-car-service-tyre-plaza-new-industrial-town/appointment?fitter=5d121bc30dae941561e03688&utm_source=michelin&utm_medium=dealerlocator&utm_campaign=bookappointment,MICHELIN,"https://www.michelin.in/auto/dealers/tyre-plaza-a-division-of-vee-gee-square-products-private-limited9?search=Delhi,%20India",Delhi,,"5R/5, NIT, FARIDABAD121001 FARIDABAD","https://www.google.com/maps?daddr=28.392841,77.30246",329846069,1, 9999824950,,,Tyre Plaza,https://www.tyres-n-services.in/dealers/faridabad/michelin-tyres-car-service-tyre-plaza-new-industrial-town
,MICHELIN,"https://www.michelin.in/auto/dealers/haryana-wheel-tyres-pvt-ltd?search=Delhi,%20India",Delhi,,"5R/8B,KARAM MANSIONOPP. STATE BANK OF INDIA, NEELAM CHOWK,FARIDABAD,121001 FARIDABAD","https://www.google.com/maps?daddr=28.392439,77.30535",131764069,1, 9811065525,,,HARYANA WHEEL TYRES PVT LTD,
,MICHELIN,"https://www.michelin.in/auto/dealers/shakti-tyre-resole?search=Delhi,%20India",Delhi,,"216, TIKONA PARK,NIT FARIDABAD121001 FARIDABAD","https://www.google.com/maps?daddr=28.38374,77.29638",622121069,1, 9810219118,,,SHAKTI TYRE RESOLE,
https://www.tyres-n-services.in/dealers/faridabad/michelin-tyres-services-haryana-tyres-srs-chowk/appointment?fitter=605c5b86d005916f4e385179&utm_source=michelin&utm_medium=dealerlocator&utm_campaign=bookappointment,MICHELIN,"https://www.michelin.in/auto/dealers/m-s-haryana-tyres?search=Delhi,%20India",Delhi,,"PLOT NO. 5, MASTER ROAD, NEAR SRS CHOWK, FARIDABAD121002 FARIDABAD","https://www.google.com/maps?daddr=28.41054,77.348305",755837069,1, 9811136406,,,M/S HARYANA TYRES,https://www.tyres-n-services.in/dealers/faridabad/michelin-tyres-services-haryana-tyres-srs-chowk
https://www.tyres-n-services.in/dealers/faridabad/michelin-tyres-services-star-solutions-sector-9/appointment?fitter=5eec42b7203abb21ea2a0993&utm_source=michelin&utm_medium=dealerlocator&utm_campaign=bookappointment,MICHELIN,"https://www.michelin.in/auto/dealers/star-solutions?search=Delhi,%20India",Delhi,,"BY PASS ROAD, OPP CNG PUMP SECTOR -9,121002 FARIDABAD","https://www.google.com/maps?daddr=28.381477,77.337074",417894069,1, 7428896557,,,STAR SOLUTIONS,https://www.tyres-n-services.in/dealers/faridabad/michelin-tyres-services-star-solutions-sector-9
,MICHELIN,"https://www.michelin.in/auto/dealers/yadav-motor77?search=Delhi,%20India",Delhi,,"DADRI ROAD, NEAR BHAGAT SINGH CHOWK, JHAJJAR124103 JHAJJAR","https://www.google.com/maps?daddr=28.610462,76.64499",731458069,1, 9812196640,,,YADAV MOTOR,
,MICHELIN,"https://www.michelin.in/auto/dealers/shubh-tyres?search=Delhi,%20India",Delhi,,"NEAR PETROL PUMP, RAILWAY ROAD, DADRI203207 DADRI","https://www.google.com/maps?daddr=28.5463,77.5445",607060069,1, 9310916133,,,SHUBH TYRES,
,MICHELIN,"https://www.michelin.in/auto/dealers/vikrant-tyre-house?search=Delhi,%20India",Delhi,,DELHI - SAHARANPUR ROAD CHHAPRAULI CHUNGI250611 BARAUT,"https://www.google.com/maps?daddr=29.108,77.265",638919069,1, 9927040309,,,VIKRANT TYRE HOUSE,
,MICHELIN,"https://www.michelin.in/auto/dealers/durga-auto-zone?search=Delhi,%20India",Delhi,,"OPP. MODI BAG VISHAL DHARMKANTA VILLAGE SIKRI KHURD, MODINAGAR201204 MODINAGAR","https://www.google.com/maps?daddr=28.831514,77.57791",731830069,1, 9810709011,,,DURGA AUTO ZONE,
,MICHELIN,"https://www.michelin.in/auto/dealers/ruhal-traders?search=Delhi,%20India",Delhi,,"Near Fci Godown, Near Maruti Showroom, Railway Road , Ganaur, Sonepat Haryana131101 Ganaur","https://www.google.com/maps?daddr=29.142204,77.038994",140955069,1, 9729074879,,,Ruhal Traders,
,MICHELIN,"https://www.michelin.in/auto/dealers/shri-laxmi-tyre-private-limited3?search=Delhi,%20India",Delhi,,"SITE-4, E-16, NEAR GRAND VENICE MALL, KASNA ROAD,GREATER NOIDA, GAUTAM BUDDHA NAGAR201306 Greater Noida","https://www.google.com/maps?daddr=28.452877,77.52599",723037069,1, 8800805547,,,Shri Laxmi Tyre Private Limited,
https://www.tyres-n-services.in/dealers/faridabad/michelin-tyres-services-s-s-motors-mathura-road/appointment?fitter=5d121bbb0dae941561e03677&utm_source=michelin&utm_medium=dealerlocator&utm_campaign=bookappointment,MICHELIN,"https://www.michelin.in/auto/dealers/s-s-motors8?search=Delhi,%20India",Delhi,,"16/5, Mathura Road, Faridabad, Haryana121002 Faridabad","https://www.google.com/maps?daddr=28.25038,77.18368",140593069,1, 8588871318,,,S & S Motors,https://www.tyres-n-services.in/dealers/faridabad/michelin-tyres-services-s-s-motors-mathura-road
https://www.tyres-n-services.in/dealers/rohtak/michelin-tyres-services-ride-in-style-sonepat-road/appointment?fitter=5efec46bb789126a0b7bf745&utm_source=michelin&utm_medium=dealerlocator&utm_campaign=bookappointment,MICHELIN,"https://www.michelin.in/auto/dealers/ride-in-style8?search=Delhi,%20India",Delhi,,"52, NEAR BHARAT NURSING HOME,OPP. VISHAL MEGA MART,SONEPAT ROAD,ROHTAK124001 ROHTAK","https://www.google.com/maps?daddr=28.895813,76.60226",132170069,1, 7428207722,,,RIDE IN STYLE,https://www.tyres-n-services.in/dealers/rohtak/michelin-tyres-services-ride-in-style-sonepat-road
,MICHELIN,"https://www.michelin.in/auto/dealers/vishnu-tyres-service?search=Delhi,%20India",Delhi,,"Opposite Bus Stand, Near Prem Hospital, Sohna, Gurugram122103 Gurgaon","https://www.google.com/maps?daddr=28.173883,77.07947",164335069,1, 9671563407,,,Vishnu Tyres Service,
,MICHELIN,"https://www.michelin.in/auto/dealers/k-r-four-wheel-motors1?search=Delhi,%20India",Delhi,,"KRISHNA CHOWKâ€ UIT Road, Near SBI Bank Neelam Chowk Branch Bhiwadi301019 BHIWADI","https://www.google.com/maps?daddr=28.208733,76.84588",460688069,1, 9887300800,,,KR FOUR WHEEL MOTORS,
,MICHELIN,"https://www.michelin.in/auto/dealers/laxmi-car-singar-and-workshop?search=Delhi,%20India",Delhi,,"DELHI ROAD,DHARUHERA123401 DHARUHERA","https://www.google.com/maps?daddr=28.2066,76.7909",539344069,1, 9255103852,,,LAXMI CAR SINGAR AND WORKSHOP,
,MICHELIN,"https://www.michelin.in/auto/dealers/satnam-industries8?search=Delhi,%20India",Delhi,,Old Sohna Road121102 Palwal,"https://www.google.com/maps?daddr=28.140364,77.32432",140938069,1, 9416267545,,,Satnam Industries,
,MICHELIN,"https://www.michelin.in/auto/dealers/tyre-centre6?search=Delhi,%20India",Delhi,,"SHOP NO -6, KHAIR NAGAR, NEAR BACCHA PARK, MEERUT250002 MEERUT","https://www.google.com/maps?daddr=28.983753,77.70434",431322069,1, 9837112260,,,TYRE CENTRE,
,MICHELIN,"https://www.michelin.in/auto/dealers/maheshwari-enterprises?search=Delhi,%20India",Delhi,,OPP NAI MANDI GARH ROAD245101 HAPUR,"https://www.google.com/maps?daddr=28.726553,77.78274",399928069,1, 9837608601,,,MAHESHWARI ENTERPRISES,
,MICHELIN,"https://www.michelin.in/auto/dealers/sidhdata-tyre2?search=Delhi,%20India",Delhi,,"NEAR BANK OF BARODA, BYE PASS ROAD,121102 PALWAL","https://www.google.com/maps?daddr=28.13727,77.33153",754789069,0, 9468000750,,,SIDHDATA TYRE,
https://www.tyres-n-services.in/dealers/meerut/michelin-tyres-services-kundan-traders-garh-road/appointment?fitter=5d121f600dae941561e03d7a&utm_source=michelin&utm_medium=dealerlocator&utm_campaign=bookappointment,MICHELIN,"https://www.michelin.in/auto/dealers/kundan-traders4?search=Delhi,%20India",Delhi,,"9/10, DURGA NAGAR,OPP GANDHI ASHRAM,GARH ROAD,MEERUT,250002 MEERUT","https://www.google.com/maps?daddr=28.963,77.743",132164069,1, 8929100508,,,KUNDAN TRADERS,https://www.tyres-n-services.in/dealers/meerut/michelin-tyres-services-kundan-traders-garh-road
,MICHELIN,"https://www.michelin.in/auto/dealers/vineet-tyre-centre?search=Delhi,%20India",Delhi,,"Plot No.12, Vardhman Golden Park, Divider Road, Ganga Nagar, Kaseru Buxer,250001 Meerut","https://www.google.com/maps?daddr=29.00759,77.7466",434166069,1, 9760967119,,,Vineet Tyre Centre,
,MICHELIN,"https://www.michelin.in/auto/dealers/bharat-motor-company?search=Delhi,%20India",Delhi,,OPP. RAJ CINEMACIRCULAR ROADREWARIHARYANA123401 REWARI,"https://www.google.com/maps?daddr=28.262,76.572",131772069,1, 01274-255161,,,BHARAT MOTOR COMPANY,
,MICHELIN,"https://www.michelin.in/auto/dealers/shree-wheels?search=Delhi,%20India",Delhi,,"Shri Balaji Market, Delhi Road Rewari123401 Rewari","https://www.google.com/maps?daddr=28.203276,76.61058",164336069,1, 9416602746,,,Shree Wheels,
,MICHELIN,"https://www.michelin.in/auto/dealers/tyre-ghar6?search=Delhi,%20India",Delhi,,"DELHI ROAD, ROHTAK124001 ROHTAK","https://www.google.com/maps?daddr=28.53,76.36",754790069,0, 9466308104,,,TYRE GHAR,
,MICHELIN,"https://www.michelin.in/auto/dealers/saini-tyres7?search=Delhi,%20India",Delhi,,"SECTOR-25, PHASE -11, NEAR BHARAT PETROLIUM PANIPAT132103 PANIPAT","https://www.google.com/maps?daddr=29.37356,76.977264",539014069,1, 9996220212,,,SAINI TYRES,
,MICHELIN,"https://www.michelin.in/auto/dealers/pankaj-tyres?search=Delhi,%20India",Delhi,,"Shop No -1, Near Tehsil, G.T Road Panipat132103 Panipat","https://www.google.com/maps?daddr=29.407467,76.96932",427334069,1, 9896400259,,,Pankaj Tyres,
,MICHELIN,"https://www.michelin.in/auto/dealers/garun-enterprises?search=Delhi,%20India",Delhi,,"25, TULSI MARKET BULANDSHAHAR BSR203001 BULANDSHER","https://www.google.com/maps?daddr=28.407095,77.8511",416314069,1, 9837003308,,,GARUN ENTERPRISES,
https://www.tyres-n-services.in/dealers/charkhi-dadri/michelin-tyres-services-hanuman-tyres-loharu-road/appointment?fitter=5efec2a0b789126a0b7b2929&utm_source=michelin&utm_medium=dealerlocator&utm_campaign=bookappointment,MICHELIN,"https://www.michelin.in/auto/dealers/hanuman-tyres1?search=Delhi,%20India",Delhi,,"Sabji Mandi, Rohtak Gate, Bhiwani127021 BHIWANI","https://www.google.com/maps?daddr=28.80136,76.12976",424984069,1, 7428204466,,,Hanuman Tyres,https://www.tyres-n-services.in/dealers/charkhi-dadri/michelin-tyres-services-hanuman-tyres-loharu-road
https://www.tyres-n-services.in/dealers/surat/michelin-tyres-services-vimal-tyre-centre-nh-8/appointment?fitter=5d1220e50dae941561e0406f&utm_source=michelin&utm_medium=dealerlocator&utm_campaign=bookappointment,MICHELIN,"https://www.michelin.in/auto/dealers/vimal-tyre-centre?search=Surat,%20Gujarat,%20India",Surat,,"41-42, MATRU KRIPA SOCIETY,NH-8, KAMREJ CHAR RASTA,DISTT. SURAT,GUJARAT394185 SURAT","https://www.google.com/maps?daddr=21.17,72.831",132100069,1, 8929100553,,,VIMAL TYRE CENTRE,https://www.tyres-n-services.in/dealers/surat/michelin-tyres-services-vimal-tyre-centre-nh-8
,MICHELIN,"https://www.michelin.in/auto/dealers/auto-tyres71?search=Surat,%20Gujarat,%20India",Surat,,"4, J.B. Super Market,Near Sub Jail Ring Road,Surat,GUJARAT395002 SURAT","https://www.google.com/maps?daddr=21.183,72.83",131474069,1, 9825404363,,,AUTO TYRES,
,MICHELIN,"https://www.michelin.in/auto/dealers/mahek-auto-services?search=Surat,%20Gujarat,%20India",Surat,,"PLOT NO 76 TO 79,SHREE LAXMI IND ESTATE ,OPP B.R.C. MANDIR,UDHNA SURAT394220 SURAT","https://www.google.com/maps?daddr=21.15456,72.84354",617800069,1, 9925283555,,,MAHEK AUTO SERVICES,
https://www.tyres-n-services.in/dealers/surat/michelin-tyres-car-service-automotive-techno-pvt-ltd-near-green-park-avenue/appointment?fitter=5f1537c80d7282335e59440e&utm_source=michelin&utm_medium=dealerlocator&utm_campaign=bookappointment,MICHELIN,"https://www.michelin.in/auto/dealers/automotive-techno-pvt-ltd?search=Surat,%20Gujarat,%20India",Surat,,"UNION SQUARE LANE,GHOD DOD ROAD,SURAT395001 SURAT","https://www.google.com/maps?daddr=21.168768,72.80722",329793069,1, 9999746762,,,AUTOMOTIVE TECHNO PVT. LTD.,https://www.tyres-n-services.in/dealers/surat/michelin-tyres-car-service-automotive-techno-pvt-ltd-near-green-park-avenue
,MICHELIN,"https://www.michelin.in/auto/dealers/techno-tyres?search=Surat,%20Gujarat,%20India",Surat,,"L/9,AMIZARA APARTMENT,NEAR TENNIS CLUB,ATHWALINE SURAT395001 SURAT","https://www.google.com/maps?daddr=21.18256,72.80499",622124069,1, 9825075757,,,TECHNO TYRES,
https://www.tyres-n-services.in/dealers/surat/michelin-tyres-services-shreenathji-tyres-adajan/appointment?fitter=5d121f810dae941561e03dbe&utm_source=michelin&utm_medium=dealerlocator&utm_campaign=bookappointment,MICHELIN,"https://www.michelin.in/auto/dealers/shreenathji-tyres?search=Surat,%20Gujarat,%20India",Surat,,"1-3, ANKUR SHOPPING CENTRE NO.3,SARDAR BRIDGE, ADAJAN ROAD,SURAT,GUJARAT395009 SURAT","https://www.google.com/maps?daddr=21.195,72.802",132102069,1, 8929100512,,,SHREENATHJI TYRES,https://www.tyres-n-services.in/dealers/surat/michelin-tyres-services-shreenathji-tyres-adajan
,MICHELIN,"https://www.michelin.in/auto/dealers/shreenathjee-tyres5?search=Surat,%20Gujarat,%20India",Surat,,"1-3, ANKUR SHOPPING CENTRE NO.3, SARDAR BRIDGE, ADAJAN ROAD, SURAT, GUJARAT395009 SURAT","https://www.google.com/maps?daddr=21.194448,72.80139",460703069,1, 9825127777,,,SHREENATHJEE TYRES,
,MICHELIN,"https://www.michelin.in/auto/dealers/shreenathjee-tyres?search=Surat,%20Gujarat,%20India",Surat,,"1, 2, SHREE BHDTI ROYAL RECIDENCY, NEAR GALAXI CRICAL PAL HAZIRA SURAT395009 Surat","https://www.google.com/maps?daddr=21.192785,72.79981",328819069,1, 9825127777,,,SHREENATHJEE TYRES,
https://www.tyres-n-services.in/dealers/surat/michelin-tyres-car-service-bharat-tyres-magob/appointment?fitter=5d121d230dae941561e03942&utm_source=michelin&utm_medium=dealerlocator&utm_campaign=bookappointment,MICHELIN,"https://www.michelin.in/auto/dealers/bharat-tyres65?search=Surat,%20Gujarat,%20India",Surat,,"PLOT NO -10, 11, BHARAT TYRES WARD NO 72, A NEAR AUTO POPINT BOMBAY MARKET MAGOB SURAT395010 SURAT","https://www.google.com/maps?daddr=21.19021,72.87364",460683069,1, 9711192535,,,BHARAT TYRES,https://www.tyres-n-services.in/dealers/surat/michelin-tyres-car-service-bharat-tyres-magob
,MICHELIN,"https://www.michelin.in/auto/dealers/r-ventures-llp44?search=Surat,%20Gujarat,%20India",Surat,,"BLOCK 218B, TP-13, PLOT NO 139B, NEAR ESPACE COMPLEX, VESU VIP ROAD BHARTANA, SURAT395007 SURAT","https://www.google.com/maps?daddr=21.143488,72.792435",460697069,1, 9825309838,,,R VENTURES LLP,
,MICHELIN,"https://www.michelin.in/auto/dealers/maa-ambika-cycle-tyres?search=Surat,%20Gujarat,%20India",Surat,,"SHOP NO  L/2,  CHANDNI CHAWK APPT PIPLOD SURAT395007 SURAT","https://www.google.com/maps?daddr=21.1658,72.77683",418300069,1, 9924386810,,,MAA AMBIKA CYCLE & TYRES,
https://www.tyres-n-services.in/dealers/surat/michelin-tyres-services-shreeji-tyres-singanpor-causeway-road/appointment?fitter=5f1a6d876b140d0a882f45c9&utm_source=michelin&utm_medium=dealerlocator&utm_campaign=bookappointment,MICHELIN,"https://www.michelin.in/auto/dealers/shreeji-tyres7?search=Surat,%20Gujarat,%20India",Surat,,"Near Shraddha Society Circle,Opp Raj Laxmi Height, Singanpor Causeway Road,395009 SURAT","https://www.google.com/maps?daddr=21.20211,72.78625",723039069,1, 7303886241,,,SHREEJI TYRES,https://www.tyres-n-services.in/dealers/surat/michelin-tyres-services-shreeji-tyres-singanpor-causeway-road
,MICHELIN,"https://www.michelin.in/auto/dealers/hi-tech-tyres7?search=Surat,%20Gujarat,%20India",Surat,,"G-16, MODHESHWARI COMPLEX, 120, L.P SAVANI SCHOOL ROAD, ADAJAN SURAT395009 SURAT","https://www.google.com/maps?daddr=21.200283,72.78289",723122069,1, 9638322633,,,HI-TECH TYRES,
,MICHELIN,"https://www.michelin.in/auto/dealers/vimal-tyres?search=Surat,%20Gujarat,%20India",Surat,,"G - 8/9, SARATHI COMPLEX,TURAVA COMPOUND,HIRABAGH, VARACHHA ROAD,SURAT,395006 SURAT","https://www.google.com/maps?daddr=21.217,72.865",132098069,1, 2546633,,,VIMAL TYRES,
,MICHELIN,"https://www.michelin.in/auto/dealers/road-runner-tyre-shop?search=Surat,%20Gujarat,%20India",Surat,,"3/42,43 Vhora, Kabrastan, Ring Road, Khatodara Surat395002 Surat","https://www.google.com/maps?daddr=21.21765,72.797264",427602069,1, 9998034976,,,Road Runner Tyre Shop,
,MICHELIN,"https://www.michelin.in/auto/dealers/shivdhara-tyre-world?search=Surat,%20Gujarat,%20India",Surat,,"PLOT NO -1B TO 5B MANGAL WADI, KAPODRA ROAD SURAT395006 SURAT","https://www.google.com/maps?daddr=21.219507,72.870445",460947069,1, 9409057963,,,SHIVDHARA TYRE WORLD,
,MICHELIN,"https://www.michelin.in/auto/dealers/tejas-tyre?search=Surat,%20Gujarat,%20India",Surat,,"SHOP NO 13-14,RATNAMALA COMPLEX,KATARGAM AMROLI ROAD,KATARGAM,SURAT395004 SURAT","https://www.google.com/maps?daddr=21.23259,72.83963",618318069,1, 9913366888,,,TEJAS TYRE,
,MICHELIN,"https://www.michelin.in/auto/dealers/sai-tyres7?search=Surat,%20Gujarat,%20India",Surat,,"83-A/SHOP NO C 018,AAGAM SHOPPING WORLD,VIP CHAR RASTA,VESU,395007 SURAT","https://www.google.com/maps?daddr=21.1355,72.77392",723209069,1, 9913180730,,,SAI TYRES,
,MICHELIN,"https://www.michelin.in/auto/dealers/apna-wash4?search=Surat,%20Gujarat,%20India",Surat,,"85/A,PLOT NO 5,Y JUNCTION,SURVEY NO 56/4,BESIDE V.R.MALL DUMAS ROAD,VILLAGE RUNDH SURAT395007 SURAT","https://www.google.com/maps?daddr=21.1474,72.75932",731369069,1, 9898232801,,,APNA WASH,
,MICHELIN,"https://www.michelin.in/auto/dealers/rajdhani-tyre1?search=Surat,%20Gujarat,%20India",Surat,,"SHOP NO1,F 67,SUNRISE COMPLEX,JALARAM NAGAR UNN,SACHIN UNN SURAT394210 SURAT","https://www.google.com/maps?daddr=21.10263,72.86536",741080069,0, 9327195151,,,RAJDHANI TYRE,
,MICHELIN,"https://www.michelin.in/auto/dealers/dwarkesh-tyre-and-service?search=Surat,%20Gujarat,%20India",Surat,,"49, Yogeshwar Society, Near Shyamdham Mandir Sarthana Jakat Naka Surat395006 Surat","https://www.google.com/maps?daddr=21.237625,72.90987",427603069,1, 9067353536,,,Dwarkesh Tyre And Service,
,MICHELIN,"https://www.michelin.in/auto/dealers/jay-bhavani-tyres6?search=Surat,%20Gujarat,%20India",Surat,,"8, OPERA COMPLEX NH -8, KADODRA394327 SURAT","https://www.google.com/maps?daddr=21.167118,72.96153",330774069,1, 9428632979,,,JAY BHAVANI TYRES,
,MICHELIN,"https://www.michelin.in/auto/dealers/uma-tyres-and-oil?search=Surat,%20Gujarat,%20India",Surat,,"134, GOLDEN PLAZA COMPLEX, 134, KAMREJ CHAR RASTA KAMREJ SURAT394185 SURAT","https://www.google.com/maps?daddr=21.269741,72.9622",327804069,1, 9824214821,,,UMA TYRES AND OIL,
https://www.tyres-n-services.in/dealers/navsari/michelin-tyres-services-national-tyre-service-kabilpora/appointment?fitter=5d121f250dae941561e03d13&utm_source=michelin&utm_medium=dealerlocator&utm_campaign=bookappointment,MICHELIN,"https://www.michelin.in/auto/dealers/national-tyre-service7?search=Surat,%20Gujarat,%20India",Surat,,"Station Road, Navsari, Station Road, Navsari396445 Navsari","https://www.google.com/maps?daddr=20.944971,72.913795",425007069,1, 8929100501,,,National Tyre Service,https://www.tyres-n-services.in/dealers/navsari/michelin-tyres-services-national-tyre-service-kabilpora
,MICHELIN,"https://www.michelin.in/auto/dealers/navsari-tyre-works?search=Surat,%20Gujarat,%20India",Surat,,"129 1,  NH  NO -8, NR GREED KABILPORE KABILPORE NAVSARI396424 NAVSARI","https://www.google.com/maps?daddr=20.94905,72.95031",327786069,1,,,,NAVSARI TYRE WORKS,
,MICHELIN,"https://www.michelin.in/auto/dealers/piyush-auto-garage5?search=Surat,%20Gujarat,%20India",Surat,,"AMRUT PARK, CHHAPRA ROAD, CHHAPRA NAVSARI396445 NAVSARI","https://www.google.com/maps?daddr=20.937668,72.92918",723141069,1, 9825539614,,,PIYUSH AUTO GARAGE,
https://www.tyres-n-services.in/dealers/bardoli/michelin-tyres-services-jay-bhavani-tyres-bardoli/appointment?fitter=5f152df9a92dbb297434eb17&utm_source=michelin&utm_medium=dealerlocator&utm_campaign=bookappointment,MICHELIN,"https://www.michelin.in/auto/dealers/jay-bhavani-tyres1?search=Surat,%20Gujarat,%20India",Surat,,"D-12, GALAXY SHOPPING CENTER, OPP. SURATI  JATAKNAKA, SURAT ROAD, BARDOLI, GUJARAT394601 BARDOLI","https://www.google.com/maps?daddr=21.115854,73.106606",132095069,1, 8588917008,,,JAI BHAVANI TYRES,https://www.tyres-n-services.in/dealers/bardoli/michelin-tyres-services-jay-bhavani-tyres-bardoli
,MICHELIN,"https://www.michelin.in/auto/dealers/maruti-tyre-and-oilcentre?search=Surat,%20Gujarat,%20India",Surat,,"B/3, VASUPUJYA SOCIETY, KACHHYA FALIYA, TALUKA MANDVI394160 MANDVI","https://www.google.com/maps?daddr=21.259754,73.30662",611595069,1, 9925172227,,,MARUTI TYRE AND OILCENTRE,
,MICHELIN,"https://www.michelin.in/auto/dealers/vallabhasharay-tyre-and-oil46?search=Surat,%20Gujarat,%20India",Surat,,"GROUND FLOOR VALLABHASHARAY TYRE AND OIL NH NO -8, CHAR RASTA CHIKHLI NAVSARI396521 CHIKHLI","https://www.google.com/maps?daddr=20.760113,73.056175",723126069,1, 9727227062,,,VALLABHASHARAY TYRE AND OIL,
,MICHELIN,"https://www.michelin.in/auto/dealers/krishna-tyre4?search=Surat,%20Gujarat,%20India",Surat,,"1ST,G-4,HEXZONE ARCADE,NEAR VALIYA CHOKDI, ANKLESHWAR,BHARUCH393002 ANKLESHWAR","https://www.google.com/maps?daddr=21.61822,73.00435",617801069,1, 9998766408,,,KRISHNA TYRE,
,MICHELIN,"https://www.michelin.in/auto/dealers/umiya-tyres?search=Surat,%20Gujarat,%20India",Surat,,"24, ANMOL PLAZA, GIDC, ANKLESHWAR, BHARUCH393002 ANKLESHWAR","https://www.google.com/maps?daddr=21.620674,73.00169",460987069,1, 9727715573,,,UMIYA TYRES,
,MICHELIN,"https://www.michelin.in/auto/dealers/shreeji-tyre-zone?search=Surat,%20Gujarat,%20India",Surat,,"SHOP NO 1175,BABARNATH PIRAMAN NR RAILWAY STATION ,ANKLESHWAR393002 ANKLESHWAR","https://www.google.com/maps?daddr=21.63031,72.99776",723255069,1, 9429072597,,,SHREEJI TYRE ZONE,
https://www.tyres-n-services.in/dealers/vyara/michelin-tyres-services-jay-bhavani-tyres-vyara/appointment?fitter=5f15302ea92dbb297435d2a7&utm_source=michelin&utm_medium=dealerlocator&utm_campaign=bookappointment,MICHELIN,"https://www.michelin.in/auto/dealers/jay-bhavani-tyres?search=Surat,%20Gujarat,%20India",Surat,,"SHOP NO 7 & 8 PARISH RAM PARK COMPLEX OPP G E B OFFICE VYARA SONGADH ROAD TA, VYARA DIST, TAPI     GUJARAT394650 TAPI","https://www.google.com/maps?daddr=21.11442,73.40508",409287069,1, 8588919006,,,JAY BHAVANI TYRES,https://www.tyres-n-services.in/dealers/vyara/michelin-tyres-services-jay-bhavani-tyres-vyara
,MICHELIN,"https://www.michelin.in/auto/dealers/bhumi-tyres?search=Surat,%20Gujarat,%20India",Surat,,"16,AKSHAR AVENUE,LINK ROAD, BHARUCH392001 BHARUCH","https://www.google.com/maps?daddr=21.711313,72.985596",617967069,1, 8929942066,,,BHUMI TYRES,https://www.tyres-n-services.in/dealers/bharuch/bhumi-tyres-link-road
https://www.tyres-n-services.in/dealers/valsad/michelin-tyres-services-dipak-tyres-and-oil-centre-valsad/appointment?fitter=5f152c10a92dbb2974340b84&utm_source=michelin&utm_medium=dealerlocator&utm_campaign=bookappointment,MICHELIN,"https://www.michelin.in/auto/dealers/dipak-tyres-and-oil-centre?search=Surat,%20Gujarat,%20India",Surat,,"LAKSHMI CHAMBER, BECHAR ROAD,VALSAD396001 VALSAD","https://www.google.com/maps?daddr=20.613,72.933",132103069,1, 9999754821,,,DIPAK TYRES AND OIL CENTRE,https://www.tyres-n-services.in/dealers/valsad/michelin-tyres-services-dipak-tyres-and-oil-centre-valsad
https://www.tyres-n-services.in/dealers/bharuch/michelin-tyres-services-radhakrishna-tyre-bharuch/appointment?fitter=5f1a75766b140d0a88310ab0&utm_source=michelin&utm_medium=dealerlocator&utm_campaign=bookappointment,MICHELIN,"https://www.michelin.in/auto/dealers/radha-krishna-enterprise3?search=Surat,%20Gujarat,%20India",Surat,,"18,V.D.TOWNSHIP,NR.HOTEL SADANAND, BHARUCH392002 BHARUCH","https://www.google.com/maps?daddr=21.722578,72.991295",460698069,1, 7303886243,,,RADHA KRISHNA ENTERPRISE,https://www.tyres-n-services.in/dealers/bharuch/michelin-tyres-services-radhakrishna-tyre-bharuch
,MICHELIN,"https://www.michelin.in/auto/dealers/arpan-tyres5?search=Surat,%20Gujarat,%20India",Surat,,"SHOP SAI PLAZA COMPLEX NO -2, DEDIYAPADA ROAD NETRANG NETRANG BHARUCH393130 NETRANG","https://www.google.com/maps?daddr=21.723326,73.00501",723128069,1, 9925204960,,,ARPAN TYRES,
,MICHELIN,"https://www.michelin.in/auto/dealers/arpan-tyres8?search=Surat,%20Gujarat,%20India",Surat,,"5 SAI HIGHT COMPLEX, OPP AMI JADAV BUNGLOWS COLLEGE ROAD BHOLAV BHARUCH392015 BHARUCH","https://www.google.com/maps?daddr=21.723225,73.00641",401719069,1, 9925204960,,,ARPAN TYRES,
,MICHELIN,"https://www.michelin.in/auto/dealers/swami-tyres9?search=Surat,%20Gujarat,%20India",Surat,,"BH MAIN BAZAR,WAGHAI DANGS, VANSDA394730 VANSDA","https://www.google.com/maps?daddr=20.77373,73.49757",735192069,1, 9913199444,,,SWAMI TYRES,
https://www.tyres-n-services.in/dealers/vapi/michelin-tyres-services-national-tyre-works-vapi/appointment?fitter=5f1a73286b140d0a88301dd4&utm_source=michelin&utm_medium=dealerlocator&utm_campaign=bookappointment,MICHELIN,"https://www.michelin.in/auto/dealers/national-tyre-works7?search=Surat,%20Gujarat,%20India",Surat,,"SHOP NO. 5, ASHARAM COMPLEX,NEAR SARVOTAM HOTEL,GIDC,VAPI,396195 VAPI","https://www.google.com/maps?daddr=20.363,72.94",132104069,1, 7303886242,,,NATIONAL TYRE WORKS,https://www.tyres-n-services.in/dealers/vapi/michelin-tyres-services-national-tyre-works-vapi
,MICHELIN,"https://www.michelin.in/auto/dealers/new-miraj-tyre-house?search=Surat,%20Gujarat,%20India",Surat,,"64-65, LOKHANDAWALA COMPLEX, OPP MAHAVIR CINEMA ANKLESHWAR BHARUCH393002 ANKLESHWAR","https://www.google.com/maps?daddr=21.63425,73.60789",460887069,1, 9898211486,,,NEW MIRAJ TYRE HOUSE,
,MICHELIN,"https://www.michelin.in/auto/dealers/gurukrupa-enterprises?search=Surat,%20Gujarat,%20India",Surat,,"Shop No -10, Gopal Arced, Talaja Road Top3 Circle Bhavnagar364001 Bhavnagar","https://www.google.com/maps?daddr=21.750126,72.14828",437198069,1, 9925254545,,,Gurukrupa Enterprises,
,MICHELIN,"https://www.michelin.in/auto/dealers/yogiraj-tyres-tb7?search=Surat,%20Gujarat,%20India",Surat,,BESIDE SBI BANK SAKAL BAZAR364001 BHAVNAGAR,"https://www.google.com/maps?daddr=21.780165,72.142426",721740069,1, 9825566564,,,YOGIRAJ TYRES TB,
https://www.tyres-n-services.in/dealers/bhavnagar/michelin-tyres-services-new-dathawala-vulcanize-vijayraj-nagar/appointment?fitter=5d121e390dae941561e03b5e&utm_source=michelin&utm_medium=dealerlocator&utm_campaign=bookappointment,MICHELIN,"https://www.michelin.in/auto/dealers/new-dathawala-vulcanize?search=Surat,%20Gujarat,%20India",Surat,,"PLOT NO. 721, 722, SHOP NO. 9,VRUNDAVAN APARTMENTS,VIJAYRAJ NAGAR, RTO ROAD,BHAVNAGAR,364002 BHAVNAGAR","https://www.google.com/maps?daddr=21.763,72.123",131456069,1, 9711987746,,,NEW DATHAWALA VULCANIZE,https://www.tyres-n-services.in/dealers/bhavnagar/michelin-tyres-services-new-dathawala-vulcanize-vijayraj-nagar
,MICHELIN,"https://www.michelin.in/auto/dealers/malviya-tyres3?search=Surat,%20Gujarat,%20India",Surat,,"OPP LAXMI PETROL PUMP,BHILAD SARIGAM MAIN ROAD BEHIND RAJVWADI HOTAL, SARIGAM ,VALSAD396155 SARIGAM","https://www.google.com/maps?daddr=20.28135,72.87531",638926069,1, 9824173547,,,MALVIYA TYRES,
,MICHELIN,"https://www.michelin.in/auto/dealers/shree-ganesh-tyres3?search=Surat,%20Gujarat,%20India",Surat,,"""Shop No 2 To 4, Ashapura Enterprise , Opp Hotel white rose, Vithalwadi GIDC, BHAVNAGAR""364001 Bhavnagar","https://www.google.com/maps?daddr=21.766,72.12",726848069,1, 9979434344,,,Shree Ganesh Tyres,
,MICHELIN,"https://www.michelin.in/auto/dealers/tyre-centre?search=Bangalore,%20Karnataka,%20India",Bangalore,,"128, ST. JOHNS, CHURCH ROAD, OPP., COLES PARK,BENGALURU,KARNATAKA560005 BENGALURU","https://www.google.com/maps?daddr=12.972,77.595",131514069,1, 080-41253371,,,TYRE CENTRE,
,MICHELIN,"https://www.michelin.in/auto/dealers/madhus-enterprises?search=Bangalore,%20Karnataka,%20India",Bangalore,,"NO.35/5,LANGFORD ROAD,NEAR DOUBLE ROAD CIRCLE,BENGALURU,560025 BENGALURU","https://www.google.com/maps?daddr=12.96044,77.60138",329808069,1, 6366532227,,,MADHUS ENTERPRISES,
,MICHELIN,"https://www.michelin.in/auto/dealers/tyre-empire19?search=Bangalore,%20Karnataka,%20India",Bangalore,,"NO 76 & 77, PARAPPANA AGRAHARA VILLAGE POLICE CAMP ROAD SOUTHTALUK ROAD BANGALORE560100 BANGALORE","https://www.google.com/maps?daddr=12.984924,77.59466",723022069,1, 9008000000,,,TYRE EMPIRE,
,MICHELIN,"https://www.michelin.in/auto/dealers/madhus-tyre-centre63?search=Bangalore,%20Karnataka,%20India",Bangalore,,"No. 22, J.C. Road, BENGALURU560002 BANGALORE","https://www.google.com/maps?daddr=12.960043,77.601715",757060069,1, 9611888893,,,MADHUS TYRE CENTRE,
,MICHELIN,"https://www.michelin.in/auto/dealers/cherry-agencies8?search=Bangalore,%20Karnataka,%20India",Bangalore,,"# 115, 2ND FLOOR, NEAR MINERVA CIRCLE, LAL BAGH FORT ROAD, BANGALORE, KARNATAKA560004 BANGALORE","https://www.google.com/maps?daddr=12.955008,77.58123",723081069,1,,,,CHERRY AGENCIES,
,MICHELIN,"https://www.michelin.in/auto/dealers/millivisions-marketing-pvt-ltd?search=Bangalore,%20Karnataka,%20India",Bangalore,,"No. 47, Krumbigal Road, Near Lalbagh Main Gate, Doddamavalli, BENGALURU, KARNATAKA560004 BANGALORE","https://www.google.com/maps?daddr=12.952566,77.58334",460667069,1, 9845053430,,,MILLIVISIONS MARKETING PVT LTD,
,MICHELIN,"https://www.michelin.in/auto/dealers/sri-rakshith-tyres-rakshith-car-shringar?search=Bangalore,%20Karnataka,%20India",Bangalore,,"GROUND FLOOR, NO-141/1, LALBAGH MAIN ROAD, BANGALORE560027 BANGALORE","https://www.google.com/maps?daddr=12.948639,77.58965",521319069,1, 9945688117,,,SRI RAKSHITH TYRES & RAKSHITH CAR SHRINGAR,
,MICHELIN,"https://www.michelin.in/auto/dealers/vinod-auto-service8?search=Bangalore,%20Karnataka,%20India",Bangalore,,"NO -1, VINOD AUTO SERVICE WHEELERS ROAD, FRAZER TOWN , BANGALORE560005 BANGALORE","https://www.google.com/maps?daddr=12.990922,77.6139",723174069,1, 9945155688/9611113600,,,VINOD AUTO SERVICE,
,MICHELIN,"https://www.michelin.in/auto/dealers/the-tyre-point9?search=Bangalore,%20Karnataka,%20India",Bangalore,,"Ground Floor,  2/2, New Mico Road, Adugodi560030 Bangalore","https://www.google.com/maps?daddr=12.943959,77.606895",432112069,1, 9449556214,,,The Tyre Point,
https://www.tyres-n-services.in/dealers/bangalore/michelin-tyres-services-slnp-pitstop-koramangala/appointment?fitter=5d121bec0dae941561e036dd&utm_source=michelin&utm_medium=dealerlocator&utm_campaign=bookappointment,MICHELIN,"https://www.michelin.in/auto/dealers/slnp-pit-stop0?search=Bangalore,%20Karnataka,%20India",Bangalore,,"No -819, 8th Block Kormangla Bangalore560034 Bangalore","https://www.google.com/maps?daddr=12.942819,77.61523",459357069,1, 9999817464,,,Slnp Pit Stop,https://www.tyres-n-services.in/dealers/bangalore/michelin-tyres-services-slnp-pitstop-koramangala
,MICHELIN,"https://www.michelin.in/auto/dealers/manu-pit-stop?search=Bangalore,%20Karnataka,%20India",Bangalore,,"NO-4, GROUND FLOOR, 5TH MAIN, KR GARDENS, OPP TO INDORR STADIUM KORMANGLA 8TH BLOCK BANGALURU560095 BANGALORE","https://www.google.com/maps?daddr=12.943353,77.62168",416437069,1, 9008008009,,,MANU PIT STOP,
,MICHELIN,"https://www.michelin.in/auto/dealers/sai-iyengar-tyres?search=Bangalore,%20Karnataka,%20India",Bangalore,,"3162 INDIRA NAGAR SERVICE ROAD,NEAR ESI HAL 2ND STAGE,DOMLUR BANGALORE560038 BANGALORE","https://www.google.com/maps?daddr=12.9695,77.63594",635134069,1, 9880116405,,,SAI IYENGAR TYRES,
https://www.tyres-n-services.in/dealers/bangalore/michelin-tyres-car-service-tyre-empire-indiranagar/appointment?fitter=5f06d89031b20d45ac1c8dc5&utm_source=michelin&utm_medium=dealerlocator&utm_campaign=bookappointment,MICHELIN,"https://www.michelin.in/auto/dealers/tyre-empire43?search=Bangalore,%20Karnataka,%20India",Bangalore,,"3169/F, PID NO. 72-1-3169/F, GROUND FLOOR AND FIRST FLOOR, HAL 2ND STAGE, BDA, BENGALURU560038 Indira nagar, Bangalore","https://www.google.com/maps?daddr=12.968361,77.63614",755932069,0, 8588876541,,,Tyre Empire,https://www.tyres-n-services.in/dealers/bangalore/michelin-tyres-car-service-tyre-empire-indiranagar
,MICHELIN,"https://www.michelin.in/auto/dealers/popular-tyres5?search=Bangalore,%20Karnataka,%20India",Bangalore,,"# 89, DR. RAJKUMAR ROAD,2nd BLOCK, RAJAJI NAGAR,BANGALORE,KARNATAKA560010 BENGALURU","https://www.google.com/maps?daddr=12.994,77.556",131500069,1, 080-23528827,,,POPULAR TYRES,
,MICHELIN,"https://www.michelin.in/auto/dealers/s-l-d-tyres?search=Bangalore,%20Karnataka,%20India",Bangalore,,"133, 60 Feet Road His Graee Second Doopanahalli, Bangalore560071 Bangalore","https://www.google.com/maps?daddr=12.964285,77.63993",432843069,1, 9845077422,,,S.L.D Tyres,
,MICHELIN,"https://www.michelin.in/auto/dealers/6th-gear5?search=Bangalore,%20Karnataka,%20India",Bangalore,,"GROUND FLOOR,1168/J,18TH C MAIN,5TH BLOCK RAJAJI NAGAR560010 BANGALORE","https://www.google.com/maps?daddr=12.98762,77.55037",723244069,1, 9481555720,,,6th GEAR,
https://www.tyres-n-services.in/dealers/bangalore/michelin-tyres-services-cherry-agencies-private-limited-jayanagar/appointment?fitter=5d121ff20dae941561e03e9b&utm_source=michelin&utm_medium=dealerlocator&utm_campaign=bookappointment,MICHELIN,"https://www.michelin.in/auto/dealers/cherry-agencies-pvt-ltd7?search=Bangalore,%20Karnataka,%20India",Bangalore,,"No.1579, 11Th Main Road, Jayanagar 4th 'T' Block, Opp. Shanthi Nursing Home560041 BANGALORE","https://www.google.com/maps?daddr=12.922767,77.58607",431331069,1, 8929100525,,,CHERRY AGENCIES PVT LTD.,https://www.tyres-n-services.in/dealers/bangalore/michelin-tyres-services-cherry-agencies-private-limited-jayanagar
,MICHELIN,"https://www.michelin.in/auto/dealers/sree-balaji-tyres?search=Bangalore,%20Karnataka,%20India",Bangalore,,"NO. 19, J.C ROAD,OPP DENA BANK,BANGALORE,KARNATAKA560002 BENGALURU","https://www.google.com/maps?daddr=13.021,77.585",131511069,1, 41149771,,,SREE BALAJI TYRES,
,MICHELIN,"https://www.michelin.in/auto/dealers/b-r-tyres-pcr1?search=Bangalore,%20Karnataka,%20India",Bangalore,,"NO. 3, 2ND BLOCK, 3RD STAGE, OPP BHARATH PETROL PUMP, BASAVESHWARA NAGAR, BENGALURU, KARNATAKA560079 BANGALORE","https://www.google.com/maps?daddr=12.985388,77.543495",723178069,1, 9972010759,,,B R TYRES PCR,
,MICHELIN,"https://www.michelin.in/auto/dealers/sheshadri-tyres-and-service?search=Bangalore,%20Karnataka,%20India",Bangalore,,"SHOP NO -1,2 & 3 DVS REDDY COMPLEX NEAR SRI SADGURU SADANANDA BABA ASHRAM DOMMASANDRA CIRCLE VARTUR ROAD BANGALORE562125 BANGALORE","https://www.google.com/maps?daddr=12.925024,77.61757",399612069,1, 8050999009,,,SHESHADRI TYRES AND SERVICE,
https://www.tyres-n-services.in/dealers/bangalore/michelin-tyres-services-slnp-pitstop-ashwathnagar/appointment?fitter=5d121d930dae941561e03a1f&utm_source=michelin&utm_medium=dealerlocator&utm_campaign=bookappointment,MICHELIN,"https://www.michelin.in/auto/dealers/slnp-pit-stop20?search=Bangalore,%20Karnataka,%20India",Bangalore,,"NO.1, NEW MSR 80 FEET ROAD, ASHWATHNAGAR, SANJAYNAGAR MAIN ROAD, BENGALURU, KARNATAKA560094 BANGALORE","https://www.google.com/maps?daddr=13.026836,77.57759",721747069,1, 9711999065,,,SLNP PIT STOP,https://www.tyres-n-services.in/dealers/bangalore/michelin-tyres-services-slnp-pitstop-ashwathnagar
https://www.tyres-n-services.in/dealers/bangalore/michelin-tyres-car-service-my-tire-store-banashankari/appointment?fitter=5eba34b806c12850d8e2a3b1&utm_source=michelin&utm_medium=dealerlocator&utm_campaign=bookappointment,MICHELIN,"https://www.michelin.in/auto/dealers/my-tire-store?search=Bangalore,%20Karnataka,%20India",Bangalore,,"New Shop No 3314, 3315, Ground Floor 80 Ft Road, Hosakerahalli Cross Banashankari 3r Stage ,560085 BANGALORE","https://www.google.com/maps?daddr=12.933375,77.54598",416659069,1, 9711999802,,,MY TIRE STORE,https://www.tyres-n-services.in/dealers/bangalore/michelin-tyres-car-service-my-tire-store-banashankari
,MICHELIN,"https://www.michelin.in/auto/dealers/tyre-care-centre?search=Bangalore,%20Karnataka,%20India",Bangalore,,1Y 100 FEET RING ROAD560010 BENGALURU,"https://www.google.com/maps?daddr=12.925288,77.55031",327757069,1,,,,TYRE CARE CENTRE,
https://www.tyres-n-services.in/dealers/bangalore/michelin-tyres-services-slnp-pitstop-jp-nagar/appointment?fitter=5d121baa0dae941561e03655&utm_source=michelin&utm_medium=dealerlocator&utm_campaign=bookappointment,MICHELIN,"https://www.michelin.in/auto/dealers/slnp-pit-stop6?search=Bangalore,%20Karnataka,%20India",Bangalore,,"# 21, 24th Main, J P Nagar, 6th phase, Bangalore560078 BANGALORE","https://www.google.com/maps?daddr=12.904548,77.58574",460957069,1, 9999830198,,,SLNP PIT STOP,https://www.tyres-n-services.in/dealers/bangalore/michelin-tyres-services-slnp-pitstop-jp-nagar
https://www.tyres-n-services.in/dealers/bangalore/michelin-tyres-services-slnp-pitstop-kalyan-nagar/appointment?fitter=5f1ee40de4e15c7251974c4a&utm_source=michelin&utm_medium=dealerlocator&utm_campaign=bookappointment,MICHELIN,"https://www.michelin.in/auto/dealers/slnp-pit-stop81?search=Bangalore,%20Karnataka,%20India",Bangalore,,"# 401, 7th Main, Kalyannagar, HRBR 2nd Block, Bangalore, (Next to Cosmopolitan Club-Hennur Banaswadi Club)560043 BANGALORE","https://www.google.com/maps?daddr=13.021486,77.64288",409298069,1, 7303885765,,,SLNP PIT STOP,https://www.tyres-n-services.in/dealers/bangalore/michelin-tyres-services-slnp-pitstop-kalyan-nagar
,MICHELIN,"https://www.michelin.in/auto/dealers/sai-baba-tyres2?search=Bangalore,%20Karnataka,%20India",Bangalore,,"No- 42, Ground Floor,Service Road Ring Road,Kempegowda Nagara560058 Bangalore","https://www.google.com/maps?daddr=12.99967,77.52469",726855069,0, 9902974947,,,Sai Baba Tyres,
,MICHELIN,"https://www.michelin.in/auto/dealers/bangalore-tyre-service6?search=Bangalore,%20Karnataka,%20India",Bangalore,,"NO.3/6,BANASWADI MAIN ROAD,JAI BHARATH NAGAR BANGALORE560033 BANGALORE","https://www.google.com/maps?daddr=13.014064,77.656654",626561069,1, 9686606111,,,BANGALORE TYRE SERVICE,
,MICHELIN,"https://www.michelin.in/auto/dealers/tyre-empire71?search=Bangalore,%20Karnataka,%20India",Bangalore,,"27th Main Road, Sector 1, HSR Layout, Bengaluru, Karnataka   BENGALURU, KARNATAKA560087 BANGALORE","https://www.google.com/maps?daddr=12.917534,77.65046",723023069,1, 9008000000,,,TYRE EMPIRE,
,MICHELIN,"https://www.michelin.in/auto/dealers/super-tyres9?search=Bangalore,%20Karnataka,%20India",Bangalore,,"Bbmp No -3, 6th Cross New K.S Palayam, Bangalore Urban560002 Bangalore","https://www.google.com/maps?daddr=12.9752245,77.67586",432826069,1, 9845010672,,,Super Tyres,
,MICHELIN,"https://www.michelin.in/auto/dealers/tyre-marks4?search=Bangalore,%20Karnataka,%20India",Bangalore,,"NO. 266/1, VIGNAN NAGAR MAIN ROAD VIBHUTIPURA, MARATHAHALLI MAIN RAOD BANGALORE560037 BANGALORE","https://www.google.com/maps?daddr=12.97194,77.68054",729992069,1, 9611109608,,,TYRE MARKS,
,MICHELIN,"https://www.michelin.in/auto/dealers/slnp-pit-stop88?search=Bangalore,%20Karnataka,%20India",Bangalore,,"NO. 323, MARAPPA COMPOUND, ADJACENT TO MANJUNATHA PALACE, SRK NAGAR POST, THANISANDRA, BANGALORE560077 BANGALORE","https://www.google.com/maps?daddr=13.054147,77.6317",431359069,1, 9845091995,,,SLNP PIT STOP,
https://www.tyres-n-services.in/dealers/bangalore/michelin-tyres-services-shiva-sai-enterprises-old-madras-road/appointment?fitter=5f0e8209bf1b79667c6c0583&utm_source=michelin&utm_medium=dealerlocator&utm_campaign=bookappointment,MICHELIN,"https://www.michelin.in/auto/dealers/shiva-sai-enterprises?search=Bangalore,%20Karnataka,%20India",Bangalore,,"Shop No -1, Kvn Complex 1st Main Ground Floor 1st Block Akshaya Nagar, Ramamurthy Nagar560016 Bangalore","https://www.google.com/maps?daddr=13.022566,77.6805",416309069,1, 7669955257,,,Shiva Sai Enterprises,https://www.tyres-n-services.in/dealers/bangalore/michelin-tyres-services-shiva-sai-enterprises-old-madras-road
,MICHELIN,"https://www.michelin.in/auto/dealers/sri-vinayaka-tyres3?search=Bangalore,%20Karnataka,%20India",Bangalore,,"NO.51/2,SRI VINAYAKA TYRES UNIT -2,NANJAPPA ROAD,VIDYARANYAPURA, BANGALORE560097 BANGALORE","https://www.google.com/maps?daddr=13.070899,77.56808",702831069,1, 9980810432,,,SRI VINAYAKA TYRES,
,MICHELIN,"https://www.michelin.in/auto/dealers/sri-vinayaka-tyres1?search=Bangalore,%20Karnataka,%20India",Bangalore,,"NO.45,SRI VINAYAKA TYRES UNIT-3,THINDLU MAIN ROAD,BASAVASAMITHI LAYOUT VIDYARANYAPURA POST BANGALORE560097 BANGALORE","https://www.google.com/maps?daddr=13.070899,77.56808",702830069,1, 9980810432,,,SRI VINAYAKA TYRES,
,MICHELIN,"https://www.michelin.in/auto/dealers/tyre-empire?search=Bangalore,%20Karnataka,%20India",Bangalore,,"633/727/32, Whitefield,Opp Sigma Tech Park, Ramnagondanahalli Village,BENGALURU,KARNATAKA560087 BENGALURU","https://www.google.com/maps?daddr=12.880589,77.67395",329842069,1, 9008000000,,,Tyre Empire,
,MICHELIN,"https://www.michelin.in/auto/dealers/tyre-empire03?search=Bangalore,%20Karnataka,%20India",Bangalore,,"OLD NO. 6/2, KATHA NO. 119, TUBARAHALLI VILLAGE, VARTHUR HOBLI, BANGALORE EAST TALUK, BENGALURU560037 Brookfield, Bangalore","https://www.google.com/maps?daddr=12.96721,77.71798",755931069,0, 9845118844,,,Tyre Empire,
,MICHELIN,"https://www.michelin.in/auto/dealers/car-design?search=Bangalore,%20Karnataka,%20India",Bangalore,,"NO -60, MIG, 2ND  B, KHB COLONY, GANDHINAGAR YELAHANKA560064 BANGALORE","https://www.google.com/maps?daddr=13.096542,77.59807",416318069,1, 9886368743,,,CAR DESIGN,
,MICHELIN,"https://www.michelin.in/auto/dealers/s-m-tyres-and-alignment5?search=Bangalore,%20Karnataka,%20India",Bangalore,,"Ground Floor, No 51, Shop No. 4, Hema Reddy Building, Sriramaoura Road Yarandahalli, Jiagani Post, Anekal Taluk Bengaluru560105 Bangalore","https://www.google.com/maps?daddr=12.84328,77.61343",726854069,0, 9901430425,,,S M Tyres And Alignment,
https://www.tyres-n-services.in/dealers/bangalore/michelin-tyres-services-slnp-pitstop-yelahanka-new-town/appointment?fitter=5d121b580dae941561e035b2&utm_source=michelin&utm_medium=dealerlocator&utm_campaign=bookappointment,MICHELIN,"https://www.michelin.in/auto/dealers/slnp-pit-stop90?search=Bangalore,%20Karnataka,%20India",Bangalore,,"# 1992, HIG B Sector, Mother Dairy Road, Yelahanka New Town, Bangalore560017 BANGALORE","https://www.google.com/maps?daddr=13.100869,77.58239",721741069,1, 9999844256,,,SLNP PIT STOP,https://www.tyres-n-services.in/dealers/bangalore/michelin-tyres-services-slnp-pitstop-yelahanka-new-town
,MICHELIN,"https://www.michelin.in/auto/dealers/s-k-s-tyres?search=Bangalore,%20Karnataka,%20India",Bangalore,,"NO.79/5,SHOP NO1&2,BETTADASANAPURA, BEGUR POST BANGALORE560068 BANGALORE","https://www.google.com/maps?daddr=12.84304,77.63977",618319069,1, 9845966463,,,S.K.S.TYRES,
,MICHELIN,"https://www.michelin.in/auto/dealers/tyre-empire89?search=Bangalore,%20Karnataka,%20India",Bangalore,,"SHOP NO.6 E BLOCK 214/6, GROUND FLOOR, MYHNA SQUARE, NEAR HP PETROL BUNK, VARTHUR MAIN ROAD, GUNJUR, BENGALURU (BANGALORE) URBAN560087 Gunjur, Bangalore","https://www.google.com/maps?daddr=12.943511,77.74341",755925069,0, 9845118844,,,Tyre Empire,
,MICHELIN,"https://www.michelin.in/auto/dealers/r-m-n-tyres-service?search=Bangalore,%20Karnataka,%20India",Bangalore,,"NO -11, RAVIKIRLOSKAR LAYOUT CHIKKABIDARAKKALLU TUMKUR ROAD DASANPURA HOBLI BANGALORE560073 BANGALORE","https://www.google.com/maps?daddr=13.062261,77.47409",400001069,1, 9481183536,,,R.M.N TYRES & SERVICE,
,MICHELIN,"https://www.michelin.in/auto/dealers/jc-group-of-trades?search=Bangalore,%20Karnataka,%20India",Bangalore,,"NO 1, CHINNA COMPLEX, NIRANTARA LAYOUT,KATTIGENAHALLI, IAF POST, YELAHANKA, BANGALORE560063 BANGALORE","https://www.google.com/maps?daddr=13.12261,77.63114",702833069,1, 9964409704,,,JC GROUP OF TRADES,
,MICHELIN,"https://www.michelin.in/auto/dealers/sri-mukambika-enterprises?search=Bangalore,%20Karnataka,%20India",Bangalore,,"Ground Floor, Sy No -4/3, Hosakote Main Road Belthur Hosakote560067 Bangalore","https://www.google.com/maps?daddr=13.007722,77.75784",432938069,1, 9480038222,,,Sri Mukambika Enterprises,
,MICHELIN,"https://www.michelin.in/auto/dealers/chakra-corporation3?search=Bangalore,%20Karnataka,%20India",Bangalore,,"No 160/2A,MINU VENKATAREDDY BUILDING,OPP BIOCON MAIN GATE, HOSUR MAIN ROAD, HEBBAGODI ANEKAL TALUK560100 BANGALORE","https://www.google.com/maps?daddr=12.83081,77.6814",735197069,1, 7028022463,,,CHAKRA CORPORATION,
,MICHELIN,"https://www.michelin.in/auto/dealers/sangeetha-wheel-alignments3?search=Bangalore,%20Karnataka,%20India",Bangalore,,"DOMMASANDRA, SARJAPUR ROAD, NO. 23A ANEKAL TQ562125 BANGALORE","https://www.google.com/maps?daddr=12.88534,77.74555",730824069,1, 9066782008,,,SANGEETHA WHEEL ALIGNMENTS,
,MICHELIN,"https://www.michelin.in/auto/dealers/bangalore-tyre-service?search=Bangalore,%20Karnataka,%20India",Bangalore,,"TIRUMALASHETTYHALLI VILLAGE,ANUGONDANAHALLI HOBLI,HOSKOTE,BENGALURU560067 BANGALORE","https://www.google.com/maps?daddr=12.98626,77.78026",626560069,1, 9686606111,,,BANGALORE TYRE SERVICE,
https://www.tyres-n-services.in/dealers/bangalore/michelin-tyres-services-pace-tyre-tech-chandapura/appointment?fitter=5d121e7d0dae941561e03bcd&utm_source=michelin&utm_medium=dealerlocator&utm_campaign=bookappointment,MICHELIN,"https://www.michelin.in/auto/dealers/pace-tyre-tech?search=Bangalore,%20Karnataka,%20India",Bangalore,,"SBR COMPLEX, HOSUR MAIN ROAD, CHANDAPUR, ANEKAL TALUK560099 BANGALORE","https://www.google.com/maps?daddr=12.8035145,77.702805",140180069,1, 9711982096,,,PACE TYRE TECH,https://www.tyres-n-services.in/dealers/bangalore/michelin-tyres-services-pace-tyre-tech-chandapura
,MICHELIN,"https://www.michelin.in/auto/dealers/tyre-care?search=Bangalore,%20Karnataka,%20India",Bangalore,,"11/2,RAJANUKUNTE,HESARAGHATTA, DODDABALLAPURA MAIN ROAD,  BENGALURU (BANGALORE) URBAN, KARNATAKA,560064 BANGALORE","https://www.google.com/maps?daddr=13.15,77.49",416310069,1, 9164606076,,,TYRE CARE,
,MICHELIN,"https://www.michelin.in/auto/dealers/mahanteshwara-enterprises0?search=Bangalore,%20Karnataka,%20India",Bangalore,,"HOSAHUDYA VILLAGE, SURVEY NO 91, KASABA HOBLI DODABALLAPURA561203 BANGALORE","https://www.google.com/maps?daddr=13.165214,77.40923",731460069,1, 9880330396,,,MAHANTESHWARA ENTERPRISES,
https://www.tyres-n-services.in/dealers/hosur/michelin-tyres-services-sri-bagyalakshmi-tyres-sunnambu-jeebi/appointment?fitter=5ee1bf66829e1b6c11355a02&utm_source=michelin&utm_medium=dealerlocator&utm_campaign=bookappointment,MICHELIN,"https://www.michelin.in/auto/dealers/sri-bagyalakshmi-tyres?search=Bangalore,%20Karnataka,%20India",Bangalore,,"76/4,BANGLORE BYE PASS ROAD, SAKTHI LODGE BUILDING, HOSURE635109 HOSUR","https://www.google.com/maps?daddr=12.739117,77.83235",451069,1, 9999845976,,,Sri Bagyalakshmi Tyres,https://www.tyres-n-services.in/dealers/hosur/michelin-tyres-services-sri-bagyalakshmi-tyres-sunnambu-jeebi
,MICHELIN,"https://www.michelin.in/auto/dealers/vasawi-automobiles?search=Bangalore,%20Karnataka,%20India",Bangalore,,"VASAVI AUTOMOBILES, NO:- 81/1, AMMAN NAGAR, OPPOSITE ELFORGE, DINNUR, DENKANIKOTTAH ROAD, HOSURHOSUR","https://www.google.com/maps?daddr=12.719593,77.82202",409304069,1, 9953881135,,,VASAWI AUTOMOBILES,
https://www.tyres-n-services.in/dealers/hosur/michelin-tyres-services-vasavi-automobiles-maruthi-nagar/appointment?fitter=5d121c7d0dae941561e037f7&utm_source=michelin&utm_medium=dealerlocator&utm_campaign=bookappointment,MICHELIN,"https://www.michelin.in/auto/dealers/vasawi-automobiles9?search=Bangalore,%20Karnataka,%20India",Bangalore,,"Opp to Sarovar Portico Hotel, Bye Pass Road, Krishnagiri635109 Hosur","https://www.google.com/maps?daddr=12.727494,77.853035",132151069,1, 9953881135,,,Vasawi Automobiles,https://www.tyres-n-services.in/dealers/hosur/michelin-tyres-services-vasavi-automobiles-maruthi-nagar
,MICHELIN,"https://www.michelin.in/auto/dealers/s-l-v-automobiles-and-tyres?search=Bangalore,%20Karnataka,%20India",Bangalore,,"BANGALORE ROAD, H.CROSS SIDLAGHATTA562102 H.CROSS","https://www.google.com/maps?daddr=13.242723,77.93052",459441069,1, 9900301248,,,S.L.V. AUTOMOBILES AND TYRES,
,MICHELIN,"https://www.michelin.in/auto/dealers/samashri-traders?search=Bangalore,%20Karnataka,%20India",Bangalore,,"1, SRI VENUGOPAL SWAMY TEMPLE STREET, CHICKBALLAPUR562101 CHICKBALLAPUR","https://www.google.com/maps?daddr=13.435616,77.72766",620607069,1, 7899766766,,,SAMASHRI TRADERS,
,MICHELIN,"https://www.michelin.in/auto/dealers/m-m-tyres18?search=Bangalore,%20Karnataka,%20India",Bangalore,,"01, HP JUNCTION, HOSUR TO KRISHNAGIRI ON NH-7, SHOOLAGIRI636117 KRISHNAGIRI","https://www.google.com/maps?daddr=12.66556,78.00402",765658069,0, 7667566820,,,M M TYRES,
,MICHELIN,"https://www.michelin.in/auto/dealers/rdv-tyres?search=Bangalore,%20Karnataka,%20India",Bangalore,,"2, Near Pavan College Kolar563101 Kolar","https://www.google.com/maps?daddr=13.135745,78.13256",432136069,1, 9449088557,,,RDV Tyres,
,MICHELIN,"https://www.michelin.in/auto/dealers/shivanna-tyres?search=Bangalore,%20Karnataka,%20India",Bangalore,,KHATA NO.2813/678572101 TUMKUR,"https://www.google.com/maps?daddr=13.346622,77.09386",327737069,1,,,,SHIVANNA TYRES,
,MICHELIN,"https://www.michelin.in/auto/dealers/giri-enterprises6?search=Bangalore,%20Karnataka,%20India",Bangalore,,OPP MADDURAMMA TEMPLE B M ROAD MADDUR571428 MADDUR,"https://www.google.com/maps?daddr=12.591624,77.04787",460785069,1, 9880222123,,,GIRI ENTERPRISES,
,MICHELIN,"https://www.michelin.in/auto/dealers/varaddharaja-automotives?search=Bangalore,%20Karnataka,%20India",Bangalore,,"158 V, Old Chennai Road, Krishnagiri Post635001 Krishnagiri","https://www.google.com/maps?daddr=12.523179,78.210335",428682069,1, 9600037450,,,Varaddharaja Automotives,
,MICHELIN,"https://www.michelin.in/auto/dealers/maruthi-tyress?search=Bangalore,%20Karnataka,%20India",Bangalore,,"NO -5/318 -1, THIRUVALLUVAR NAGER BANGALORE BYPASS ROAD KRISHNAGIRI635001 KRISHNAGIRI","https://www.google.com/maps?daddr=12.515747,78.216286",460666069,1, 9865836444,,,MARUTHI TYRESS,
,MICHELIN,"https://www.michelin.in/auto/dealers/urs-tyer-world9?search=Bangalore,%20Karnataka,%20India",Bangalore,,"MANU COMPLEX, MYSORE ROAD, MALAVALLI TOWN, BANGALORE571430 BANGALORE","https://www.google.com/maps?daddr=12.38515,77.05403",759352069,0, 8880388831,,,URS TYER WORLD,
,MICHELIN,"https://www.michelin.in/auto/dealers/rohan-tyre-centre?search=Bangalore,%20Karnataka,%20India",Bangalore,,"SHIVALEELA COMPLEX,NEAR FACTORY CIRCLE,ML ROADMANDYA571403 MANDYA","https://www.google.com/maps?daddr=12.501,76.924",131495069,1, 08232-238106,,,ROHAN TYRE CENTRE,
,MICHELIN,"https://www.michelin.in/auto/dealers/tyre-house22?search=Bangalore,%20Karnataka,%20India",Bangalore,,"NO-1521004, 1187/1187, KIRANGURU VILLAGE DUDDA HOBLI, MANDYA571807 BANGALORE","https://www.google.com/maps?daddr=12.52055,76.86643",759333069,0, 7411045007,,,TYRE HOUSE,
