brand,district,email_id,full_address,manufacturer_unique_id,phone_number,pincode,state,store_name
METZELER,Pune,,"Shop no. 1 to 4, Shrishti Centre, Nagar Road, Wadgaon Sheri, Opp., Hotel Novotel, 411014",IN0000000041,9850880088,,,TYRE TRAX
METZELER,Pune,,"84/1 Bhairobanala Near Ganpati, Mandir, Fatima Nagar, 411040",IN0000000044,7225808080,,,PRATIK ENTERPRISES
METZELER,Pune,,"796 Ravivar Peth, Near Soniya, Maruti Chowk, 411002",IN0000000047,9371000905,,,M BALTODA
METZELER,Pune,,"13/24 Bankarwada, Opp PMC, Outgate, 411005",IN0000000042,9422306479,,,PRABHAT TYRES
METZELER,Pune,,"426/A,j m road,near j m temple,opp bank of baroda,behind shailaja bar,, 411005",IN0000000040,9921595756,,,PUNGLIYA TYRES
METZELER,Pune,,"NO. 1023/24, Bhavan Park Road, Swargate Corner, 411002",IN0000000046,9372051199,,,N MEHTA TYRES
METZELER,Pune,,"Shop no. 1 & 2 YASHOKAMAL, 25/14 ERANDWANE, NEXT TO GARWARE COLLEGE, Off Karv Road, 411004",IN0000000043,9822044377,,,LOKMANYA AUTO CENTRE
METZELER,Pune,,"7 & 8 Sai Arcade Bulding, Next to Hotel Ranjai Garden, Pune-Mumbai, Express Highway, Wakad, 411057",IN0000000045,7507599997,,,SAI PRASAD WHEELS & TYRES
METZELER,Mumbai,,"Arya Estate, Near  Kapurbawdi, Big Bazaar, Next to  Syndicate Bank and Vardaman Garden, Old Agra Road, Balkum, Thane ( W),  400608",IN0000000037,9619404075,,,PREMJI MOTORS PVT.LTD
METZELER,Navi Mumbai,,"UNIT -01 ,PLOT-144  NEAR HOTEL BLUE Diamond,Sector-28 ,Vashi,, 400703",IN0000000039,9820363859,,,SUN CORPORATION
METZELER,Mumbai,,"Dev Milan, L.B.S Marg, Opp. Raheja Gardens, Thane (W), 400606",IN0000000038,9821552231,,,SUPREME TYRE & ACCESSORIES
METZELER,Mumbai,,"Shop No.4/5/7 Raviraj Residency, Near Railway Phatak, Byayander - East, Thane, 401 101",IN0000000036,7208619672,,,SUPER TYRE
METZELER,Kohlapur,,"E/334, F-17, Trade Center, Station Road, 416001",IN0000000048,9371108406,,,SATISH TYRES
METZELER,Mumbai,,"Shop no. 10, Veena Apartments, Sejal Park, BEST colony Road, Near Oshiwara Bus Depot, Goregaon (W), 400104",IN0000000035,9930683555,,,TORUS VENTURES
METZELER,Mumbai,,"Shop no. 1 & 2, New Orbit Grand Building, N.M. Joshi Marg, Opp. South BMC Office, Lower Parel (W), 400013",IN0000000033,9869779787,,,R B TYRES
METZELER,Chennai,,"No.15, Kumaraswamy Nagar, MTH Road, Near Nathamuni Theatre, Villivakam, 600049",IN0000000022,9962027666,,,TYRES R US PVT LTD
METZELER,Chennai,,"No.547, Ponnamalle High Road, Next to Thiruveethi Amman Temple, Arumbakkam, 600106",IN0000000023,9488500000,,,W AUTO PRO
METZELER,Chennai,,"No.74, Greams Road, Thousands Light, 600006",IN0000000018,9840920870,,,TYRE STORE
METZELER,Chennai,,"No.45, Whites Road, Next to Royal Sundaram Towers, Royapettah, 600014",IN0000000020,9840300057,,,LAL TYRES PVT LTD
METZELER,Chennai,,"No.26, Jeevraj Mansion, Whites Road, Opp Sathyam Cinemas Car Parking, Royapettah, 600014",IN0000000019,9884153353,,,B M LAL BROS SERVICE CENTRE
METZELER,Bangalore,,"#128, St.John's Church Road, Opp Coles Park, 560005",IN0000000007,9845635900,,,TYRE CENTRE
METZELER,Bangalore,,"No.4, Thimmiah Road, Near Kambal Posh Dargah, Shivajinagar, 560051",IN0000000017,9008800070,,,SRI LAKSHMI VENKATESHWARA TYRES
METZELER,Bangalore,,"No.35/5, Langford Road, Near Double Road Circle, 560025",IN0000000003,080-41519430,,,MADHUS ENTERPRISES
METZELER,Bangalore,,"No.2, Lalbagh Road, , 560027",IN0000000008,9844254180,,,DARSHAN TYRES
METZELER,Bangalore,,"No.100, Lalbagh Fort Road, Govardhan Building, Doddamavalli, 560004",IN0000000001,9845184915,,,THIRUMALA AUTO ACCESSORIES
METZELER,Bangalore,,"No.47, Krumbigal Road, Mavalli, 560004",IN0000000013,9008790567,,,MILLIVISION MARKETING PVT LTD
METZELER,Bangalore,,"#86/47, Ground Floor, 13th, Cross, 8th Main, Wilsongarden, 560027",IN0000000005,7829370110,,,TRIAAD AUTOMOBILES
METZELER,Bangalore,,"No.442/2A/2B, Garve Bhavi Palya, Bus Stop, Hosur Main Road, , 560068",IN0000000009,9060907242,,,AMBA AUTO SALES & SERVICES PVT LTD
METZELER,Jodhpur,,"109, Baldev Nagar, Masuriya, Jodhpur, Rajasthan, 342003",IN0000000066,7742898888,,,NN ENTERPRISES
METZELER,Gurgaon,,"167 Udyog Vihar, Phase -6, Sector 37, Gurgaon Haryana , 122016",IN0000000062,9811226633,,,SPEED MONKS
METZELER,Delhi,,"55, 2nd floor,krishna Market, kalkaji, New Delhi, 110019",IN0000000056,9582886687,,,PATHPAVERS
METZELER,Delhi,,"Munshi Ram Complex, Shop No. 5, Ground Floor, A- 1/25 KH. No. 83/9, Main Road, Mahavir Enclave, New Delhi, 110045",IN0000000055,9999992202,,,PRO MARK TYRE INDIA PVT. LTD
METZELER,Noida,,"B-54,Sector-5,Noida-201301, 201301",IN0000000059,8882808080,,,TYRE SHOPPE
METZELER,Delhi,,"Shop No. 1694, Shri Krishna Das Marg, Nai Walan, Karol Bagh, New Delhi, 110005",IN0000000054,9818831981,,,MASTER TYRES
METZELER,Delhi,,"J-29 Gali No -8 Post Office, Upper Anand Parvat Opposite H.No M-27, New Delhi, 110006",IN0000000058,9711101771,,,SIMRAN TRADING
METZELER,Delhi,,"70-B40 Main Shiva Ji Marg Moti Nagar, New Delhi, 110015",IN0000000053,8860101060,,,DERICK IMPEX
METZELER,Delhi,,"49 Rama Road Near Satguru Ram Singh,  Metro Station, New Delhi, 110015",IN0000000052,9310220353,,,BIKERS WORLD
METZELER,Moradabad,,"Madhubani Park Saimandir Road, Moradabad, Uttar Pradesh , 244001",IN0000000069,9412211111,,,CHAWLA TYRES
METZELER,Dehradun,,"1st Floor 16-17/1 Subash Park Eastern Camp, Tyagi Road Dehradun, 248001",IN0000000068,9837067256,,,FORTUNE SALES
METZELER,Coimbatore,,"No.598/182, Karuppakal Layout, K R Puram, New Siddhapudur, 641044",IN0000000029,9944964992,,,THE TYRE WORLD
METZELER,Coimbatore,,"No.34/1/1115, Dr.Radha Krishnan Road, Gandhipuram, 641012",IN0000000030,9489703803,,,SAKTHI AGENCY
METZELER,Coimbatore,,"No.19-3,4, Shanmuga Nagar, Sungam by-pass road, 641045",IN0000000028,9600512326,,,EAGLE MOTORS
METZELER,Chandigarh,,"SCF 414, New Motor Market, Mani Majra (UT) , 160101",IN0000000064,9915313462,,,SURYA TYRES & TRADERS
METZELER,Ludhiana,,"Â Link Rd, Opposite Preet Palace, Jammu Colony, Ludhiana, Punjab , 141002",IN0000000065,9653244444,,,TEJ TYRES
METZELER,Cochin,,"32/2608, N H Road, Between Mamangalam & Palarivattom, , 682025",IN0000000025,0484-2347024,,,GLOBAL TYRES - COCHIN
METZELER,Cochin,,"No.2/367, Kannadikkadu, Vyttila - Aroor Bypass, Near Hotel Sarovaram, 682304",IN0000000026,0484-2301943,,,GLOBAL TYRES - KANNADIKKADU
