brand,district,email_id,full_address,goodyear_zone,manufacturer_unique_id,phone_number,pincode,state,store_name,website
Good Year,,"
								  aptyre@gmail.com								  ","Tilaka manjhi chowk,Bhagalpur",0,,9334850313,,,A P TYRES,https://www.goodyear.co.in/store/a-p-tyres
Good Year,,,"No.6,Ullal Main Road,Press Layout,Bangalore-560056",0,,8884330083,,,AADYA CAR CARE,https://www.goodyear.co.in/store/aadya-car-care
Good Year,,,"Near Mahaveer filling station,P.O.- Bhamla,Tehsil-Sarkaghat, District-Mandi, H.P.",0,,9882632449,,,A R TYRE & ACCESSORIES,https://www.goodyear.co.in/store/a-r-tyre-accessories
Good Year,,,"GR FLOOR, A-22A, SEWAK PARK, NEAR DWARKA MORE, UTTAM NAGAR, WEST DELHI, DELHI- 110059",0,,01171568678,,,A PLUS TYRE SHOPPE,https://www.goodyear.co.in/store/a-plus-tyre-shoppe
Good Year,,"
								  abcartyres@gmail.com								  ",Kottayil Building Opposite Palghat Poly Clinic Kalmandapam Kunnathrumedu Palakkad Kerala,0,,8891733040,,,ABCAR Tyres,https://www.goodyear.co.in/store/abcar-tyres
Good Year,,,"1, Kabar Kutta, G T Road, Aligarh",0,,8826660470,,,Agarwal Agencies,https://www.goodyear.co.in/store/agarwal-agencies
Good Year,,"
								  Ansari.Tyre@Yahoo.Com								  ",Shop no 22/S 11 12 Smarat Ashok Udhyan NH-112 Pal Road Jodhpur Rajasthan India,0,,9810679876,,,Ansari Tyres,https://www.goodyear.co.in/store/ansari-tyres-2
Good Year,,,"SHOP NO-48/23, PERAMBUR HIGH ROAD, JAMALIA, CHENNAI, TAMIL NADU- 600012",0,,044-42693366,,,ABS WHEELS,https://www.goodyear.co.in/store/abs-wheels
Good Year,,"
								  kapoormotors@gmail.com								  ",Nanital Road Rampur (U.P.)-,0,,9457045573,,,Abhishek Tyres,https://www.goodyear.co.in/store/abhishek-tyres
Good Year,,"
								  adarshtyres2010@gmail.com								  ","A-5-6, HIGHWAY ESTATE, NR.HOTEL HIGHWAY, SARKHEJ-SANAND CROSS ROAD",0,,9426050733,,,ADARSH TYERS,https://www.goodyear.co.in/store/adarsh-tyers
Good Year,,"
								  mohdmainul420@gmail.com								  ","THANGAL BAZAR, KHOYATHONG ROAD, NEAR SHANI MANDIR, IMPHAL WEST",0,,9402087869,,,ABC TYRE SERVICE,https://www.goodyear.co.in/store/abc-tyre-service
Good Year,,"
								  CHADHATYRE9@GMAIL.COM								  ",D-9 Mayapuri Phase -II New Delhi Delhi,0,,01171568595,,,Acheet CTS Pvt Ltd,https://www.goodyear.co.in/store/acheet-cts-pvt-ltd
Good Year,,"
								  riaz.ansari80@gmail.com								  ","Shop No 487/1, Darpan Complex, GT Road, Dilshad Garden",0,,01161495534,,,Ansari Tyres,https://www.goodyear.co.in/store/ansari-tyres
Good Year,,,"VP- 19/693, PANAVELI, KOTTARAKARA, KOLLAM, KERALA- 691532",0,,8921565165,,,Angel Tyres,https://www.goodyear.co.in/store/angel-tyres
Good Year,,,"Near City Centre bridge, City Centre, Gwalior, Madhya Pradesh",0,,9826287583,,,AM Car House,https://www.goodyear.co.in/store/am-car-house
Good Year,,,Door:No:10-39 NH-66 GORIGUDDA UJJODI MANGALORE,0,,9343569324,,,Alva’s Tyre Care Centre,https://www.goodyear.co.in/store/alvas-tyre-care-centre
Good Year,,,"West of Iron Bridge,Allepay, Kerala",0,,9847057216,,,Alleppy Pavalam Tyres,https://www.goodyear.co.in/store/alleppy-pavalam-tyres
Good Year,,"
								  bagratyres@gmail.com								  ","4- DEVI NAGAR MODE, METRO PILLAR NO- 79, NEW SANGANER ROAD, SODALA, JAIPUR, RAJASTHAN- 302018",0,,9829060912,,,BAGRA TYRES PRIVATE LIMITED,https://www.goodyear.co.in/store/bagra-tyres-private-limited
Good Year,,"
								  bose@gmail.com								  ",Bose Tower Kandanaserry Guruvayoor Kerala-,0,,9995276818,,,Bose Tyres,https://www.goodyear.co.in/store/bose-tyres
Good Year,,"
								  jcr@cheeryagencies.com								  ","No.39/1, JC Road, Opp Punjab & Sind Bank",0,,08047486518,,,"Cherry, Tyre Park",https://www.goodyear.co.in/store/cherry-agencies-yeshvantpur
Good Year,,,Junction NH 49 Adimaly,0,,9447981326,,,Eltech Wheel Alignment,https://www.goodyear.co.in/store/eltech-wheel-alignment
Good Year,,,51/1 Vishveshwarya Road 80Ft road .BTM 4th Stage Off Bg Road Bangalore,0,,9060906020,,,Express Car Care,https://www.goodyear.co.in/store/express-car-care
Good Year,,"
								  palashmitra.euro@gmail.com								  ","365,GARIA MAIN ROAD,KOLKATA 700084",0,,9831456088,,,EURO AUTOMOBILE,https://www.goodyear.co.in/store/euro-automobile
Good Year,,,"Ashroli Crossing G T Road Etah,Etah, Uttar Pradesh",0,,9412388005,,,Etah Tyre House,https://www.goodyear.co.in/store/etah-tyre-house
Good Year,,"
								  empire_agencies.cbsa@gmail.com								  ","Near Post office,Chaibasa",0,,9431110005,,,EMPIRE AGENCIES,https://www.goodyear.co.in/store/empire-agencies
Good Year,,,"No 6 A, Mohan Nagar,100 Feet Road, Pondicherry.",0,,9025822666,,,Easy Drive,https://www.goodyear.co.in/store/easy-drive
Good Year,,"
								  eagletyres8388@gmail.com								  ","3/99C, Main Road Philominagar, Adaikalapuram Road, Virapandiapatnam.",0,,8525000000,,,Eagle Tyres,https://www.goodyear.co.in/store/eagle-tyres
Good Year,,"
								  kirna_sales@rediffmail.com								  ","Ground floor, Old GT Road,Monoharpur East, Dankuni,Hooghly, West Bengal, Pin- 711224",0,,9831022156,,,DUNLOP TYRE & BATTERY CENTRE,https://www.goodyear.co.in/store/dunlop-tyre-battery-centre
Good Year,,,"S.H. complex,near Indus Motors,Mukkampalamoodu,Vattapara P.O.Trivandrum-695028",0,,9947745039,,,GOOD LUCK TYRES,https://www.goodyear.co.in/store/good-luck-tyres
Good Year,,,"Opp- Bharadwaj Hospital,Haridwar Road",0,,9719103901,,,Grover Tyre Shopee,https://www.goodyear.co.in/store/grover-tyre-shopee
Good Year,,"
								  harshawheels@gmail.com								  ","# 8-123/1, MADHURA NAGAR COLONY, RAI DURG, CHITRAPURI COLONY, MANIKONDA",0,,04071327404,,,GREESHMAS HARSHA WHEELS,https://www.goodyear.co.in/store/greeshmas-harsha-wheels
Good Year,,,CHAKRATA ROAD VIKASNAGAR DEHRADUN-,0,,9412149830,,,Goyal Tyres,https://www.goodyear.co.in/store/goyal-tyres
Good Year,,"
								  guptatyrecokanpur@gmail.com								  ","107/3-A,Jarib Chowki,Heera Ganj,Jawahar Nagar,Kanpur-UP-208012",0,,9453021023,,,GUPTA TYRE CO,https://www.goodyear.co.in/store/gupta-tyre-co
Good Year,,"
								  mittugoyal82@gmail.com								  ",SCO NO-14 INDUSTRIAL AREA PHASE-2 CHANDIGARH-,0,,01726768383,,,Goyal Steels,https://www.goodyear.co.in/store/goyal-steels
Good Year,,,"1,237, A, CHIRACKAL, KURICHY, KOTTAYAM, KERALA- 686549",0,,9544171195,,,GOLDEN WHEELS,https://www.goodyear.co.in/store/golden-wheels
Good Year,,"
								  ajazreshi606@gmail.com								  ","SUMBAL SONAWARI , SUMBAL BANDIPORA, Kashmir",0,,7006450578,,,GREEN CITY TYRES,https://www.goodyear.co.in/store/green-city-tyres
Good Year,,"
								  hemanttyre1967@gmail.com								  ","1-2, SHREEJI TOWER, OPP:HIMALAYA MALL, DRIVE IN ROAD",0,,07971845372,,,HEMANT TYRE SHOP,https://www.goodyear.co.in/store/hemant-tyre-shop
Good Year,,"
								  hariomwheels@gmail.com								  ","WZ 13A/1, ASALATPUR, JANAKPURI, NEAR A2 BLOCK GURUDWARA, NEW DELHI – 110058",0,,9711141411,,,Hari Om Wheels,https://www.goodyear.co.in/store/hari-om-wheels
Good Year,,"
								  rajneeshkasaudhan2@gmail.com								  ","Station Road, Lal Chauraha, Tulsipur,Uttar Pradesh",0,,9651224795,,,HARI OM SALES,https://www.goodyear.co.in/store/hari-om-sales
Good Year,,"
								  lalitgoyal198@gmail.com								  ",Wadala Chowk Opp Dhillan Cold Storage Nakodar Road Jalandhar Punjab,0,,9855716198,,,GURU NANAK TYRE STORE,https://www.goodyear.co.in/store/guru-nanak-tyre-store
Good Year,,,"17, SHOP NO- 3, KODIGEHALLI MAIN ROAD, BELOW SUG REGISTRAR OFFICE, SAHAKAR NAGAR, BENGALORE, KARNATAKA- 560092",0,,9845688345,,,HAPPY WHEELS,https://www.goodyear.co.in/store/happy-wheels
Good Year,,,"G.T. ROAD, MOGA, PUNJAB- 142001",0,,9780210201,,,GURU NANAK TYRE HOUSE,https://www.goodyear.co.in/store/guru-nanak-tyre-house
Good Year,,,"GH-14/557, PASCHIM VIHAR, NEW DELHI- 110087",0,,9810800795,,,GURMEET TYRE SHOPPE,https://www.goodyear.co.in/store/gurmeet-tyre-shoppe
Good Year,,"
								  gurgaontyres@gmail.com								  ","OPP UNIWORD CITY, SILOKHRA ROAD, VIJAY VIHAR, SECTOR-30, GURUGRAM, HARYANA - 122001",0,,9958857585,,,GURGAON TYRES,https://www.goodyear.co.in/store/gurgaon-tyres
Good Year,,,O PM 18/514-30 ByPassRoad Perinthilmanna 18 Perinthilmanna Kerala-,0,,9847640137,,,HI-TECH WHEELS,https://www.goodyear.co.in/store/hi-tech-wheels
Good Year,,,"VDL PLAZA, PARAVATTANI, THRISSUR, KERALA - 5",0,,9961830603,,,HI TECH TYRES,https://www.goodyear.co.in/store/hi-tech-tyres
Good Year,,"
								  sales@hemanttyrezone.com								  ","UJALA CROSS ROAD, SARKHEJ",0,,9723697111,,,HEMANT TYRE ZONE,https://www.goodyear.co.in/store/hemant-tyre-zone
Good Year,,"
								  tyres.gupta@yahoo.com								  ","77/B, GANDHI NAGAR, JAMMU",0,,9419190839,,,GUPTA TYRES,https://www.goodyear.co.in/store/gupta-tyres
Good Year,,"
								  gttkarnal@yahoo.com								  ","RAILWAY ROAD, KARNAL, HARYANA - 132001",0,,9215538677,,,GUPTA TYRE TRADERS,https://www.goodyear.co.in/store/gupta-tyre-traders
Good Year,,"
								  msgoel.net@gmail.com								  ",A-8 WEST JYOTI NAGAR DELHI-,0,,9810206325,,,Goel Motor,https://www.goodyear.co.in/store/goel-motor
Good Year,,,"Br. O.: S.V. Road Opp Khar Traffic Police Chowky, Khar, Mumbai-400052",0,,02071969226,,,Gobind Tyres,https://www.goodyear.co.in/store/gobind-tyres
Good Year,,"
								  seek_smita@yahoo.co.in								  ","Industrial Area, A- Sector, Near Central bank, Naharlagun, Dist- Papum Pare, State- Arunachal Pradesh, PIN- 791110",0,,9436252454,,,JAIN CO/EVEREST,https://www.goodyear.co.in/store/jain-co-everest
Good Year,,"
								  shreemotors@hotmail.com								  ","Near Circuite house, Jaipur road, Sikar",0,,9414038385,,,Jai Shree Tyre Zone,https://www.goodyear.co.in/store/jai-shree-tyre-zone
Good Year,,"
								  indoradialclub@yahoo.com								  ","No 9/2, Asutosh Mukherjee Road, Opp Merlin Homeland",0,,03371645740,,,INDO RADIAL CLUB,https://www.goodyear.co.in/store/indo-radial-club
Good Year,,,"SHOP NO 1, HIMANSHU PAPRTMENTNEAR TVS SHOWROOM SECTOR A INDRAPURI BHOPAL",0,,75810 00012,,,JAI AMBE AUTO PARTS,https://www.goodyear.co.in/store/jai-ambe-auto-parts
Good Year,,"
								  bansalr888@gmail.com								  ",B-4A NEW MULTAN NAGAR NEWDELHI-,0,,01171568674,,,JAGUAR TYRES,https://www.goodyear.co.in/store/jaguar-tyres
Good Year,,,"NH-66, KINNIMULKY, UDUPI, MANGALORE, KARNATAKA - 576101",0,,9448352405,,,JAE’S WHEEL MASTERS,https://www.goodyear.co.in/store/jaes-wheel-masters
Good Year,,,"LANE NO. 5 , MAIN ROAD, GREATER KAILISH",0,,8715000006,,,J.S. WHEELS,https://www.goodyear.co.in/store/j-s-wheels
Good Year,,,"Gorakhpur Road, Deoria, Uttar Pradesh",0,,9415266726,,,J P TYRES & AUTOMOBILE,https://www.goodyear.co.in/store/j-p-tyres-automobile
Good Year,,"
								  ashishshah0811@yahoo.in								  ","A-6, SUNBEAM COMPLEX, NEAR JALARAM MANDIR CROSSING, OPP VISHAL MEGA MART, ELLISBRIDGE",0,,07971845373,,,JUPITOR TYRES,https://www.goodyear.co.in/store/jupitor-tyres
Good Year,,"
								  funnykataria@gmail.com								  ",T.P.S .KATRIA new Talwandi Road Zira (punjab)-,0,,9592700651,,,KATARIA ALLOY & TYRE HOUSE,https://www.goodyear.co.in/store/kataria-alloy-tyre-house
Good Year,,"
								  adnankhan.mahgama.ak@gmail.com								  ","Opp Reliance Petrol Pump Old Mumbai Pune Highway Tal Khalapur Dist Raigad, Maharashtra",0,,9819543548,,,Kasturi Tyres,https://www.goodyear.co.in/store/kasturi-tyres
Good Year,,"
								  ankurkariwal@gmail.com								  ","Kariwal Tyres and Accessories,Opposite Surya Vihar, Pachpedi Naka Chowk,Tagore Nagar Road, Raipur ,Chhattisgarh",0,,8819000030,,,KARIWAL TYRE,https://www.goodyear.co.in/store/kariwal-tyre
Good Year,,,"Block B, Shop No  94, Central Auto Market, Near Mahindra First Choice",0,,01171568627,,,Kar Stylo Essential,https://www.goodyear.co.in/store/kar-stylo-essential
Good Year,,"
								  sodhi.ranbirsingh@gmail.com								  ",HEK Compound opp. Indian Bank Mahakali Caves Road Andheri ( East ) Mumbai -  Mumbai Maharashtra,0,,9004818808,,,Kampala Enterprises,https://www.goodyear.co.in/store/kampala-enterprises
Good Year,,"
								  jijikanicheril@gmail.com								  ",Nedumpalli Building Madukoly Junction Mallapally Pattanamthitta District Kerala-,0,,9447026925,,,Kanicheril Tyres,https://www.goodyear.co.in/store/kanicheril-tyres
Good Year,,"
								  kailashtyres2010@gmail.com								  ","SHOP NO-75, KOTWALI ROAD,SRI GANGA NAGAR, RAJASTHAN- 335001",0,,9461109200,,,Kailash Tyre Agency,https://www.goodyear.co.in/store/kailash-tyre-agency
Good Year,,"
								  kojtyre@gmail.com								  ","Ward No-4, JD Road, Kokrajhar",0,,8472015860,,,Kokrajhar Tyre Centre,https://www.goodyear.co.in/store/kokrajhar-tyre-centre
Good Year,,"
								  kirantyre004@gmail.com								  ",BH Road Kodi camp Tarikere Karnataka-,0,,9483673826,,,Kiran Tyres and Wheel Alignment,https://www.goodyear.co.in/store/kiran-tyres-and-wheel-alignment
Good Year,,"
								  kiranratanchandtyres@gmail.com								  ",Shop no-1 Sudarshan Chambers Opp Shivaji Statue Market Yard Pune - 411002 Pune Maharashtra,0,,02071970105,,,Kiran Ratan chand,https://www.goodyear.co.in/store/kiran-ratan-chand
Good Year,,"
								  naseem1786.nkk@gmail.com								  ","W-5A, OPP KALKA JI BUS DEPOT, GOVIND PURI, KALKA JI, NEW DELHI - 110019",0,,01161495535,,,KHAN TYRE TUBE & BATTERIES,https://www.goodyear.co.in/store/khan-tyre-tube-batteries
Good Year,,"
								  kushaldeeprakhi@gmail.com								  ","202/4A S.P. MUKHERJEE ROAD,",0,,03371645743,,,KHALSA TYRE CENTRE,https://www.goodyear.co.in/store/khalsa-tyre
Good Year,,,"DUDHE CORNER, SHOP NO. 9, PLOT NO. 39, SECTOR-6A, KAMOTHE, NAVI MUMBAI, MAHARASHTRA-410209",0,,#N/A,,,KGN Motors,https://www.goodyear.co.in/store/kgn-motors
Good Year,,"
								  kejriwal02@yahoo.com								  ",J-13/93 COTTON MILL COMPOUND OLD GT ROAD CHOWKAGHAT VARANASI,0,,9935376665,,,KEJRIWAL TYRES,https://www.goodyear.co.in/store/kejriwal-tyres
Good Year,,"
								  KEJRIWAL01@yahoo.com								  ",SHOP NO-14&15 IMLAC COLONY NADESAR VARANASI,0,,9935376665,,,KEJRIWAL TRADERS,https://www.goodyear.co.in/store/kejriwal-traders
Good Year,,"
								  lonkartyres@gmail.com								  ",S.No-16/A1/1 Opp. Sarvodaya Society KONDHAWA KD NIBM RD. Pune Maharashtra,0,,9822857170,,,Lonkar Tyres,https://www.goodyear.co.in/store/lonkar-tyres
Good Year,,,"SHOP NO-3, 474 SADASHIV PETH TILAKRD, OPP NEW ENGLISH SCHOOL, PUNE, MAHARASHTRA- 411030",0,,02071970104,,,LOKMANYA AUTO CENTRE,https://www.goodyear.co.in/store/lokmanya-auto-centre
Good Year,,,"35, Saraswati Marg, Outside Surajpole, Near Champalal Dharmshala, Udaipur",0,,9829042639,,,LEELA SERVICE,https://www.goodyear.co.in/store/leela-service
Good Year,,,"54 SANTNAGAR, SANWER ROAD UJJAIN",0,,7000249940,,,Lakshya Tyres,https://www.goodyear.co.in/store/lakshya-tyres
Good Year,,"
								  vasstu.kkumawat@gmail.com								  ","NEAR MANDI TIRAHA BYPASS ROAD, BUNDI",0,,8058600077,,,KUMAWAT TYRES,https://www.goodyear.co.in/store/kumawat-tyres-2
Good Year,,"
								  gopalasiwal715@gmail.com								  ","62-65, Jamna Colony, Teen Dukan, Sikar Road, Jaipur -23,",0,,8209222162,,,KUMAWAT TYRES,https://www.goodyear.co.in/store/kumawat-tyres
Good Year,,"
								  ksrtyres@gmail.com								  ",NO:168 A/565 Kannapaan Complex East Tambaram Velacherry Main Road Chennai Tamilnadu,0,,9962022125,,,KSR Tyres,https://www.goodyear.co.in/store/ksr-tyres
Good Year,,,"B-21, PALIKA BHAWNA, OPP. HYATT REGENCY BEHIND CORREE HOUSE, NEW DELHI-110066",0,,9213109083,,,KRISHNA TYRE HOUSE,https://www.goodyear.co.in/store/krishna-tyre-house
Good Year,,,"Shimla Bye Pass Mazra Dehrdun., Uttarakhand",0,,9760819760,,,Malik tyres,https://www.goodyear.co.in/store/malik-tyres
Good Year,,"
								  OMSHUKLA45@GMAIL.COM								  ","Shop No 2, Ram Kripal Tiwari Chawl, New Nagardas Road, Andheri East, Mumbai - 400069",0,,9820988875,,,Mateshwari battery service,https://www.goodyear.co.in/store/mateshwari-battery-service
Good Year,,,"SAI NAGRAJ ARCED,NH 206",0,,9448759356,,,Maruthi Wheel World (Koushik Automobiles),https://www.goodyear.co.in/store/maruthi-wheel-world-koushik-automobiles
Good Year,,,"Shop no.8, Krisna Greenland park, near mahindra Showroom ,, Kasarwadavali, GB road, Thane, Thane",0,,9323359094,,,Manoj tyres,https://www.goodyear.co.in/store/manoj-tyres
Good Year,,"
								  manchandatyres@gmail.com								  ",Hariom Manchanda Ranipur More Haridwar. UK.,0,,9897105522,,,Manchanda Tyres,https://www.goodyear.co.in/store/manchanda-tyres
Good Year,,"
								  malanadautotreat@gmail.com								  ",NO:17/S 17 th Cross 3 rd Sector HSR Layout Bangalore Karnataka,0,,9036122722,,,Malnad Tyre Treats,https://www.goodyear.co.in/store/malnad-tyre-treats
Good Year,,,Maruthi Service Station 1 st Cross Industrial Area Sagar Shimoga District Karnataka-,0,,"08183-229405,220905",,,Mallika Auto Care,https://www.goodyear.co.in/store/mallika-auto-care
Good Year,,"
								  madhuprasanthpk@gmail.com								  ","Wyanad Road Eranjpalyam junction Calicut, Kerala",0,,9387221104,,,MALABAR TYRES & SERVICES,https://www.goodyear.co.in/store/malabar-tyres-services
Good Year,,"
								  mukkamtyresclt@yahoo.co.in								  ","NANDILATH G-MART BLG CHOVVA KANNUR KANNUR, Kerala",0,,9400306947,,,Mukkam Tyres,https://www.goodyear.co.in/store/mukkam-tyres
Good Year,,"
								  mukkamtyresclt@yahoo.co.in								  ","GR FLOOR, 13/278D, KANHANGAD SOUTH, KAHANGAD, KASARAGOD, KERALA -671315",0,,,,,Mukkam Tyres,https://www.goodyear.co.in/store/mukkam-tyres-3
Good Year,,"
								  motor.radioco@gmail.com								  ","Indrchand mansion, AT Road, Near ASTC bus stand, Tinsukia, Dist- Tinsukia, Assam, PIN- 786125",0,,9706131528,,,MOTOR & RADIO,https://www.goodyear.co.in/store/motor-radio
Good Year,,"
								  mitrukatyres2010@gmail.com								  ","NEAR RAILWAY STATION, TIBBI ROAD, HANUMANGRAH TOWN, HANUMANGRAH",0,,9414094144,,,Mitruka Tyres,https://www.goodyear.co.in/store/mitruka-tyres
Good Year,,,"NO-46, KRUMBIGAL ROAD, NEAR LALBAGH MAIN GATE, DODDAMAVALLI, BANGALORE, KARNATAKA- 560004",0,,08047486516,,,MILLIVISIONS MARKETING PRIVATE LIMITED,https://www.goodyear.co.in/store/milli-vision-marketing-private-limited
Good Year,,"
								  patelyamal9090@gmail.com								  ",NEAR AKOTA GARDEN,0,,7984222261,,,MULTI WHEELS  ,https://www.goodyear.co.in/store/multi-wheels
Good Year,,"
								  kenmgtm@gmail.com								  ","AIRPORT ROAD, NEAR FCI, IMPHAL WEST",0,,8974121234,,,MI TRADERS,https://www.goodyear.co.in/store/mi-traders
Good Year,,"
								  metrotyrespune@gmail.com								  ","Laxmi Terraceses Appartments, Near Corporation Bank, Karve Nagar, Pune",0,,02071970108,,,Metro Tyres,https://www.goodyear.co.in/store/metro-tyres
Good Year,,,"JOSEPH MEMORIAL KALLINGAL COMPLEX, RAILWAY STATION ROAD, OPP S.H. COLLEGE, CHALAKUDY, THRISSUR, KERALA- 680307",0,,9446453355,,,NEW Q-MAX TYRES,https://www.goodyear.co.in/store/new-q-max-tyres
Good Year,,"
								  gautamgsn@yahoo.com								  ","S.C.O. -31, SECTOR-21-C, CHANDIGARH - 160022",0,,9814043438,,,NEW METRO MOTORS,https://www.goodyear.co.in/store/new-metro-motors
Good Year,,,Near powai Police Station Rambaug Powai Mumbai,0,,022-25701244 / 022-32236411,,,New KGN Tyres,https://www.goodyear.co.in/store/new-kgn-tyres
Good Year,,,"OPP TRUCK UNION IMPROVEMENT TRUST OFFICE SUNAM ROAD SANGRUR, Punjab",0,,9855187728,,,New Hotla Tyres,https://www.goodyear.co.in/store/new-hotla-tyres
Good Year,,"
								  deepak_tyre@gmail.com								  ",Station Road Puranpur Distt: Pilibhit,0,,9536128445,,,New Gupta Tyres,https://www.goodyear.co.in/store/new-gupta-tyres
Good Year,,,"N.H. ROAD,KOCHUVILA,ALAMCODE,TRIVANDRUM.",0,,9388264876,,,New Bombay Tyres,https://www.goodyear.co.in/store/new-bombay-tyres
Good Year,,,Aroor Vyttila Bypass Near Lakeshore Hospital Madavana Signal Junction cochin Kerala,0,,9847045399,,,"New Bharath Tyres Pvt Ltd, Kochin",https://www.goodyear.co.in/store/new-bharath-tyres-pvt-ltd-kochin
Good Year,,,Beach Road Kollam Kerala,0,,9847072729,,,New Bharath Tyres Kollam,https://www.goodyear.co.in/store/new-bharath-tyres-kollam
Good Year,,,"ARYA ESTATE, NEAR KAPURBAWDI BIG BAZAAR, NEXT TO VEE CARE HOSPITAL, OLD AGRA ROAD, BALKUM, THANE- WEST, MAHARASHTRA- 400608",0,,9619404075,,,PREMJI MOTORS PRIVATE LIMITED,https://www.goodyear.co.in/store/premji-motors-private-limited
Good Year,,"
								  sam.rendra96@gmail.com								  ","125/4,Juhi Lal Colony, Kanpur-208014",0,,9838878485,,,PREMIER TRADERS,https://www.goodyear.co.in/store/premier-traders
Good Year,,"
								  nareshfzr@gmail.com								  ",Shaheed Udham Singh Chowk Ferozepur City-,0,,9417243674,,,PRATIK  ENTERPRISES/ dabbu radiatior,https://www.goodyear.co.in/store/pratik-enterprises-dabbu-radiatior
Good Year,,"
								  jaspalsingh@yahoo.com								  ",Shastri Market Jalandhar Punjab-,0,,9815167675,,,PRABHAT TYRE CENTRE,https://www.goodyear.co.in/store/prabhat-tyre-centre
Good Year,,"
								  populartradersbangalore@gmail.com								  ","Shop No.17, H Siddaiah Road (Opp to City Union Bank)",0,,08047486517,,,POPULAR TRADERS,https://www.goodyear.co.in/store/popular-traders
Good Year,,,"OPP BISHOP HOUSE, KOZHENCHERRY ROAD, PATHANAMTHITTA, KERALA",0,,9447278121/9447571090,,,PERFECT WHEELS,https://www.goodyear.co.in/store/perfect-wheels
Good Year,,,"SHOP NO-32/33, KDMC SPORTS COMPLEX, NEAR GARADA CIRCLE, KALYAN ROAD, DOMBIVLI- E, THANE, MAHARASHTRA- 421201",0,,9323896040,,,PERFECT TYRES AND CAR DÉCOR,https://www.goodyear.co.in/store/perfect-tyres-and-car-decor
Good Year,,,"WZ-14, Plot No. 9, Bhagwan Das Nagar Extension, Opp Metro Pillar 59, Near Ashok Park Metro Station, New Delhi, 110026",0,,01171568591,,,PDG Tyres India Pvt Ltd,https://www.goodyear.co.in/store/pdg-tyres-india-pvt-ltd
Good Year,,"
								  rbdkorba@gmailcom								  ","stadium road,transport nagar,Korba",0,,9827174824,,,R B TRADERS,https://www.goodyear.co.in/store/r-b-traders
Good Year,,"
								  mofidul.1990@gmail.com								  ","E-sector, Itanar, Near Secretariat, Dist-Papum Pare, Arunachal Pradesh, PIN-791111",0,,9436050681,,,QURBAN TYRES,https://www.goodyear.co.in/store/qurban-tyres
Good Year,,"
								  gilbilesachine@gmail.com								  ","NEAR SINNER COLLEGE SINNER DIST-NASHIK , Maharashtra",0,,9049041999,,,Purwa Tyres,https://www.goodyear.co.in/store/purwa-tyres
Good Year,,"
								  jappreetsingh65@gmail.com								  ",Heera Bagh Rajpura Road Patiala Punjab-,0,,9815556965,,,Punjab Tyres,https://www.goodyear.co.in/store/punjab-tyres-2
Good Year,,"
								  lucky_pts@yahoo.co.in								  ",Shop no- 20 Sector -17 Arenja Corner Vashi Mumbai Maharashtra,0,,02071969265,,,Punjab Tyre Sole,https://www.goodyear.co.in/store/punjab-tyre-sole-vashi
Good Year,,"
								  prakashjain.ranchi@gmail.com								  ","Opposite CM hpuse,Kanke road,Ranchi",0,,9431115577,,,PROGRESSIVE ENTERPRISES,https://www.goodyear.co.in/store/progressive-enterprises
Good Year,,,"CTS NO - 270/2, 271/272, SHIVAJI NAGAR, PUNE, MAHARASHTRA- 411005",0,,,,,PUNGALIYA TYRES,https://www.goodyear.co.in/store/pungaliya-tyres
Good Year,,"
								  princewheelcare@yahoo.com								  ","G F 18, SATYAMEV 2, OPP GUJRAT HIGH COURT, GHATLODIA",0,,9824265757,,,PRINCE TYRES,https://www.goodyear.co.in/store/prince-tyres
Good Year,,"
								  alireliabletyres@yahoo.co.in								  ",690 Adarsh Nagar New Link Road Oshiwara Mumbai Maharashtra,0,,02071969227,,,Reliable Tyres,https://www.goodyear.co.in/store/reliable-tyres
Good Year,,,Shop.No.18 fl Gomes Road Tilak Complex Vasco-Goa,0,,9823536463,,,Rehan tyre,https://www.goodyear.co.in/store/rehan-tyre
Good Year,,"
								  realtyre.bharuch@hotmail.co.uk								  ","20 BRIDGE VIEW COMPLEX,NEAR MADHULI HOTE, OPP. FAITH CALVERY SCHOOL, NANDEWAR OVER BRIDGE, NANDEWAR",0,,9824120777,,,REAL TYRE CARE,https://www.goodyear.co.in/store/real-tyre-care
Good Year,,"
								  rakeshrawatnt@gmail.com								  ",B. Puram road Baurari New Tehri Tehri Garhwal (uttarakhand)-,0,,9412997380,,,Rawat Motors,https://www.goodyear.co.in/store/rawat-motors
Good Year,,"
								  ashwani_hashia07@yahoo.com								  ","43, Building No. 85/86, Happy Home Estate, Poonam Sagar Complex, Mira Road East, Thane",0,,02071967793,,,Rapid & Fast Enterprises,https://www.goodyear.co.in/store/rapid-fast-enterprises
Good Year,,,"SUNDAR ARCADE, NEXT TO VITTHAL MANDIR, NAGAR ROAD, PANDHARPUR, WALUJ MIDC, AURANGABAD, MAHARASHTRA- 431136",0,,0240- 2555910,,,RAJENDRA TYRE SERVICES,https://www.goodyear.co.in/store/rajendra-tyre-services
Good Year,,,"OPP TO MAZAAR, NEAR SBI SME BRANCH, BHAGWANGANJ, SAGAR, MADHYA PRADESH- 480002",0,,9329164830,,,RAI TYRES,https://www.goodyear.co.in/store/rai-tyres
Good Year,,"
								  nitish6070@yahoo.com								  ","Near New bus stand,Naya bazar,Buxar",0,,7870707079,,,RAHUL AUTOMATIC CENTRE,https://www.goodyear.co.in/store/rahul-automatic-centre
Good Year,,"
								  safewheels.batteries@gmail.com								  ","SHOP NO- 321/2, OPP POWER HOUSE, M.G. ROAD, NEAR GURUGRAM BUS STAND, GURUGRAM, HARYANA- 122001",0,,01171568601,,,SAFE WHEELS AND BATTERIES,https://www.goodyear.co.in/store/safe-wheels-and-batteries
Good Year,,,"Shop No.2, Sukriti Co-Operative Housing Society, Samata Nagar No. 2, Opposite J.K. Gram, Kusumagraj Marg, Samata Nagar, Thane West,",0,,9821671040,,,SABARI TYRES,https://www.goodyear.co.in/store/sabari-tyres
Good Year,,"
								  lovelykhan@gmail.com								  ","ECR JUNCTION,PATTINAM KATHAN,RAMANATHAPURAM",0,,8778334247,,,SA AUTOMOBILE CLINIC,https://www.goodyear.co.in/store/sa-automobile-clinic
Good Year,,,"NEAR VP MAGNUS HOSPITAL, BINNAMANGALA, NELAMANGALA, BANGALORE RURAL, KARNATAKA- 562123",0,,,,,S.M. ENTERPRISES,https://www.goodyear.co.in/store/s-m-enterprises
Good Year,,"
								  skandsons@rediffmail.com								  ","Rajpura Chauraha, opp.Reliance Petrol Pump, Bhadohi",0,,9919091544,,,S.K.& SONS,https://www.goodyear.co.in/store/s-k-sons
Good Year,,,"NH-11, JAIPUR ROAD, DAUSA, RAJASTHAN- 303303",0,,9828602796/9057238231,,,S.K. SHAFIK TYRE HOUSE,https://www.goodyear.co.in/store/s-k-shafik-tyre-house
Good Year,,"
								  sanjaysibsagar@gmail.com								  ","AT Road, Near ASTC bus stand, Sivasagar, State- Assam, PIN- 785640",0,,9435055618,,,S. S. TRADING,https://www.goodyear.co.in/store/s-s-trading
Good Year,,"
								  ramesh.gubale@gmail.com								  ","281/1/2,Vithal Nagar Pune Solapur Road Hadapsar Pune",0,,02071970106,,,S. R. Tyres,https://www.goodyear.co.in/store/s-r-tyres
Good Year,,,"GR FLOOR, SHOP NO-15, CNX BUILDING KALHER, BHIWANDI ROAD, RAJ LAXMI COMMERCIAL COMPLEX, VASAI, THANE, MAHARASHTRA",0,,0,,,SANSIYO TYRES IMPEX,https://www.goodyear.co.in/store/sansiyo-tyres-impex
Good Year,,"
								  nitin.patel@spctyre.com								  ","NO.12 ABHISHREE BUILDING, OPP. STAR BAZAR, SATTELITE",0,,9227227850,,,SHAH PATEL & CO ( SATELLITE )-BRO,https://www.goodyear.co.in/store/shah-patel-co-satellite-bro
Good Year,,"
								  sethimotorworks@gmail.com								  ","Bhawani ganj Ramnagar, Uttarakhand",0,,05947-251468,,,Sethi Tyre House,https://www.goodyear.co.in/store/sethi-tyre-house
Good Year,,"
								  info@seniortyres.com								  ","E-24/G, M.I.A. IInd PHASE BASNI, JODHPUR",0,,9413025000 / 9950434444,,,Senior Tyres,https://www.goodyear.co.in/store/senior-tyres
Good Year,,"
								  securesecure.in@gmail.com								  ",No:C-81/7 Shastri Road Thillai Nagar Trichy-,0,,9976380009,,,Secure Auto,https://www.goodyear.co.in/store/secure-auto
Good Year,,,"RZ C104, MAHAVIR VIHAR, SECTOR 1, DWARKA, NEW DELHI-110045",0,,#N/A,,,Satkartar Tyres,https://www.goodyear.co.in/store/satkartar-tyres
Good Year,,,"96, KARAN GALI MAIN 60FT ROAD, VISHWAS NAGAR, SHAHDARA, EAST DELHI-110032",0,,,,,Santosh Tyres,https://www.goodyear.co.in/store/santosh-tyres
Good Year,,"
								  sanjibdasbpt301@gmail.com								  ","R.J.P. ROAD, PARADA BAZAR, , ",0,,9435025183,,,SANJIB ENTERPRISES,https://www.goodyear.co.in/store/sanjib-enterprises
Good Year,,"
								  shivmotors2006@gmail.com								  ","GT NAGAR, AAI MATA ROAD",0,,9998705692,,,SHIV MOTORS,https://www.goodyear.co.in/store/shiv-motors
Good Year,,"
								  pradyumnagrawal97@gmail.com								  ","Duddhi Nagar,Rajendra nagar,nawada,Arrah",0,,9431070077/9304150577,,,SHEO NARAIAN LAL & CO,https://www.goodyear.co.in/store/sheo-naraian-lal-co
Good Year,,"
								  varindersharma1991@gmail.com								  ","Patiala Road, Bhawanigarh, Punjab",0,,9814531791,,,SHARMA TYRE HOUSE,https://www.goodyear.co.in/store/sharma-tyre-house
Good Year,,"
								  Ashishsethi72@Yahoo.Com								  ",Shop No. 1 B-34 Lajpat Nagar -1 New Delhi Delhi,0,,01171568672,,,Sham Tyre centre,https://www.goodyear.co.in/store/sham-tyres
Good Year,,"
								  navdeepranaspr@gmail.com								  ",54 Ambala Road Saharanpur,0,,9897080638,,,SHAKTI TYRES,https://www.goodyear.co.in/store/shakti-tyres-2
Good Year,,"
								  shivwheelcare@gmail.com								  ","OLD BTE PASS ROAD, SUMERPUR DIST. PALI ",0,,9828370132,,,SHIV WHEEL CARE,https://www.goodyear.co.in/store/shiv-wheel-care
Good Year,,"
								  amrutbhaipatel1445@gmail.com								  ","10-11, YOGESHWAR COMPLEX, NEAR-OLD PAL JAKAT NAKA, HAZIRA ROAD, ADAJAN",0,,9998220668 / 6353234930,,,SHAKTI TYRES,https://www.goodyear.co.in/store/shakti-tyres
Good Year,,"
								  shaktityreresole@gmail.com								  ",129 Tikona Park NIT Faridabad Haryana-,0,,9810219118,,,SHAKTI TYRE RESOLE,https://www.goodyear.co.in/store/shakti-tyre-resole
Good Year,,"
								  sindhauto@yahoo.com								  ","Bus Stand Katni, Madhya Pradesh, 483501",0,,9827226984/9300009001,,,Sindh Tyre,https://www.goodyear.co.in/store/sindh-tyre
Good Year,,,"KANNANKARA ESTATE, POOLANTHARA, SANTHGIRI P.O., TRIVANDRUM.",0,,9496814929,,,SIM ENTER PRISES,https://www.goodyear.co.in/store/sim-enter-prises
Good Year,,,"52-A, RAJPUR ROAD, DILARAM BAZAR, DEHRADUN, UTTARAKHAND- 248001",0,,0135-2741831,,,SILVERLINE AUTOMOBILES,https://www.goodyear.co.in/store/silverline-automobiles
Good Year,,"
								  raunak187@gmail.com								  ","Prakash Tower, Medical College Road, Khajanchi Chauraha, Gorakhpur,Uttar Pradesh",0,,7905135609,,,SHYAM TYRE HOUSE,https://www.goodyear.co.in/store/shyam-tyre-house
Good Year,,"
								  shyamgokul@gmail.com								  ","SARASWATI BUILDING, NEAR AS MOTOR, SALATWADA",0,,9825144137,,,SHYAM GOKUL,https://www.goodyear.co.in/store/shyam-gokul
Good Year,,"
								  patil87vinayak@gmail.com								  ",PETH SANGLI ROAD NEAR HP GAS A/P- ISLAMPUR,0,,8999861199,,,Shriram Tyres Sales & Service,https://www.goodyear.co.in/store/shriram-tyres-sales-service
Good Year,,"
								  srisaitraders.gorakhpur@gmail.com								  ","Hariom Nagar, Gorakhpur, Uttar Pradesh",0,,9628145525,,,SHRI SAI TRADERS,https://www.goodyear.co.in/store/shri-sai-traders
Good Year,,"
								  shrisaidistributor2015@gmail.com								  ","Bilandpur Near Paidleyganj Chauraha,Gorakhpur,Uttar Pradesh",0,,9918099967,,,SHRI SAI DISTRIBUTOR,https://www.goodyear.co.in/store/shri-sai-distributor
Good Year,,,"4140/A, SREE VENKATESWARA CENTRE, BASEMENT FLOOR, GANDHI BAZAAR CIRCLE, B.M. ROAD, HASSAN, KARNATAKA- 573201",0,,01872-268808,,,SREE VENKATESWARA SALES AND SERVICES (MARKETING),https://www.goodyear.co.in/store/sree-venkateswara-sales-and-services-marketing
Good Year,,"
								  spotwheelskasaragod@gmail.com								  ",Opposite APCO Showrooms M.P.Complex Indira Nagar Cherkala Kasaragod Kerala,0,,9995648549/8714494187/9496068539,,,Spot Wheel,https://www.goodyear.co.in/store/spot-wheel
Good Year,,"
								  spectrumtyres@gmail.com								  ",NO:32/1956 A Opposite Oberon Mall.Palarivottom Edapally Kochi Kerala,0,,9847034467,,,SPECTRUM TYRES AND SERVICES,https://www.goodyear.co.in/store/spectrum-tyres-and-services
Good Year,,"
								  southdelhityres@gmail.com								  ","PLOT NO- 204/2, AYA NAGAR, M.G. ROAD, BELOW ARJAN GARH METRO STATION, NEW DELHI- 110085",0,,01171568683,,,SOUTH DELHI TYRES,https://www.goodyear.co.in/store/south-delhi-tyres
Good Year,,"
								  sonatyres@gmail.com								  ",4/5/6 Datar Apartment Near Kannamwar Bridge Mumbai-Agra Highway Dwarka Nashik Nashik Maharashtra,0,,0253-2508501 2593625,,,Sona Tyres,https://www.goodyear.co.in/store/sona-tyres
Good Year,,"
								  somanir08@yahoo.com								  ","6, Townhall Road, Townhall, Udaipur ",0,,8003711766,,,SOMANI SALES,https://www.goodyear.co.in/store/somani-sales
Good Year,,,"10/40M,N,P, KP ROADTHURUTHIYIL Jn.,KARIMULACKAL, ALAPPUZHA,KERALA",0,,9746788927,,,SMART WHEELS,https://www.goodyear.co.in/store/smart-wheels
Good Year,,,"AGRIKALAN, NEAR GULMARG FILLING STATION, MAGAM, BUDGAM, JAMMU& KASHMIR- 193401",0,,9469410678,,,SKY TYRE EMPORIUM,https://www.goodyear.co.in/store/sky-tyre-emporium
Good Year,,"
								  philipvarghese333@hotmail.com								  ",Dev MILAN L.B.S MARG OPP. RAHEJA GARDENS THANE (W) MUMBAI -. THANE (W) MUMBAI Maharashtra,0,,9821552231,,,SUPREME TYRE & ACCESSORIES,https://www.goodyear.co.in/store/supreme-tyre-accessories
Good Year,,,"A.H. Building, Calicut Road, Varangode Down Hill, Malappuram- 676519",0,,9447644552,,,Super Agencies,https://www.goodyear.co.in/store/super-agencies
Good Year,,"
								  sunnytyrehouse@gmail.com								  ",B-110 SECTOR-64 NOIDA,0,,01171568598,,,Sunny Motors,https://www.goodyear.co.in/store/sunny-motors
Good Year,,,"THULASI COMPLEX, OPP DAYA PETROL PUMP, MELOOR P.O, NH KYILANDY, CALICUT, KERALA- 673306",0,,9846138421,,,SUNNDEEP TYRES,https://www.goodyear.co.in/store/sunndeep-tyres
Good Year,,"
								  lilatyreco@gmail.com								  ","NEAR BARKTULLAH KHAN SHOP NO.11, BABU RAJENDER MARG, PAL ROAD JODHPUR",0,,7222092220/7597320132,,,Suncity distributors,https://www.goodyear.co.in/store/suncity-distributors
Good Year,,,"Shop No. 1 & 2, Payas Apartment, Near KBT Engineering collage, Gangapur Road, Nashik",0,,9881301848,,,SUDARSHAN TYRES,https://www.goodyear.co.in/store/sudarshan-tyres
Good Year,,"
								  pavideepsingh2013@gmail.com								  ","Super market,Opposite Bishop school,Ranchi",0,,9113464046,,,SUKHMANI TYRES,https://www.goodyear.co.in/store/sukhmani-tyres
Good Year,,"
								  deepak50374@gmail.com								  ","Subhash Enterprises,Dhimrapur Chouk, Near Hotel Accord, Raigarh ,Chhattisgarh",0,,9300412178,,,SUBHASH ENTERPRISES,https://www.goodyear.co.in/store/subhash-enterprises
Good Year,,"
								  naseemkhan0931@gmail.com								  ",PILIKOTHI NEAR CORORATION BANK MIRZAPUR,0,,9919151131,,,THE TYRE SHOPEE,https://www.goodyear.co.in/store/the-tyre-shopee
Good Year,,,"2/2, ARS MANSION, NEW MICO ROAD, ADUGODI, BENGALORE, KARNATAKA- 560030",0,,9449556214,,,THE TYRE POINT,https://www.goodyear.co.in/store/the-tyre-point
Good Year,,,"Plot No 58, Kavuri Hills, HI Tech City, Near Ratnadeep Shopping Complex",0,,04071327402,,,The Stunnerz,https://www.goodyear.co.in/store/the-stunnerz
Good Year,,"
								  thakuriaautowheels@gmail.com								  ","KHANAMULKH, JALUKBARI, AIRPORT ROAD, GUWAHATI, KAMRUP",0,,9864174137,,,THAKURIA AUTO WHEELS,https://www.goodyear.co.in/store/thakuria-auto-wheels
Good Year,,"
								  tejtyreco@gmail.com								  ",Opp. Preet Cinema Link Road Ludhiana Punjab,0,,9653244444/9915300052,,,Tej Tyre Co,https://www.goodyear.co.in/store/tej-tyre-co
Good Year,,"
								  tauqeersarwar3@gmail.com								  ","Near bantwo Masjid, Taun Bantwo,Ward no-14, North lakhimpur,Assam-787031",0,,9954371847,,,T.S. TYRE SERVICE,https://www.goodyear.co.in/store/t-s-tyre-service
Good Year,,"
								  sushiltyres2009@gmail.com								  ","PLOT NO- 36, TRANSPORT NAGAR, JODHPUR, RAJASTHAN- 342005",0,,9950559740,,,SUSHIL TYRES,https://www.goodyear.co.in/store/sushil-tyres
Good Year,,"
								  tyresurjeet@gmail.com								  ","Shop No 447, Opp Taxi Stand, Jheel Chowk",0,,01171568671,,,Surjeet Tyre Retreading,https://www.goodyear.co.in/store/surjeet-tyre-retreading
Good Year,,"
								  rohitjainnoida@gmail.com								  ","SHOP NO-1, AUTO MARKET, SECTOR- 93, GHEZA, NOIDA, GAUTAM BUDHA NAGAR, UTTAR PRADESH- 201303",0,,9910003770,,,TYRE SHOPPE INDIA PVT LTD,https://www.goodyear.co.in/store/tyre-shoppe-india-pvt-ltd
Good Year,,"
								  tyreplus.faridabad@gmail.com								  ","5R5/6, NIT, Faridabad, Behind Saluja Petrol Pump, Faridabad",0,,01171568625,,,TYRE PLAZA,https://www.goodyear.co.in/store/tyre-plaza
Good Year,,"
								  daljeettony@gmail.com								  ","3/539, Vivek Khand 3, Gomti Nagar, Lucknow, Uttar Pradesh 226010",0,,01171568621,,,TYRE ON WHEELS,https://www.goodyear.co.in/store/tyre-on-wheels
Good Year,,"
								  tyreking34@gmail.com								  ","Shop No 34, Jagannnath Market, Mathura Road",0,,01161495536,,,TYRE KING,https://www.goodyear.co.in/store/tyre-king
Good Year,,"
								  tyrehub786@gmail.com								  ","Tilak Maidan road,Muzaffarpur",0,,9431461971,,,TYRE HUB,https://www.goodyear.co.in/store/tyre-hub
Good Year,,"
								  dileep.agarwal12@gmail.com								  ",MAIN ROAD ROUZA GHAZIPUR,0,,9415280867/8808888484,,,TYRE HOUSE,https://www.goodyear.co.in/store/tyre-house-2
Good Year,,"
								  tyrehousebahraich@gmail.com								  ","Mahsi Bus Stand, Near Tikonibagh Police Chowki, Lucknow Road, Bahraich, Uttar Pradesh 271801",0,,9918540888,,,TYRE HOUSE,https://www.goodyear.co.in/store/tyre-house
Good Year,,"
								  jjaiswal918@gmail.com								  ",CIVIL LINE NEAR SUDARSHAN DAS PETROL PUMP AZAMGARH,0,,9415271354,,,TYRE EMPORIUM,https://www.goodyear.co.in/store/tyre-emporium
Good Year,,,"Shappumpady Jn.,Muvattupuzha, Thodupuzha.",0,,9946062005,,,TYRE SURE,https://www.goodyear.co.in/store/tyre-sure
Good Year,,,"GROUND FLOOR, SHOP NO 1, K V N COMPLEX, 1 ST MAIN 1 ST BLOCK AKSHAYA NAGAR, RAMAMURTHY NAGAR, Bengaluru (Bangalore) Urban, Karnataka, 560016",0,,9632357728,,,TYRE WORLD( SHIVA SAI ENTERPRISES),https://www.goodyear.co.in/store/tyre-world-shiva-sai-enterprises
Good Year,,"
								  tyreworld@gmail.com								  ",II-A-42 Nehru Nagar Near Holy Child Chowk Vasant Road Ghaziabad (NCR),0,,01171568597,,,Tyre World Shopee,https://www.goodyear.co.in/store/tyre-world-shopee
Good Year,,"
								  mongia.prateek@gmail.com								  ",Infront of Hotel Sai Chhaya Inn Gahranala Rewa Road Satna Satna Madhyapradesh,0,,9425811638,,,Tyre World (Prateek Enterprises),https://www.goodyear.co.in/store/tyre-world-prateek-enterprises
Good Year,,"
								  tyre_world@rediffmail.com								  ",324/1 Napier Town Russal Chowk. Jabalpur Madhya Pradesh,0,,"0761-4040808, 9425151752",,,Tyre World,https://www.goodyear.co.in/store/tyre-world-2
Good Year,,"
								  tendulkartyresponda@gmail.com  ,  dashrath.repal@yahoo.com								  ",shop no S-2 & S-3 ground floor mayur plaza building karaswada mapusa bardez -Goa,0,,9822132757,,,Tyre World,https://www.goodyear.co.in/store/tyre-world
Good Year,,"
								  tyretuneupindore@gmail.com								  ",80 Mechanic Nagar Near Sayaji Hotel Indore. Indore Madhya Pradesh,0,,9826460600,,,Tyre Tune Up,https://www.goodyear.co.in/store/tyre-tune-up
Good Year,,,"NH-24, MILESTONE 10, GREEN BELT, INDIRAPURAM, GHAZIABAD, UTTAR PRADESH - 201011",0,,01161495532,,,TYRE STATION,https://www.goodyear.co.in/store/tyre-station
Good Year,,"
								  vishaltyrecentre@gmail.com								  ","NEAR PARSHURAM CHOWK, SIRSA, HARYANA- 125055",0,,9812009995,,,VISHAL TYRES CENTRE,https://www.goodyear.co.in/store/vishal-tyres-centre
Good Year,,,"N H 66, NADSAL, KANNANGAR BYPASS, PADUBIDRI",0,,9611475306,,,Wheel Centre,https://www.goodyear.co.in/store/wheel-centre
Good Year,,,"SHOP NO-1, DURANNI BLUILDING, ADDA BATAMALOO, SRINAGAR, J&K - 190009",0,,9419023005,,,WESTERN TYRE HOUSE,https://www.goodyear.co.in/store/western-tyre-house
Good Year,,,"80, INDRAPURI COLONY, INDORE, MADHYA PRADESH - 452001",0,,9893628800 / 0731-2529811,,,WASAVA TYRES,https://www.goodyear.co.in/store/wasava-tyres
Good Year,,"
								  waliaautostores@yahoo.in								  ",SCF: 23 SECTOR: 28C Chandigarh Chandigarh-,0,,01726768382,,,Walia Auto Stores,https://www.goodyear.co.in/store/walia-auto-stores
Good Year,,,kaalu puri chungi fly over road sonepat,0,,9050099775,,,A to Z tyres & Retraiding co.,https://www.goodyear.co.in/store/a-to-z-tyres-retraiding-co
Good Year,,"
								  wheelmartgurgaon@gmail.com								  ",Shop No. 1&2 Sector 17-18 Dividing Road opp. Pasco Body Shop Gurgaon Haryana,0,,01171568602,,,WHEEL MART,https://www.goodyear.co.in/store/wheel-mart
Good Year,,"
								  vikramtyresgoodyear@gmail.com								  ",10/840 Malviya Nagar Jaipur jaipur Rajasthan,0,,9829188008,,,Vikram Tyres,https://www.goodyear.co.in/store/vikram-tyres
Good Year,,,"SHOP NO 1, C9/35 SECTOR 8 ROHINI, NEW DELHI-110085",0,,01171568669,,,Vikas Enterprises,https://www.goodyear.co.in/store/vikas-enterprises
Good Year,,,"B-9, CENTRAL AUTO MARKET, SEC-16, NOIDA (U.P.)",0,,7840043333,,,A TO Z MOTORS,https://www.goodyear.co.in/store/a-to-z-motors
Good Year,,,Kilimanoor,0,,9447386828,,,A S Enterprises,https://www.goodyear.co.in/store/a-s-enterprises
Good Year,,,"Sector -2, Pocket -6, 308, DDA Flat Rohini",0,,9350381466 / 9810072521,,,A Plus Tyre Shopee,https://www.goodyear.co.in/store/a-plus-tyre-shopee
Good Year,,"
								  aptyre@gmail.com								  ","Tilaka manjhi chowk,Bhagalpur",0,,9334850313,,,A P TYRES,https://www.goodyear.co.in/store/a-p-tyres-2
Good Year,,"
								  lokesh1432@yahoo.com								  ",N0.168/J 18TH C MAIN ROAD 5TH BLOCK(NEAR VARIAR BAKERY)RAJAJINAGAR Bangalore Karnataka,0,,9481555720,,,6TH GEAR,https://www.goodyear.co.in/store/6th-gear
Good Year,,,"Near Court,Mavelikkara.",0,,,,,5th wheel,https://www.goodyear.co.in/store/5th-wheel
Good Year,,,"NEAR BSNL OFFICE, PLAVARA, PALODE, KERALA- 695562",0,,9447466600,,,360* WHEELS,https://www.goodyear.co.in/store/360-wheels
Good Year,,,"282,BMK Giri Nagar,opp-Kalkaji Bus Depot New Delhi",0,,9810016406,,,Aar Ess Tyre,https://www.goodyear.co.in/store/aar-ess-tyre
Good Year,,,"Truck Market, Shastri Nagar",0,,9646345700,,,Aar Cee Wheels,https://www.goodyear.co.in/store/aar-cee-wheels
Good Year,,"
								  mohdmainul420@gmail.com								  ","THANGAL BAZAR, KHOYATHONG ROAD, NEAR SHANI MANDIR, IMPHAL WEST",0,,9402087869,,,ABC TYRE SERVICE,https://www.goodyear.co.in/store/abc-tyre-service-2
Good Year,,,"Next to Hotel Yeshodeep, Jalna Road, Aurangabad- 431005",0,,9423149899  / 9421070809  / 0240-6629111,,,Abhay Tyre House,https://www.goodyear.co.in/store/abhay-tyre-house
Good Year,,,Gokul road akshay park hubli,0,,7353311014,,,ABB,https://www.goodyear.co.in/store/abb
Good Year,,,"MAIN ROAD, NEAR BUS STAND, MADANTHYAR, DAKASHINA KANNADA, KARANATAKA - 574224",0,,,,,ABARANA TYRES,https://www.goodyear.co.in/store/abarana-tyres
Good Year,,"
								  piyushviroja53@gmail.com								  ","12,AKAR COMPLEX, NR LEKEVIEW HOTAL, NAROL CHAR RASTA NAROL ",0,,9825192970,,,AASH SALES,https://www.goodyear.co.in/store/aash-sales
Good Year,,,Punjpeer Rajouri,0,,9419170298,,,Aar Kay Traders,https://www.goodyear.co.in/store/aar-kay-traders
Good Year,,"
								  aandaztyre@gmail.com								  ","Dhiraj Hertitage, B Wing, Shop No 11 And 12, Link Road Extension, Santacruz West, Mumbai - 400054, Daulat Nagar",0,,9920445511,,,Aandaz Tyres,https://www.goodyear.co.in/store/aandaz-tyres
Good Year,,,"Shop no.1 Nehru Stadium Mkt. Sohna Addo, Gurgaon",0,,9312282976,,,AHUJA TYRE HOUSE,https://www.goodyear.co.in/store/ahuja-tyre-house
Good Year,,,"kerali road, distict :-allahabad",0,,9984525653,,,Ahmed Tyre,https://www.goodyear.co.in/store/ahmed-tyre
Good Year,,,Jhansi road orai,0,,9453555113,,,AH Power system,https://www.goodyear.co.in/store/ah-power-system
Good Year,,,"21, PERIYAR PATHAI WEST CHOOLAIMEDU, CHENNAI-94",0,,9841234564,,,Agnes Batteries and Tyres,https://www.goodyear.co.in/store/agnes-batteries-and-tyres
Good Year,,,"Near Bus Stand, Dadri",0,,9991952004,,,AGGRAWAL TYRERS,https://www.goodyear.co.in/store/aggrawal-tyrers
Good Year,,,"508, salem main road, north udayarpalayam, attur-636102",0,,9942742124,,,Aditya Traders,https://www.goodyear.co.in/store/aditya-traders
Good Year,,,"Double Story showroom, Main chauraha",0,,9837431072,,,Agarwal Cycle works,https://www.goodyear.co.in/store/agarwal-cycle-works-2
Good Year,,,Main chauraha Sitarganj.,0,,9927079372,,,Agarwal Cycle Works,https://www.goodyear.co.in/store/agarwal-cycle-works
Good Year,,"
								  akashtayer349@gmail.com								  ",LUNAWADA ROAD,0,,9909215064,,,AKASH TAYERS SERVICE,https://www.goodyear.co.in/store/akash-tayers-service
Good Year,,,"N0:55, 100 feet road, sundar raja nagar, pondichery-605604",0,,9842965533,,,AKASH CHEVROLET,https://www.goodyear.co.in/store/akash-chevrolet
Good Year,,,"Ghat road ,Baidyanath Chowk, nagpur",0,,8983061007,,,AK GANDHI CARS,https://www.goodyear.co.in/store/ak-gandhi-cars
Good Year,,,"12-PR Marg,Khailand Market",0,,9314323030,,,Ajmer Tyres,https://www.goodyear.co.in/store/ajmer-tyres
Good Year,,"
								  ajittyres@gmail.com								  ","At Exihibition road chauraha,Patna",0,,9709700970,,,AJIT TYRES PVT LTD,https://www.goodyear.co.in/store/ajit-tyres-pvt-ltd-2
Good Year,,"
								  ajittyres@gmail.com								  ","Khura No.5 ,Ground Floor Gajdar Bandh Opposite Sadhana High School, Santacruz West, Mumbai, Maharashtra 400054",0,,9820597050,,,Ajit Tyres,https://www.goodyear.co.in/store/ajit-tyres
Good Year,,"
								  ajittyre@gmail.com								  ",Tyagi Road,0,,9837219712,,,Ajit Tyre,https://www.goodyear.co.in/store/ajit-tyre
Good Year,,,"NEAR RAILWAY FATAK DEVSHAR CHUNGI , BHIWANI",0,,9215608640,,,ajay tyre house,https://www.goodyear.co.in/store/ajay-tyre-house
Good Year,,,"Opp. D- Mart, Seawood, Nerul, Navi Mumbai-400703",0,,9867241971,,,Alfa Weels,https://www.goodyear.co.in/store/alfa-weels
Good Year,,,"PATTARUPARAMBIL,MARAMON PO,PATHANAMTHITTA.  689549",0,,9847660616,,,ALEX TYRE CARE,https://www.goodyear.co.in/store/alex-tyre-care
Good Year,,,"SARAH BUILDING,PUNALUR ROAD,ANCHAL  691306",0,,9495500539,,,ALEX & COMPANY,https://www.goodyear.co.in/store/alex-company
Good Year,,,D.V.G ROAD,0,,9901188885,,,Aleem Tyres,https://www.goodyear.co.in/store/aleem-tyres
Good Year,,,"HOSPITAL JN ,ETTUMANOOR ROAD,THALAYOLAPARAMBU  686605",0,,9447368022,,,ALAN TYRES,https://www.goodyear.co.in/store/alan-tyres
Good Year,,,Shop No.1 Gali No.3 Rao Tularam Vihar Phase-2 Near Rao Gopal Dev Chowk Narnoul Road Rewari Rewari Haryana,0,,8199977033,,,Akul Tyres & Traders,https://www.goodyear.co.in/store/akul-tyres-traders
Good Year,,,"39/46, 4th BLOCK, 4th MAIN ROAD, NEAR HOUSING BOARDING CIRCLE BASAVESHWARA NAGAR",0,,9448078959,,,AKSHAYA TYRES,https://www.goodyear.co.in/store/akshaya-tyres
Good Year,,,"NH 7,VIRUDHUNAGAR MAIN ROAD, THANAKKAN KULAM, THIRUNAGAR,MADURAI - 6",0,,9789336459,,,Akshaya Ford,https://www.goodyear.co.in/store/akshaya-ford
Good Year,,,"NO. 120, RAMAIAH COMPLEX NEW THIPPASANDRA POST, MALLESHPALYA",0,,9980461325,,,Aliya Tyres,https://www.goodyear.co.in/store/aliya-tyres
Good Year,,,"Bawngkawn,   Lunglei Road,",0,,9436141197,,,Amawi Tyre Works,https://www.goodyear.co.in/store/amawi-tyre-works
Good Year,,,"A-14 MOHAN PARK,WEST GURU ANGAD NAGAR.OPP. BSCS RADHU PALACE",0,,9810540074,,,Amar Tyre house,https://www.goodyear.co.in/store/amar-tyre-house
Good Year,,,"no;16, 17 , thangam nagar, arisamuttiram, nh road, vaniyambadi",0,,8876434657,,,Amar Alignment,https://www.goodyear.co.in/store/amar-alignment
Good Year,,,Rupmini Gaon Guwahati,0,,9864168028,,,Aman Tyres,https://www.goodyear.co.in/store/aman-tyres
Good Year,,,"OPP.M.B. HOSPITAL, VARANGODU, DOWNHILL, MALAPPURAM Malappuram 676505",0,,9142116101,,,AM TYRES,https://www.goodyear.co.in/store/am-tyres
Good Year,,,Chingavanam,0,,9447151320,,,Alpha Tyres,https://www.goodyear.co.in/store/alpha-tyres
Good Year,,"
								  fernandes_alexio@yahoo.com								  ",marailem curchorem,0,,9730150434,,,ALISHA MOTORS,https://www.goodyear.co.in/store/alisha-motors
Good Year,,"
								  shaikhsiraj9140@gmail.com								  ","HONEST MOTORS, OPP. GUJARAT STATE, SANAND ROAD, SARKHEJ",0,,9725011120,,,ANMOL TRADING,https://www.goodyear.co.in/store/anmol-trading
Good Year,,"
								  nationwidevisa@gmail.com								  ","2/11, SHREENATH CHAMBERS, NR. GPO. MIRZAPUR",0,,9825068107,,,ANKIL TYRE,https://www.goodyear.co.in/store/ankil-tyre
Good Year,,,"NANGUNERI ROAD, NANDHANKULAM, TISAYANVILAI",0,,9566853160,,,ANISHMA ALIGNMENT,https://www.goodyear.co.in/store/anishma-alignment
Good Year,,,"# 7/7/353&354, MUNNURU KAPU SANGHAM BHAVAN, NEAR ALANKAR THEATRE, HANMAKONDA",0,,0870-2448133,,,ANIL WHEELS,https://www.goodyear.co.in/store/anil-wheels
Good Year,,,Opp. Bus Stand,0,,9414095828,,,Anil Tyre,https://www.goodyear.co.in/store/anil-tyre
Good Year,,"
								  mageshvidhya9@gmail.com								  ","2, Chennai main road, Near Padayappa Mahal, Villupuram -  605602",0,,9842347666,,,Annamalai Cars,https://www.goodyear.co.in/store/annamalai-cars
Good Year,,"
								  chirag39majithia@yahoo.com								  ",3.parkar buildings curchorem goa,0,,9673681415,,,ANIL AUTOMOBILES,https://www.goodyear.co.in/store/anil-automobiles
Good Year,,,"Roshan Road , Near Bus Stand,",0,,9814430373,,,Angra Tyres,https://www.goodyear.co.in/store/angra-tyres
Good Year,,,"413,GANESH NIWAS,VEER SAWARKAR MARG,OPP-RAJSHRI PRODUCTION LTD. PRABHADEVI",0,,9870564770,,,Arihant Tyres,https://www.goodyear.co.in/store/arihant-tyres
Good Year,,,"OPP TO:VERTINERY HOSPITAL,TRICHY",0,,9345145959,,,Aravindh Tyres,https://www.goodyear.co.in/store/aravindh-tyres
Good Year,,,"NO:64, ARANGABADI ROAD,MAYILADUTHURAI.",0,,9943447374,,,Arasu wheel care,https://www.goodyear.co.in/store/arasu-wheel-care
Good Year,,,"NO:47/3C,CHENNAI BYE PASS ROAD,TRICHY",0,,9362203385,,,ARASU HUNDAI,https://www.goodyear.co.in/store/arasu-hundai
Good Year,,,"58 A, TPK ROAD, MADURAI",0,,7373717676,,,ARASPV,https://www.goodyear.co.in/store/araspv
Good Year,,,"ETTAYAPURAM ROAD,TUTICORIN",0,,9500991620,,,aras pvpv,https://www.goodyear.co.in/store/aras-pvpv
Good Year,,"
								  #N/A								  ","ERAKKINGAL COMMERCIAL COMPLEX, 19/869CDE, PALAKKAD ROAD, PATTAMBI, DIST- PALAKKAD, KERALA- 679313",0,,9745353517,,,ARAFA BUSINESS CORPORATION,https://www.goodyear.co.in/store/arafa-business-corporation
Good Year,,,"SHORNUR ROAD,OTTUPPARA,WADAKKANCHERY",0,,9388995593,,,ARABIAN TYRES,https://www.goodyear.co.in/store/arabian-tyres
Good Year,,,"#70/4,2ND AVENUE,L.B.ROAD,INDIRA NAGAR  600020",0,,9487535091,,,ARUNAI TYRE SERVICE,https://www.goodyear.co.in/store/arunai-tyre-service
Good Year,,"
								  arunagrotraders@gmail.com								  ","17, SARDAR PATEL BHAVAN, JAYSHREE CINEMA ROAD",0,,9898836812,,,ARUN AGRO TRADERS,https://www.goodyear.co.in/store/arun-agro-traders
Good Year,,,"VENKATESAPURAM,TRICHY MAIN ROAD, PERAMBALUR",0,,9942232824,,,Arul Stores,https://www.goodyear.co.in/store/arul-stores
Good Year,,,"veeragnur main road, mummudi, thalaivasal",0,,9842310412,,,ArthanoreAmman Tyres,https://www.goodyear.co.in/store/arthanoreamman-tyres
Good Year,,"
								  shravansharma13@gmail.com								  ","PANJ PEER , RAJOURI ",0,,9419170298,,,ARR KAY TRADERS,https://www.goodyear.co.in/store/arr-kay-traders-2
Good Year,,,Ferozepur cantt-,0,,9876411273,,,ARORA WHEELS,https://www.goodyear.co.in/store/arora-wheels
Good Year,,,"687,Sindhi Colony,Shanti Path,Jawahar Nagar",0,,7737473244,,,Arora Tyres,https://www.goodyear.co.in/store/arora-tyres-2
Good Year,,,1/4 Ghatkarpar Marg Maxi Road Freeganj Ujjain ( M.P) Ujjain Madhyapradesh,0,,9981045796,,,Arora tyres,https://www.goodyear.co.in/store/arora-tyres
Good Year,,,"PALACE ROAD,CHANGANACHERRY  686101",0,,9447958506,,,ASSOCIATED TYRES,https://www.goodyear.co.in/store/associated-tyres
Good Year,,,"Saturna , Badnera Road, Maruti service station, Amravati",0,,9370653938,,,ASPABANDSON,https://www.goodyear.co.in/store/aspabandson
Good Year,,,"NAVYUG NIVAS,SHOP NO-5&6,167 LAMINGTON RD,OPP- MINERVA CINEMA ,MUMBAI",0,,9004093345,,,Asiatic tyre,https://www.goodyear.co.in/store/asiatic-tyre
Good Year,,,"Lalbagh, Lucknow",0,,9415108730,,,Asian Tyre,https://www.goodyear.co.in/store/asian-tyre
Good Year,,"
								  asianagencies33@gmail.com								  ","B-22, LIANHMINGTHANGI, SAIRANG ROAD, BAWNGKAWN",0,,9862083135,,,ASIAN AGENCIES,https://www.goodyear.co.in/store/asian-agencies-2
Good Year,,,"# 12-2-784/14, RANGEVIEW APARTMENT, RETHI BOWLI, MEDHIPATNAM",0,,9347219111,,,ASHOKA WHEELS-MEDHIPATNAM,https://www.goodyear.co.in/store/ashoka-wheels-medhipatnam
Good Year,,,"# 1-8-30/5/P-4, MINSTER ROAD, OPP KIMS HOSPITAL",0,,9391219111,,,ASHOKA WHEELS-MINISTER ROAD,https://www.goodyear.co.in/store/ashoka-wheels-minister-road
Good Year,,,Near Bellary by pass road Anantapuram Andhra Pradesh Anantapur Andhra Pradesh,0,,9866831001,,,Ashoka Tyres & Wheel alighnment centre,https://www.goodyear.co.in/store/ashoka-tyres-wheel-alighnment-centre
Good Year,,,"DHEERAJ HERITAGE RESIDENCY II, SHOP NO. 13, Santacruz (West)",0,,9821882548 / 9870066048,,,Automatic,https://www.goodyear.co.in/store/automatic
Good Year,,,"Near Saibaba Kovil, SF No.149, MTP Road, Cbe - 641043",0,,,,,Auto Zone Automobles,https://www.goodyear.co.in/store/auto-zone-automobles
Good Year,,,"5, Shree Gaurav, 90ft. Road, Opp. Campus Hotel, Mulund East, Mumbai-400081.",0,,9869443611,,,Auto Wheels,https://www.goodyear.co.in/store/auto-wheels
Good Year,,,Congress Building Tilak Maidan Road,0,,0621-2248487,,,Auto Tyres,https://www.goodyear.co.in/store/auto-tyres-3
Good Year,,"
								  atss1234@rediffmail.com								  ","6, J B SUPER MARKET, NEAR SUB JAIL, RING ROAD",0,,9825404363,,,AUTO TYRES,https://www.goodyear.co.in/store/auto-tyres-2
Good Year,,"
								  alok.distributor@gmail.com								  ",ALKAPURI NEAR BOMBAY SANDWICH,0,,9909929035,,,AUTO TYRES,https://www.goodyear.co.in/store/auto-tyres
Good Year,,"
								  atcdheeraj@gmail.com								  ","No.G-1, B.N. Complex, Bisheshwanath Road, Kaiserbagh, Lucknow, Uttar Pradesh 226001",0,,9415156066,,,AUTO TYRE CENTRE,https://www.goodyear.co.in/store/auto-tyre-centre-2
Good Year,,,"6,GST ROAD, TAMBARAM SANATORIUM CHENNAI-",0,,,,,Auto Tech,https://www.goodyear.co.in/store/auto-tech
Good Year,,,"NEAR SANGLI CYCLE STORE,HIGH SCHOOL ROAD,SANGLI",0,,9422407696 /   0233-2621820,,,BAJAJ AUTO AGENCIES,https://www.goodyear.co.in/store/bajaj-auto-agencies-2
Good Year,,"
								  bagratyres@gmail.com								  ","4-Devi Nagar Mode, New Sanganer Road, Sodala",0,,9829060912 /  0141-2290820,,,Bagra Tyres,https://www.goodyear.co.in/store/bagra-tyres-2
Good Year,,,"4-Devi Nagar Mod,New Sanganer Road,Sodala",0,,9413782194 / 0141-2290820,,,Bagra Tyres,https://www.goodyear.co.in/store/bagra-tyres
Good Year,,,Gulbarga road Near sbi bijapur,0,,9448100444,,,Bagali tyres,https://www.goodyear.co.in/store/bagali-tyres
Good Year,,,"CHIRTA CHOWK,JALGAON",0,,9423188996,,,BAFNA TYRES,https://www.goodyear.co.in/store/bafna-tyres
Good Year,,,"# 12-2-725/32/6, RETHIBOWLI, OPP PILLAR NO 47, MEHDIPATNAM",0,,040-23514340,,,BADE MIYAN WHEELS,https://www.goodyear.co.in/store/bade-miyan-wheels
Good Year,,,"Shop No-2/3/4, Plot No-3, Sec-26, Kopri Bridge, Vashi, Navi Mumbai-400705.",0,,9322296261,,,Babasai Tyre House,https://www.goodyear.co.in/store/babasai-tyre-house
Good Year,,,"PADAPARAMBU, VATTALLOOR P O, MALAPPURAM -676507",0,,9447926484,,,BABAS TYRE,https://www.goodyear.co.in/store/babas-tyre
Good Year,,,NANItal Road RUDARPUR (U.P.)-,0,,9837021941,,,Balaji Services Station,https://www.goodyear.co.in/store/balaji-services-station
Good Year,,,"NO.411, DR. NANJAPPA ROAD, CBE  641018",0,,8148666838,,,BALAJI TYRES,https://www.goodyear.co.in/store/balaji-tyres-2
Good Year,,,"ShopNo-1234, Survey No-125, Hinjawadi Road, Dange Chowk Rd, Kala Khadak, Pimpri-Chinchwad, Maharashtra 411057",0,,97671 64042,,,BALAJI TYRE WAKAD,https://www.goodyear.co.in/store/balaji-tyre-wakad
Good Year,,"
								  atulkhaitan@yahoo.co.in								  ","SHOP NO 9/10, SANT VASURAM SHOPPING CENTRE, OPP PLD WATER, NEAR GUJARAT GAS CIRCLE, ADAJAN",0,,9824121109,,,BALAJI TYRE HOUSE,https://www.goodyear.co.in/store/balaji-tyre-house
Good Year,,,"Shop No 8/9/10, Shubham Complex Chinchwad Opposite Old Octroi Naka, Maharashtra 411033",0,,9822670424,,,BALAJI TYRE CHINCHWAD,https://www.goodyear.co.in/store/balaji-tyre-chinchwad
Good Year,,,"Plot No. B, Shop No. 1&2, Jay Tulja Bhavani Industrial Properties, 674, Telco Rd, MIDC, Bhosari, Pimpri-Chinchwad, Maharashtra 411026",0,,88054 33638,,,BALAJI TYRE BHOSARI,https://www.goodyear.co.in/store/balaji-tyre-bhosari
Good Year,,"
								  bsharma96532@gmail.com								  ","Thana Road,Jorhat, Dist- Jorhat, state- assam, PIN-785001",0,,9864496532,,,BALAJI TYERS,https://www.goodyear.co.in/store/balaji-tyers-2
Good Year,,,"Main Market, Jalore",0,,9414412515,,,BALAJI AUTOMOBILES,https://www.goodyear.co.in/store/balaji-automobiles
Good Year,,,Pb road rayapur hubli,0,,7760972771,,,Bellad enterprises,https://www.goodyear.co.in/store/bellad-enterprises
Good Year,,,"SHOP NO 1, BLOCK -A, VUDA UDYOG BHAVAN,SIRIPURAM,",0,,9849122229,,,BEANGE TYRES,https://www.goodyear.co.in/store/beange-tyres
Good Year,,"
								  batra.manan@gmail.com								  ","GEETA BHAWAN ROAD SONIPATH, Haryana",0,,9999133644,,,BATRA TYRE SOLE,https://www.goodyear.co.in/store/batra-tyre-sole-2
Good Year,,,"Near Batra Petrol Pump,Gita Bhawan Road,Sonipat",0,,9416040824,,,Batra Tyre & Sole,https://www.goodyear.co.in/store/batra-tyre-sole-3
Good Year,,,Motor Market,0,,9634278300,,,Batra Tyre,https://www.goodyear.co.in/store/batra-tyre
Good Year,,,"ENAKULAM ROAD KURIYACHIRA, TRICHUR",0,,9895007142,,,BENNY TYRES,https://www.goodyear.co.in/store/benny-tyres
Good Year,,,BB Road near bus stand,0,,9880051721,,,Basava wheels,https://www.goodyear.co.in/store/basava-wheels
Good Year,,"
								  basantmotorcompany@gmail.com								  ","Main Road In Front Of Govt Bus StandMalkangiri, Dist. Malkangiri",0,,9937065378,,,BASANT MOTOR CO,https://www.goodyear.co.in/store/basant-motor-co-2
Good Year,,,"PERIKKALLOOR ROAD, PULPALLY, WAYANAD PULPALLY 673579",0,,9447682703,,,BHARATH AUTO ENGG.WORKS,https://www.goodyear.co.in/store/bharath-auto-engg-works
Good Year,,,"NH - 17, Kuntikana Mangalore",0,,9886064630,,,"Bharath Auto Cars ,Mangalore",https://www.goodyear.co.in/store/bharath-auto-cars-mangalore
Good Year,,,"NO:233, ATTUR ROAD,PERAMBALUR-621212",0,,9842464227,,,Bharath Agencies,https://www.goodyear.co.in/store/bharath-agencies
Good Year,,"
								  bharat.tyres.ank@gmail.com								  ","PLOT NO- 10/11, NEAR BHAKTIDHAM TEMPLE, SURAT - KADODRA ROAD",0,,9998872888,,,BHARAT TYRES,https://www.goodyear.co.in/store/bharat-tyres-2
Good Year,,,"Purani Tahsil Road Ambedkar Nagar, Akbarpur",0,,9839232340,,,Bharat Tyre Store,https://www.goodyear.co.in/store/bharat-tyre-store
Good Year,,,"14-A,Ajit Arcade East of Kailash",0,,9643328174,,,Bharat Tyre House,https://www.goodyear.co.in/store/bharat-tyre-house
Good Year,,,"Near Icici Bnak,Bikaner Road",0,,9983842999,,,Bharat Tyre & Auto Center,https://www.goodyear.co.in/store/bharat-tyre-auto-center
Good Year,,,"MAIN BAZAR GHUMARWIN,GAGAS ROAD GHUMARWIN ,DISTT BILASPUR",0,,8628855249,,,BHARAT TYRE,https://www.goodyear.co.in/store/bharat-tyre-3
Good Year,,,"Jalandhar Road,  Ropar",0,,8108244256,,,Bombay Tyre,https://www.goodyear.co.in/store/bombay-tyre
Good Year,,,"G.T Road, Moga,Punjab",0,,84276000261,,,Bm Sharma Tyre House,https://www.goodyear.co.in/store/bm-sharma-tyre-house
Good Year,,,"26, WHITES ROAD, ROYAPETTAH, CHENNAI-600014",0,,9884153353,,,BM LAL BROS SERVICE CENTRE,https://www.goodyear.co.in/store/bm-lal-bros-service-centre
Good Year,,,"A-1/118,Lajpat Nagar-1, Delhi -110024",0,,9810430202,,,BK Tyres,https://www.goodyear.co.in/store/bk-tyres
Good Year,,,Main Market Rajouri Garden,0,,9818601313,,,BJS Tyre Specialist,https://www.goodyear.co.in/store/bjs-tyre-specialist
Good Year,,,"Near Rajeev Palace Guest House, Mainpuri",0,,9758412733,,,Bittu Car Zone,https://www.goodyear.co.in/store/bittu-car-zone
Good Year,,,Janglat Mandi Opp Eidgah Beneath Dr Sayed Beigh Clinic Anantnag,0,,9419501584,,,BISMILLA TYRE HOUSE,https://www.goodyear.co.in/store/bismilla-tyre-house
Good Year,,,"Near new Bus stand , rudraprayag",0,,9410924107,,,Bisht Motors,https://www.goodyear.co.in/store/bisht-motors
Good Year,,,"C P AUTO CARE, OPP TEVA FACTORY,DHANORA ROAD, GAJROLA, GAJROLA, AMROHA, AMROHA",0,,8171939069,,,C P AUTO CARE,https://www.goodyear.co.in/store/c-p-auto-care
Good Year,,,"Near Indian Oil petrol pump,Kaloor ,Kochi",0,,9847332818,,,C N V Tyres,https://www.goodyear.co.in/store/c-n-v-tyres
Good Year,,,Near bus stand rath hameerpur,0,,9415474084,,,Budhauliya Agencies,https://www.goodyear.co.in/store/budhauliya-agencies
Good Year,,,Ponkunnam,0,,9496374563,,,British tyres,https://www.goodyear.co.in/store/british-tyres
Good Year,,,"EAST NADAKKAVU, CALICUT Calicut",0,,9446734080,,,BRISTOL TYRES,https://www.goodyear.co.in/store/bristol-tyres
Good Year,,,"1/263, Subhash Nagar",0,,9313451368,,,BR MOTORS,https://www.goodyear.co.in/store/br-motors
Good Year,,,"Anaj mandi, Narnoul",0,,8901430234,,,BRAMHA AUTOMOBILES,https://www.goodyear.co.in/store/bramha-automobiles
Good Year,,,"KARASSERY JN, MUKKAM Mukkam 673602",0,,9846698577,,,BPM,https://www.goodyear.co.in/store/bpm
Good Year,,,"494-A,GANESH NAGAR,2ND NEAR AMBEDKAR POLY TECHNIC MADHUBAN ROAD,SHAKARPUR",0,,9289391452,,,Car center,https://www.goodyear.co.in/store/car-center
Good Year,,,"127, Annupalayam pudur, Gandhi Rd, Avinashi Rd, Tiruppur",0,,9843089999,,,Car Care Zone,https://www.goodyear.co.in/store/car-care-zone
Good Year,,,"CANAN PLAZA,NEAR BRIDGE ,PIRAVAM  686664",0,,9447817920,,,CANAN TYRES,https://www.goodyear.co.in/store/canan-tyres
Good Year,,,26A Camac Street Kolkata West Bengal,0,,9831437329,,,CAMAC TYRE HOUSE,https://www.goodyear.co.in/store/camac-tyre-house
Good Year,,,"THONDAYAD BY PASS ROAD, Near azhathrikovil vishnu temple, nellikode(p O ) Calicut 673016",0,,8606206660,,,CALICUT TYRES,https://www.goodyear.co.in/store/calicut-tyres
Good Year,,,"1547-A, Avinashi Road, Peelamedu, Coimbatore -641004",0,,9787766697,,,Cai Mahindra,https://www.goodyear.co.in/store/cai-mahindra
Good Year,,,"no:41-a, 100 feet road, near N.T.Mahal, ellaipillaichavady, pondichery-605005",0,,9443459918,,,CAAR WHEEL ALIGNMENT,https://www.goodyear.co.in/store/caar-wheel-alignment
Good Year,,,Pulimude Jn.Kottayam.,0,,9447355765,,,C.M.Kurian & co,https://www.goodyear.co.in/store/c-m-kurian-co
Good Year,,,"NH-7 KRISHNAGIRI BYE-PASS ROAD, OPP.SUZUKI SHOW ROOM, HOSUR, TAMIL NADU  636109",0,,9443017106,,,CARZ PLANET,https://www.goodyear.co.in/store/carz-planet
Good Year,,,"Thonika,Kolenchery",0,,,,,Cartronix,https://www.goodyear.co.in/store/cartronix
Good Year,,"
								  carstyrs@gmail.com								  ","NH 66 SAFINA PLAZA, NEAR TOOR MASJID, BHATKAL - 581320",0,,9986192501 / 9743602021,,,CARS,https://www.goodyear.co.in/store/cars
Good Year,,,Behramal Chowk Jharsuguda,0,,9437420420,,,Carrier Tyres,https://www.goodyear.co.in/store/carrier-tyres
Good Year,,,"B20 1ST MAIN ROAD AMBATTUR IND EXTATE,CHENNAI-58",0,,,,,Carnation,https://www.goodyear.co.in/store/carnation
Good Year,,,"PULLUT,KODUNGALLOOR,",0,,9995445300,,,CARE CARE,https://www.goodyear.co.in/store/care-care
Good Year,,,"Near Jedika Service Station,G.T.Road Moga,Punjab,,Pin Code 142001",0,,9872974812,,,Carbo Car Centre,https://www.goodyear.co.in/store/carbo-car-centre
Good Year,,,ST. JOSEPHS CHURCH COMPLE MAIN ROAD SIDDAPUR,0,,9449254593,,,CARDROME,https://www.goodyear.co.in/store/cardrome
Good Year,,,"651, Avinashi Road, P.N. Palayam, Cbe - 641037",0,,,,,Chandara hyundai,https://www.goodyear.co.in/store/chandara-hyundai
Good Year,,,"Shop No.: 711, Motor Market,Manimajra, Chandigarh",0,,9878857775,,,Chaudhary & Co.,https://www.goodyear.co.in/store/chaudhary-co
Good Year,,,Erumeli.,0,,9847209238,,,charunkattil Auto care,https://www.goodyear.co.in/store/charunkattil-auto-care
Good Year,,,"G.T Road,KHANNA",0,,9653000015,,,Charan Tyre House,https://www.goodyear.co.in/store/charan-tyre-house
Good Year,,,"Agasthyakode,Anchal,Kollam.",0,,9495500539,,,Changeth Tyres,https://www.goodyear.co.in/store/changeth-tyres
Good Year,,"
								  chandrajanttraders75@gmailcom								  ","SHOP NO. 27/28/29, TALUKA PANCHAYAT SHOPPING CENTRE, MAHUVA ROAD",0,,9924058659,,,CHANDRAKANT TYRES,https://www.goodyear.co.in/store/chandrakant-tyres
Good Year,,,"HARI OM APARTMENTS, TANK ROAD, RAVINDRA NAGAR, VISHRANTWADI, PUNE",0,,9850497668  /  020-26611530,,,CHANDRA TYRES,https://www.goodyear.co.in/store/chandra-tyres
Good Year,,,"NEAR NEW BUS STAND,MANALI,DISTT.KULLU(H.P)",0,,9816050743,,,Chamunda Motors,https://www.goodyear.co.in/store/chamunda-motors
Good Year,,,"Opp. Krishna Continental, Bibi Wala Road, Bathinda 151001",0,,8556885389,,,Chowdhary Agencies,https://www.goodyear.co.in/store/chowdhary-agencies
Good Year,,,"Govindpuri Road, Near J.K Residency, Yamuna Nagar",0,,9050891428,,,Chopra Tyres,https://www.goodyear.co.in/store/chopra-tyres
Good Year,,,"oyitty road, calicut CALICUT 673001",0,,9744749268,,,CHOISONS,https://www.goodyear.co.in/store/choisons
Good Year,,,Balaramapuram.,0,,7736299903,,,Choice Tyres,https://www.goodyear.co.in/store/choice-tyres
Good Year,,,"Pilani Road, Chirawa",0,,941081652,,,Chirawa Tyres,https://www.goodyear.co.in/store/chirawa-tyres
Good Year,,,Kayamkulam.,0,,9447430099,,,Citadel tyres-Kayamkulam,https://www.goodyear.co.in/store/citadel-tyres-kayamkulam
Good Year,,,NH 1 Batengoo Opp Habakhatoon Filling Station,0,,9797025719,,,CHINAR TYRE HOUSE,https://www.goodyear.co.in/store/chinar-tyre-house
Good Year,,,Bebar road chhibramau kannauj,0,,9415124005,,,Chhibramau tyre house,https://www.goodyear.co.in/store/chhibramau-tyre-house
Good Year,,"
								  NA								  ","Zoo road Tiniali,R.G.Baruah Road",0,,9435199295,,,CRYSTAL,https://www.goodyear.co.in/store/crystal-2
Good Year,,,"372-374, SARDAR VP ROAD,MUMBAI-400004",0,,9892121809,,,Crown Tyre Service,https://www.goodyear.co.in/store/crown-tyre-service
Good Year,,,"1053/3, AIRPORT ROAD,NEAR SANKAM HOTEL,.BELUGAM",0,,9901769475,,,CROWN AUTO,https://www.goodyear.co.in/store/crown-auto
Good Year,,,"ALL SAINTS ROAD, SARDAR PATEL COLONY, TRIMULGHERRY",0,,9000199555,,,CROSS OVERS,https://www.goodyear.co.in/store/cross-overs
Good Year,,,"ponnapet road, opposite sai hill",0,,9449515419,,,"Coorg Wheels, Ponnapet",https://www.goodyear.co.in/store/coorg-wheels-ponnapet
Good Year,,,"Near politechnic b.m. road madapatna, kushalnagar",0,,9448648300,,,Coorg Wheels,https://www.goodyear.co.in/store/coorg-wheels
Good Year,,,"4, FACTORY ROAD, NEAR SAFDARJUNG HOSPITAL, NEW DELHI- 110029",0,,9250488765,,,Continental Car Scanners,https://www.goodyear.co.in/store/continental-car-scanners
Good Year,,,"63,Arenja Corner,Sector 17,Vashi,Navi Mumbai-400 705.",0,,9821027888,,,Commercial Tyres,https://www.goodyear.co.in/store/commercial-tyres
Good Year,,,"G.T Road,Sirsa Road,Fatehabad",0,,9812171800,,,Dass Tyre House,https://www.goodyear.co.in/store/dass-tyre-house
Good Year,,,"3,Dhirpur,Main Camp Burari Road,Near Sant Nirankari Colony, Delhi-110009",0,,9350909098,,,Dashmesh wheel care,https://www.goodyear.co.in/store/dashmesh-wheel-care
Good Year,,,"Opp MBD Mall,Ferozpur Road,Ludhiana",0,,9814702840,,,Dashmesh Wheel,https://www.goodyear.co.in/store/dashmesh-wheel
Good Year,,,"Civil Lines, Faizabad",0,,9621111160,,,Dashmesh Tyres,https://www.goodyear.co.in/store/dashmesh-tyres-2
Good Year,,,"Near Bus Stand,Near Barnala  Chowk,Barnala Road,Raikot,Dist .Ludhiana",0,,9988112660,,,Dashmesh Tyres,https://www.goodyear.co.in/store/dashmesh-tyres
Good Year,,,"Near Punjab & Sind Bank,Fatehabad Road, Ratia",0,,9729800910,,,Dashmesh Tyre House,https://www.goodyear.co.in/store/dashmesh-tyre-house
Good Year,,,"G.T Road,Jagroan",0,,9888293463,,,Dashmesh Tyre & Repair Workshop,https://www.goodyear.co.in/store/dashmesh-tyre-repair-workshop
Good Year,,,Opp- PWD Office Pilibhit Road Khatima U.S. Nagar Khatima Uttarakhand,0,,9927021123,,,Dashmesh Tyre & Alloys,https://www.goodyear.co.in/store/dashmesh-tyre-alloys
Good Year,,,"NO:5379/1,MARTHANDAPURAM 2nd STREET,PUDUKOTTAI-622001",0,,9443140012,,,DEVAN TYRES,https://www.goodyear.co.in/store/devan-tyres
Good Year,,,"Chittod Road, Near Water Tank, Badi Sadri",0,,"9928146123, 9928145311",,,Dev Shree Car Care,https://www.goodyear.co.in/store/dev-shree-car-care
Good Year,,,"KUNDANNUR-MARADU ROAD ,COCHIN  682304",0,,9846186325,,,Derricks Motor Hub,https://www.goodyear.co.in/store/derricks-motor-hub
Good Year,,,"70/B-40,MAIN SHIVAJI MARG, OPP MOTINAGAR POLICE STATION ,MOTINAGAR",0,,9999992202,,,DERICK IMPEX,https://www.goodyear.co.in/store/derick-impex
Good Year,,,511/5A MAA ANAND MAI MARG GOVINDPURI KALKA JI Delhi Delhi,0,,9911131313,,,DENIM CLOTHING CO.,https://www.goodyear.co.in/store/denim-clothing-co
Good Year,,,"Shop No 10, Nh-1A Domail Udhampur",0,,9906044226,,,Delhi Motors,https://www.goodyear.co.in/store/delhi-motors
Good Year,,,"K-178,Chitranjan Park New Delhi",0,,9818076517,,,Delhi Tyre Junction,https://www.goodyear.co.in/store/delhi-tyre-junction
Good Year,,,"2ND CROSS ROAD, AUTONAGAR 520007",0,,9393995000,,,DELHI AUTO & TRACTOR STORES,https://www.goodyear.co.in/store/delhi-auto-tractor-stores
Good Year,,"
								  pareshdodhiwala@gmail.com								  ","GROUND FLOOR 12, MEGA, NEAR HDFC BANK",0,,9979001001,,,DODHIWALA BROTHERS,https://www.goodyear.co.in/store/dodhiwala-brothers
Good Year,,,"Sai Nagarjuna Arcade, NH-206 Kadur",0,,9844074240,,,Divya Wheel World,https://www.goodyear.co.in/store/divya-wheel-world
Good Year,,"
								  dhar_he1981@yahoo.co.in								  ","3, 1/251/1/252, LAKSHMI CHAMBER, BECHAR ROAD",0,,9825510360,,,DIPAK TYRES & OIL CENTRE,https://www.goodyear.co.in/store/dipak-tyres-oil-centre
Good Year,,,"# 15-1-551/8, GOYAL MARKET, SIDDIAMBER BAZAAR",0,,040-24736382,,,DILIP TYRES,https://www.goodyear.co.in/store/dilip-tyres
Good Year,,,"# 7/6/768, GODOWN ROAD",0,,9440090931,,,DILIP MILLS STORE,https://www.goodyear.co.in/store/dilip-mills-store
Good Year,,,"Shop No 02, Navratna Apartment, Near Maitri Park, Sion Trombay Road, Chembur East, Mumbai - 400071",0,,9821064566,,,Diamond Tyre,https://www.goodyear.co.in/store/diamond-tyre
Good Year,,,"KANDASAR, NALCO NAGAR",0,,9437157248,,,Diamond Enterprises,https://www.goodyear.co.in/store/diamond-enterprises
Good Year,,,"Nh-20, Bodh, Jassur, Tehsil- Nurpur, Distt- Kangra",0,,9418111250,,,Dhruv?s Real Tyres Shoppe,https://www.goodyear.co.in/store/dhruvs-real-tyres-shoppe
Good Year,,,"Dalhousie Road,Mamoon,",0,,9815698145,,,Durga Traders,https://www.goodyear.co.in/store/durga-traders
Good Year,,,"NH NO. 3, MUMBAI AGRA ROAD,PIMPLGAON",0,,9890452625,,,DWARKADHISH TYRES,https://www.goodyear.co.in/store/dwarkadhish-tyres
Good Year,,"
								  kirna_sales@rediffmail.com								  ","157/2A, GOPAL LAL TAGORE ROAD, Kolkata",0,,9831022156,,,DUNLOP TYRE & BATTERY CENTRE,https://www.goodyear.co.in/store/dunlop-tyre-battery-centre-2
Good Year,,,"OPP:KANNIKAMATHA CONVENT,PALLIPURAM,PALAKKAD",0,,9446279794,,,E.PM.TYRES,https://www.goodyear.co.in/store/e-pm-tyres
Good Year,,,"# 13-6-432/2,3,4, OPP PILLAR NO- 93, SRINIVAS NAGAR, RING ROAD, MEHDIPATNAM",0,,8919565447,,,DUSTVEEL CAR CARE STATION,https://www.goodyear.co.in/store/dustveel-car-care-station
Good Year,,,"Kotwali Road, Shreeganganagar",0,,94140933303,,,Durga Tyres,https://www.goodyear.co.in/store/durga-tyres
Good Year,,,"9,NEAR GOVT BOYS SCHOOL, BHARATHIDASAN ST RGN COLONY",0,,,,,DS Global,https://www.goodyear.co.in/store/ds-global
Good Year,,,"42, ELEPHANT GATE STREET, SOWCARPET, CHENNAI-79.",0,,,,,Dugar Agencies,https://www.goodyear.co.in/store/dugar-agencies
Good Year,,,"THATHANERI MAIN ROAD, MADURAI - 18",0,,9894354183,,,EL-Shadai wheel alignments,https://www.goodyear.co.in/store/el-shadai-wheel-alignments
Good Year,,,"No.425, Mettupalayam Road, North Cbe, CBE - 6410403",0,,9843013737,,,Electro India,https://www.goodyear.co.in/store/electro-india
Good Year,,,"Shop No-A8, Parivartan CHS, Midland, Sec-6A, Kamote, Navi Mumbai-410209",0,,8082579790,,,Ekvira Wheels,https://www.goodyear.co.in/store/ekvira-wheels
Good Year,,,"14/30,geeta colony,near shiv puri bus stop",0,,9211121112,,,Ekco tyres,https://www.goodyear.co.in/store/ekco-tyres
Good Year,,,Mallapally.,0,,9961738393,,,Ebanaiser wheel tech,https://www.goodyear.co.in/store/ebanaiser-wheel-tech
Good Year,,,"NEAR IOC PUMP,NELLIPILLY PO,PUNALUR  691325",0,,9447152915,,,EASTERN TYRES,https://www.goodyear.co.in/store/eastern-tyres
Good Year,,,"14, East  Street,Near Bombay Garage, camp, Pune",0,,9922056231  /  26360149,,,EASTERN TYRE CO,https://www.goodyear.co.in/store/eastern-tyre-co
Good Year,,,"NO 6 A, MOHAN NAGAR, 100 FT ROAD, PONDICHERRY - 605005",0,,9025822666,,,EASYDRIVE,https://www.goodyear.co.in/store/easydrive
Good Year,,,Kodimatha Kottayam,0,,,,,Exon Tyres,https://www.goodyear.co.in/store/exon-tyres
Good Year,,,"Shop No. E-561, Near Vardhaman City Mall, Ramphal Chowk, Sec-7 Dwarka, New Delhi - 110075",0,,9810170050,,,Excellent Tyres,https://www.goodyear.co.in/store/excellent-tyres
Good Year,,"
								  palashmitra.euro@gmail.com								  ","365,GARIA MAIN ROAD,KOLKATA 700084",0,,9831456088,,,EURO AUTOMOBILE,https://www.goodyear.co.in/store/euro-automobile-2
Good Year,,,"Raipur Road, Jhalra Patan, Dist- Jhalawad",0,,8875479333,,,Evergreen Care,https://www.goodyear.co.in/store/evergreen-care
Good Year,,"
								  empire_agencies.cbsa@gmail.com								  ","Near Post office,Chaibasa",0,,9431110005,,,EMPIRE AGENCIES,https://www.goodyear.co.in/store/empire-agencies-2
Good Year,,,"ILLIMOOLA JN,IREKUNNAM,KOTTAYAM  686564",0,,9447293324,,,EMPIRE TYRES,https://www.goodyear.co.in/store/empire-tyres
Good Year,,,"Shop No-1,mir Shopping Complex opp New Bus Adda",0,,8803908331,,,EMM EMM ENTERPRISE,https://www.goodyear.co.in/store/emm-emm-enterprise
Good Year,,,"Shop No. 2, BE- 359A, Gali No. 1, Hari Nagar,",0,,9810019815,,,EMBASSY TYRES,https://www.goodyear.co.in/store/embassy-tyres
Good Year,,,Chota Nimdih Chaibasa,0,,9431110005,,,Empire Agency,https://www.goodyear.co.in/store/empire-agency
Good Year,,,"10/1 F,D.H.ROAD ALIPORE",0,,9831111510,,,Eastern Distributors,https://www.goodyear.co.in/store/eastern-distributors
Good Year,,,"69/2A,2B, PADDAPUKUR ROAD  KOLKATA",0,,9831012618,,,East India Tyre Co,https://www.goodyear.co.in/store/east-india-tyre-co
Good Year,,,F-7  East of Kailah New Delhi,0,,9899330008,,,Driven tyres,https://www.goodyear.co.in/store/driven-tyres
Good Year,,,"# 7, ARUNACHALAM ROAD,SALIGRAMAM  603202",0,,9962012500,,,DR AGENCIES,https://www.goodyear.co.in/store/dr-agencies
Good Year,,,1886/1A BESIDE RAJ BHAVAN HOTEL OPP NEW COURT P B ROAD DAVANGERE Davanagere Karnataka,0,,9481337868,,,DHK TYRES & COMPRESSORS,https://www.goodyear.co.in/store/dhk-tyres-compressors-2
Good Year,,,"Shop No. 1, Koyel Market, Old Bus Stand Road, Kaithal",0,,9416481226,,,Dhruv Tyres,https://www.goodyear.co.in/store/dhruv-tyres
Good Year,,,"Near Bus Stand, Gumti Road, Vill. Bhai Rupa, Bathinda",0,,,,,Dhira Tyre Service,https://www.goodyear.co.in/store/dhira-tyre-service
Good Year,,,"Shop No. 839, Near Jrodha Bus Stand, Najafgarh",0,,9810120173,,,DHINGRA TYRES,https://www.goodyear.co.in/store/dhingra-tyres
Good Year,,,"# 15-2-392/1, SIDDIAMBER BAZAAR, AFJALGUNJ",0,,9908120320,,,DHANALAXMI TYRES,https://www.goodyear.co.in/store/dhanalaxmi-tyres-2
Good Year,,,"Near Old Radha Swami Satsung Bhawan,G.T. Road",0,,9814504030,,,Dhiman Tyre & Wheel Care Centre,https://www.goodyear.co.in/store/dhiman-tyre-wheel-care-centre
Good Year,,,"80 NEW HOUSING UNIT,OPP: MANNAR SARABOJI COLLAGE HOSTEL, NEW BUSSTAND",0,,9655212712,,,Dhina?s,https://www.goodyear.co.in/store/dhinas
Good Year,,,"TD3443, Delhi Bypass road, Rohtak , Haryana",0,,"9896378098, 7988639616",,,Dhaka Tyres,https://www.goodyear.co.in/store/dhaka-tyres
Good Year,,,"B.M ROAD, NEAR MUNCIPAL OFFICE",0,,9060529888,,,Dhanalakshmi Tyres,https://www.goodyear.co.in/store/dhanalakshmi-tyres
Good Year,,"
								  srmgraccounts@treads.in								  ","Sec- 7, Chandigarh",0,,9257200410,,,Deviate Enterprises Pvt. Ltd(Treads),https://www.goodyear.co.in/store/deviate-enterprises-pvt-ltdtreads
Good Year,,,"240-R,Model Town,Ludhiana",0,,8283055334,,,Deviate Enterprises Ltd(Treads),https://www.goodyear.co.in/store/deviate-enterprises-ltdtreads
Good Year,,,"MARUTHI SERVICE CENTRE, 3/2 KATTIGENAHALLINEAR BSF STS BUS STAND",0,,9379797951,,,DEVI AUTOMOBILES,https://www.goodyear.co.in/store/devi-automobiles
Good Year,,,"Pushkar Park, Co-operative hou. Soc.Lokmanya Colony,Kothrud,PUNE",0,,9881749848  /  22953993,,,DEEPRAJ TYRES,https://www.goodyear.co.in/store/deepraj-tyres
Good Year,,,"NEAR BUS STAND,TAPUKARA",0,,9983309847,,,DEEPESH TRADERS,https://www.goodyear.co.in/store/deepesh-traders
Good Year,,,"karvi market , district:-chitrakut,",0,,9839061530,,,Deepchand,https://www.goodyear.co.in/store/deepchand
Good Year,,,"681/1, 7TH CROSS, 8TH MAIN, PJ EXTANTATION,DAVANAGERE",0,,9845355855,,,DEEPA TYRES,https://www.goodyear.co.in/store/deepa-tyres
Good Year,,,#688 & 8th Main PJ Extension - Davangere,0,,9845355855,,,Deepa Enterprises,https://www.goodyear.co.in/store/deepa-enterprises
Good Year,,,"Shop No..26, Ram Leela Market, Ramnagar Road Kashipur",0,,9760043268,,,Deep Tyre Associates,https://www.goodyear.co.in/store/deep-tyre-associates
Good Year,,,"16 WILLIAMS ROAD,CONTONMENT,TRICHY - 1",0,,9994912712,,,Deena wheel align,https://www.goodyear.co.in/store/deena-wheel-align
Good Year,,,"Back Side King Hotel,Bus Stand Road",0,,9357932224,,,Dee Cee Tyres,https://www.goodyear.co.in/store/dee-cee-tyres
Good Year,,,130 Shastri Nagar Jammu,0,,9419135794,,,Decent Tyres,https://www.goodyear.co.in/store/decent-tyres
Good Year,,,"C-581,Saraswati Vihar, New Delhi-110034",0,,9899231545,,,DEEP TYRES,https://www.goodyear.co.in/store/deep-tyres
Good Year,,"
								  jayantsharma1989@gmail.com								  ","OPP SINGLA PALACE, UNDER FOOT OVER BRIDGE, G.T. ROAD, PANIPAT, HARYANA- 132103",0,,9896988844,,,DEALS IN WHEELS,https://www.goodyear.co.in/store/deals-in-wheels-2
Good Year,,,"CIDCO CHOWK,NEAR BHUJWAL FARM,NASHIK",0,,9823137326,,,DATTA TYRES,https://www.goodyear.co.in/store/datta-tyres-2
Good Year,,,Pucca Bagh Hapur,0,,9897004808,,,Das Agricultural Store,https://www.goodyear.co.in/store/das-agricultural-store
Good Year,,,Sundarban complex baner balewadi road baner pune. Pune Maharashtra,0,,9552562621,,,Darshan Tyres,https://www.goodyear.co.in/store/darshan-tyres
Good Year,,,Poonam Cinema Road Mirzapur.,0,,9334983854,,,Darbhanga Tyre Centre,https://www.goodyear.co.in/store/darbhanga-tyre-centre
Good Year,,"
								  raviraj.jebs@gmail.com								  ","OPP. EICHER TRACTOR SHOWROOM, JAFRABAD ROAD",0,,9725501777,,,DANEV TYRES,https://www.goodyear.co.in/store/danev-tyres
Good Year,,,"OPP. PADMA THERTER, BHAKAR BAGH, HIGH SCHOOL ROAD,SANGLI",0,,9422613431  /  0233-2625490,,,D. R. AUTO,https://www.goodyear.co.in/store/d-r-auto
Good Year,,,"C-73,Adjacent Pink Square,Near Police Station,Adarsh Nagar",0,,8058575280 / 0141-4036388,,,D.N. Motors,https://www.goodyear.co.in/store/d-n-motors
Good Year,,"
								  droyaltyretraders1818@gmail.com								  ",PANSDESARA SACHIN ROAD GIDC PANDESARA,0,,9825155313,,,D ROYAL TRADERS,https://www.goodyear.co.in/store/d-royal-traders
Good Year,,,"175, MEDAVAKKAM TANK ROAD, CHINTOOR PARADISE, KELLYS",0,,,,,D K WHEEL CARE,https://www.goodyear.co.in/store/d-k-wheel-care
Good Year,,,"M.G ROAD , CHINTHAMANI CHIKKABALLAPUR",0,,,,,D.N CYCLE MART,https://www.goodyear.co.in/store/d-n-cycle-mart
Good Year,,,"Z-4/0024, Pir Khana Road, Near Sports Stadium, Bathinda, Bathinda",0,,9878720018,,,D I Tyres,https://www.goodyear.co.in/store/d-i-tyres
Good Year,,,"PALAKKAD ROAD, MELE PATTAMBI,PALAKKAD DIST",0,,9846151514,,,cvm tyre mate,https://www.goodyear.co.in/store/cvm-tyre-mate
Good Year,,,"NH ROAD,OPP JOYCE JWELLERS,KALLAMBALAM  695605",0,,9846755246,,,CTA TYRES,https://www.goodyear.co.in/store/cta-tyres
Good Year,,,"NO.300,METTUPALAYAM ROAD,CBE   641043",0,,9842573175,,,COIMBATORE ANAMALLAIS AGENCIS,https://www.goodyear.co.in/store/coimbatore-anamallais-agencis
Good Year,,,"Vaishali Mundapam, Ashoka Magrg Ramnagar",0,,9897404347,,,Classic Wheels,https://www.goodyear.co.in/store/classic-wheels
Good Year,,,"PALLURUTHY,COCHIN  682006",0,,9847332818,,,CNV TYRES,https://www.goodyear.co.in/store/cnv-tyres
Good Year,,"
								  citywheels@outlook.com								  ",99 Auto Market Near Padav Chowk Hisar Haryana-,0,,9991999338,,,CITY WHEELS,https://www.goodyear.co.in/store/city-wheels-2
Good Year,,,"G.T Road, Ludhiana,Punjab",0,,9872070011,,,City Wheels,https://www.goodyear.co.in/store/city-wheels-3
Good Year,,,"Adichira,Kottayam.",0,,9544114422,,,Club saturn,https://www.goodyear.co.in/store/club-saturn
Good Year,,,"No:2/93, New Bus Stand, West Street, 5 Theatre road, Meyyanur Arikadu, Salem-4  636604",0,,9865293000,,,City Tyre Point,https://www.goodyear.co.in/store/city-tyre-point
Good Year,,,"Chandrappa Garden,Opp.city Hardwares, New Kendriya Vihar,B.B.Road,Venkatala YALAYANKA",0,,9880676277,,,CITY TYRES,https://www.goodyear.co.in/store/city-tyres-2
Good Year,,,"NO : 20,SENGUPTA STREET,RAMNAGAR,CBE  641009",0,,,,,CITY TYRE CARE,https://www.goodyear.co.in/store/city-tyre-care
Good Year,,,"PULIMAN JUNCTION,NH,KARUNAGAPALLY  690518",0,,9744177779,,,CITDEL CARE POINT,https://www.goodyear.co.in/store/citdel-care-point
Good Year,,,National Highway Road Sempora Pantha Chowk Srinagar-,0,,,,,CITY TYRE N CARE,https://www.goodyear.co.in/store/city-tyre-n-care
Good Year,,,Pathanamthitta,0,,9446894086,,,Cheruvazha Thadathil,https://www.goodyear.co.in/store/cheruvazha-thadathil
Good Year,,,"CENTRAL JAIL ROAD, LAKE DEW RESIDENCY, NEAR AMRITA COLLEGE, PHASE-2, HARALUR, BANGALORE, KARNATAKA- 560035",0,,8527227903,,,CHERYL TYRE AND AUTO SPA,https://www.goodyear.co.in/store/cheryl-tyre-and-auto-spa-2
Good Year,,,6 Mission Shop Court Road Amritsar Amritsar Punjab,0,,9988425257,,,City Car Centre,https://www.goodyear.co.in/store/city-car-centre
Good Year,,,Kottiyam.,0,,,,,Chepally traders,https://www.goodyear.co.in/store/chepally-traders
Good Year,,,"2/28 B, MOUNT POONAMALLEE ROAD NEAR BLS INFOCITY RAMAPURAM, CHENNAI-89",0,,9940422505,,,Chennai Tyre House,https://www.goodyear.co.in/store/chennai-tyre-house
Good Year,,,"# 49/1, R.V ROAD, NEXT TO SILICON HONDA BASAVANAGUDI",0,,9448708205,,,CHENDUR MURUGAN TYRES,https://www.goodyear.co.in/store/chendur-murugan-tyres
Good Year,,,Cheeramban”S Tyres Near IndianOil Petrol Pump Vettikkal Mannuthi Thrissur Kerala-,0,,8606858188,,,CHEERAMBAN’S SPEED WHEELS,https://www.goodyear.co.in/store/cheerambans-speed-wheels
Good Year,,,STAION ROAD MORADABAD,0,,9412242910,,,CHAWLA TYRES ZONE,https://www.goodyear.co.in/store/chawla-tyres-zone
Good Year,,"
								  pateluday79@gmail.com								  ","G3, CENTURY TOWER, BEHIND HOTEL GRAND BHAGWATI, S.G. HIGHWAY-BODAKDEV",0,,9898556326,,,CHECK POINT,https://www.goodyear.co.in/store/check-point
Good Year,,"
								  chawla_tyre@rediffmail.com								  ","Jugsalai,Station road,Jamshedpur",0,,9334800650,,,CHAWLA TYRE PVT LTD,https://www.goodyear.co.in/store/chawla-tyre-pvt-ltd-2
Good Year,,,Station Road Moradabad,0,,9412242910,,,Chawla tyre,https://www.goodyear.co.in/store/chawla-tyre-2
Good Year,,"
								  chawlatyres@gmail.com								  ","OPP:MADHUBANI PARK, KANTH ROAD,MORADABAD",0,,9412211111,,,Chawla tyre,https://www.goodyear.co.in/store/chawla-tyre
Good Year,,"
								  sorathiyavipul123@gmail.com								  ","NR. SETELITE CHOWK, PEDAK ROAD",0,,9265130591,,,CHAMUNDA AUTO AND TYRE SERVICE,https://www.goodyear.co.in/store/chamunda-auto-and-tyre-service
Good Year,,,Near ICICI Bank Dehradun Road,0,,9897433376,,,Chaudhry Tyre,https://www.goodyear.co.in/store/chaudhry-tyre
Good Year,,,"Opp. IFC godown, Dabwali Road, Kalanwali",0,,8053111383,,,Chahal Brothers,https://www.goodyear.co.in/store/chahal-brothers
Good Year,,,Haripadu,0,,9495054122,,,Chaithanya Traders,https://www.goodyear.co.in/store/chaithanya-traders
Good Year,,,"ZP COMPLEX, HUNTER RD, ADALATH, ADVOCATES COLONY, SUBEDARI",0,,9395376440,,,CHAKRA WHEELS,https://www.goodyear.co.in/store/chakra-wheels
Good Year,,,Near Govt. Hospital Chaddha market Auriya,0,,9236063907,,,Chaddha tyre house,https://www.goodyear.co.in/store/chaddha-tyre-house
Good Year,,,"SHOP NO-4, JAYANT APARTMENT, A.M.MARG OPP-LUCAS INDIAN SERVICES MUMBAI",0,,,,,Century tyre,https://www.goodyear.co.in/store/century-tyre
Good Year,,,Kalpi Road Fazalganj kanpur,0,,9616197619,,,Chadha Sales,https://www.goodyear.co.in/store/chadha-sales
Good Year,,,"109, GENERAL PATTERS ROAD, OPP: JAYAPRADHA THEATRE, MOUNT ROAD, CHENNAI - 600002",0,,044 28603080 / 9841088528 / 99094408503,,,CENTRAL TYRES,https://www.goodyear.co.in/store/central-tyres
Good Year,,,"SN HIGH ROAD, SRIPURAM, TIRUNELVELI - 1",0,,9842850297,,,Central Automobiles,https://www.goodyear.co.in/store/central-automobiles
Good Year,,,"331/163 B1, near vst motors, meyyanur main road, salem-636004",0,,994465789,,,Central Alignment,https://www.goodyear.co.in/store/central-alignment
Good Year,,,"PIRAVAM ROAD ,PERUVA  686610",0,,9847549848,,,CENTRAL AGENCIES,https://www.goodyear.co.in/store/central-agencies
Good Year,,,"4/60, Palladam Main Road, Near tamilnadu Theatre, Tiruppur - 641602",0,,9842882830,,,Car Zone Auto Service (Tiruppur),https://www.goodyear.co.in/store/car-zone-auto-service-tiruppur
Good Year,,,"1/441, Avinashi road, Chinniampalayam, Cbe - 641062",0,,,,,Car Zone Auto Service,https://www.goodyear.co.in/store/car-zone-auto-service
Good Year,,,"C-72,GF,malviya nagar ND-110017",0,,9811038838,,,CEAT SHOPEE /Tyre Emporium,https://www.goodyear.co.in/store/ceat-shopee-tyre-emporium
Good Year,,,"C2B/89A, Janak Puri,",0,,9312280226,,,Car Zone,https://www.goodyear.co.in/store/car-zone-2
Good Year,,"
								  mokhascarworld@gmail.com								  ","Street No.-15,Guru Gobind Singh Nagar,Barnala Byepass, Near Reliance Mall, Bathinda",0,,9876153421,,,Car World,https://www.goodyear.co.in/store/car-world
Good Year,,,SEVVE NO.70/3WORKUNDOPP.VIRARA DHABAVAPI DAMAN ROAD,0,,9227249080,,,Car Zone,https://www.goodyear.co.in/store/car-zone
Good Year,,"
								  carpoint30108@gmail.com								  ","KHAMBHALIYA ROAD, OPP. VISHAL HOTEL",0,,9824230108,,,CAR POINT,https://www.goodyear.co.in/store/car-point
Good Year,,,"1961, trichy Road, Singanallur, Coimbatore - 641005",0,,9443056160,,,Car Wings,https://www.goodyear.co.in/store/car-wings
Good Year,,,Kesavadasapuram.,0,,9847070786,,,Car Palace,https://www.goodyear.co.in/store/car-palace
Good Year,,,"Shop 9,10-Vidhutnagar Shopping Complex,Hissar",0,,9812204734,,,Car kare center,https://www.goodyear.co.in/store/car-kare-center
Good Year,,,Pili kothi banda,0,,9415189898,,,Car palace,https://www.goodyear.co.in/store/car-palace-2
Good Year,,,"MADANADA,KOLLAM  691016",0,,9947249878,,,"CAR CLINIC,KOLLAM",https://www.goodyear.co.in/store/car-clinickollam
Good Year,,,"35, Saraswati Marg,Opp Suraj Pole",0,,9309241664 / 0294-2411080,,,Car House,https://www.goodyear.co.in/store/car-house
Good Year,,,"NO. 250-B, JEEVITHA COMPLEX, NEAR ANAMALIAS AGENCY, MTP ROAD, CBE  640143",0,,9842551000,,,C.J. FRANCIS & CO.,https://www.goodyear.co.in/store/c-j-francis-co
Good Year,,,"BAN BAZAR KRISHNAGAR,NADIA",0,,9830307100,,,C.K.Das,https://www.goodyear.co.in/store/c-k-das
Good Year,,"
								  bombaytyres68@gmail.com								  ","Nandan Van Apartment, Shop No.4,5, New Link Road, Shri Sevantilal Khandwala Marg, Mahatma Gandhi Nagar, Kandiwali West, Mumbai, Maharashtra",0,,9820031602,,,Bombay Tyres,https://www.goodyear.co.in/store/bombay-tyres-3
Good Year,,,"Gaushalla Road, Sangrur-148001",0,,9415974278,,,Bihari Tyre Centre,https://www.goodyear.co.in/store/bihari-tyre-centre
Good Year,,"
								  bombaytyres68@gmail.com								  ","S V Road, Opposite Wireless Station, Dahisar East, Mumbai, Maharashtra 400068",0,,9820031602,,,Bombay Tyres,https://www.goodyear.co.in/store/bombay-tyres-2
Good Year,,,"RANA CIRCLE, LOKAPUR ROAD, MUDHOL",0,,9448335572,,,BIDARI,https://www.goodyear.co.in/store/bidari
Good Year,,"
								  kavneet.kavi@gmail.com								  ",Railway Road Kurukshetra,0,,8295002137,,,BINDRA TYRES,https://www.goodyear.co.in/store/bindra-tyres-2
Good Year,,,Auto Marcket Hissar,0,,9255588277,,,Bhusan motor store,https://www.goodyear.co.in/store/bhusan-motor-store
Good Year,,,Rajpur Road Near Moti Mahal Restaurant,0,,0135 2710732,,,Bhatia Tyres,https://www.goodyear.co.in/store/bhatia-tyres
Good Year,,,"OPP. PADMA THERTER, BHAKAR BAGH, HIGH SCHOOL ROAD,SANGLI",0,,7507569333,,,BHOGILAL CYCLE MART,https://www.goodyear.co.in/store/bhogilal-cycle-mart
Good Year,,,"Yadav mkt opp aardee city Wazirabad, Sector-52, Gurgaon",0,,9999555595,,,Bhushan Brothers,https://www.goodyear.co.in/store/bhushan-brothers
Good Year,,,Gaushala Road,0,,9887320010,,,Bhatia Tyre Works,https://www.goodyear.co.in/store/bhatia-tyre-works
Good Year,,"
								  bhatiatyre@gmail.com								  ",RAJPUR ROAD NEAR MOTI MAHAL RESTAURANT,0,,9760204808,,,Bhatia Tyre,https://www.goodyear.co.in/store/bhatia-tyre
Good Year,,,"1001-3 , Nimbahera Road",0,,7597615615,,,Bhatia & Co,https://www.goodyear.co.in/store/bhatia-co
Good Year,,,Kupwara Road Sopore,0,,9419038640,,,BHAT TRADERS,https://www.goodyear.co.in/store/bhat-traders
Good Year,,,Railway Road Jwalapur Haridwar Uttarakhand,0,,9719566200,,,BHARAT TYRE,https://www.goodyear.co.in/store/bharat-tyre-2
Good Year,,,"Circilar Road, Rewari",0,,9215530075,,,Bharat Motor Company,https://www.goodyear.co.in/store/bharat-motor-company
Good Year,,,"NO 1144 DR RAJKUMAR ROAD OPP RAJARAJESHWARI KALYANA MANTAPA PRAKASHNAGAR RAJKAJINAGR B,LORE 21",0,,9845606553,,,Bharath Tyres,https://www.goodyear.co.in/store/bharath-tyres
Good Year,,,"Haribagh Colony Chowk, Assandh Road, Panipat",0,,9254200411,,,Bharat motor & wheel,https://www.goodyear.co.in/store/bharat-motor-wheel
Good Year,,,"Yashwant Nagar, Basmat Road, Khanapur Fata, Parbhani - 431401",0,,9422892252    / 02452-248252,,,Bharat Auto Service,https://www.goodyear.co.in/store/bharat-auto-service
Good Year,,,"Shop No. 51, B Wing Commercial Complex, Purnanagar, Chinchwad, Pune, Maharashtra 411019",0,,93710 35457,,,BHANDARI TYRE,https://www.goodyear.co.in/store/bhandari-tyre
Good Year,,,at post vagade near hp petrol pump opp ubha dev kankavli,0,,9403947732/7057487732,,,Bhalchandra tyres,https://www.goodyear.co.in/store/bhalchandra-tyres
Good Year,,,"At post Patas, Tal : Daund, Dist: Pune",0,,9822530282  /  02117-222539,,,BHAGWAT AUTO,https://www.goodyear.co.in/store/bhagwat-auto
Good Year,,,"INDUSTRIAL AREA ,PHASE III,SAULI KHAD,MANDI(H.P)",0,,9418461897,,,Bhagwati Automobiles,https://www.goodyear.co.in/store/bhagwati-automobiles
Good Year,,,"PEARLITE COMPLEX , N.T.ROAD,SHIMOGA   577202",0,,9164940200,,,BHAGATH AUTO CARE,https://www.goodyear.co.in/store/bhagath-auto-care
Good Year,,,"14/2, Anusham Nagar, 100 Feet Rd, Udumalpet - 642126",0,,9894057991,,,Best Tyre Care,https://www.goodyear.co.in/store/best-tyre-care
Good Year,,,"Siddhivinayak Buliding,Plot No.29A,Sector-19C,Vashi,Navi Mumbai.",0,,9867321115,,,Best Tyres,https://www.goodyear.co.in/store/best-tyres
Good Year,,,"Market Yard,At Ghodnadi,Shirur",0,,9822009699 /   (02138)222899,,,BARMECHA TYRES,https://www.goodyear.co.in/store/barmecha-tyres
Good Year,,,Pili kothi banda,0,,9415496872,,,Bapu Automobile,https://www.goodyear.co.in/store/bapu-automobile
Good Year,,,"No 3, Opposite To Fashion Look, Reddypalayam Main Road, Mogappair West, Chennai - 600037",0,,,,,BERTON TYRES,https://www.goodyear.co.in/store/berton-tyres
Good Year,,,"Bhiwani Road,Near Devilal Chowk,Jind",0,,9466767320,,,Bansal Tyres,https://www.goodyear.co.in/store/bansal-tyres
Good Year,,"
								  devin.kathiria2020@gmail.com								  ",MAIN ROAD,0,,9434423768,,,BANSI CYCLE STORES,https://www.goodyear.co.in/store/bansi-cycle-stores
Good Year,,,"Patiala Road,Near Bus Stand,Patran,Punjab",0,,9872762225,,,Bansal Tyre Service,https://www.goodyear.co.in/store/bansal-tyre-service
Good Year,,,BMOCC,0,,,,,Bangalore Motors,https://www.goodyear.co.in/store/bangalore-motors
Good Year,,,"# 12-2-725/32/6, RETHIBOWLI, OPP PILLAR NO 47, MEHDIPATNAM",0,,9000300002,,,BANJARA TYRE SALES & SERVICES,https://www.goodyear.co.in/store/banjara-tyre-sales-services-3
Good Year,,,"SHOP # 8&9, MOUNT BANJARA, ROAD NO 12, BESIDE PIZZA HUT, BANJARA HILLS",0,,9000300002,,,BANJARA TYRE SALES & SERVICES,https://www.goodyear.co.in/store/banjara-tyre-sales-services-2
Good Year,,,"NORTH VELI STREET, MADURAI - 625001",0,,9443063059,,,Balu tyres,https://www.goodyear.co.in/store/balu-tyres
Good Year,,,S R Complex.KPN Road Shimoga,0,,9448207868,,,BALARAM  TRADERS,https://www.goodyear.co.in/store/balaram-traders
Good Year,,,"SHOP NO, 1,2,3,4,, OMAXE HILLS , SEC-43, FARIDABAD",0,,"12,965,402,039,873,599,488",,,BALARAMA TYRE ZONE,https://www.goodyear.co.in/store/balarama-tyre-zone
Good Year,,"
								  balajiwheels.jain@gmail.com								  ","FLAT NO-H/7/712/A, WARD NO:42, SEVOKE ROAD, BHAKTINAGAR, ",0,,9832043286,,,BALAJI WHEELS,https://www.goodyear.co.in/store/balaji-wheels-2
Good Year,,,Shop no.1 RK puram sec 5 Near indian petrol pump ND 22,0,,9911929268,,,Balaji  Tyres,https://www.goodyear.co.in/store/balaji-tyres
Good Year,,,"mahmudabaad market,district:-sitapur mahumdabaad",0,,9918811783,,,Baba Tyre House,https://www.goodyear.co.in/store/baba-tyre-house
Good Year,,,"NEAR PAVITHRA PARADISE, BASAVESHWAR NAGAR, BANGALROE 560058",0,,9972010759,,,B.R.TYRES,https://www.goodyear.co.in/store/b-r-tyres
Good Year,,,"12/562, KAMBLE BUILD,ICHALKARANJI, DIST:- KOLHAPUR",0,,9763877456 / 0230-2434217,,,B&B CO,https://www.goodyear.co.in/store/bb-co
Good Year,,,"ANUGRAHA KALYANA MANDAPAM,MALAMPUZHA ROAD, OLAVAKKODE,PALAKKAD",0,,9497127458,,,B K tyres,https://www.goodyear.co.in/store/b-k-tyres-3
Good Year,,,"22 A, Pocket A, Jail Road, Opp. Hari Nagar Depot,",0,,9212660075 / 9212210075,,,Bakshish Tyre,https://www.goodyear.co.in/store/bakshish-tyre
Good Year,,,"KUMARHATTI,DITT SOLAN (H.P)",0,,9882043512,,,AVTAR ENTERPRISES,https://www.goodyear.co.in/store/avtar-enterprises
Good Year,,,"NO:5/143, AK COMPLEX,TRICHY.",0,,9786906164,,,AVM tyres,https://www.goodyear.co.in/store/avm-tyres
Good Year,,,"Neemuch Road, Pratapgad",0,,9460364035,,,Avantika Tyres & Wheelcare,https://www.goodyear.co.in/store/avantika-tyres-wheelcare
Good Year,,,"Ff Road Near Old Bus Stand,Jalabad Dist.Firozpur",0,,9451154744,,,Avinash tyre,https://www.goodyear.co.in/store/avinash-tyre
Good Year,,,"Pipeline Road,Near old Maria park,Padivattom,Kochi",0,,9562477760,,,Autoteam sales&service,https://www.goodyear.co.in/store/autoteam-salesservice
Good Year,,,"C-1, Survey Park( Near Ajoynagar Crossing )",0,,9830791911  / 033-65002244 /  24543734,,,AUTOMECHANIKA,https://www.goodyear.co.in/store/automechanika-2
Good Year,,,"C-1, Survey Park ( Near Ajoynagar Crossing )",0,,9830791911  / 033-65002244 /  24543734,,,AUTOMECHANIKA,https://www.goodyear.co.in/store/automechanika
Good Year,,"
								  hirakjit12automation@gmail.com								  ","H.NO. - 259,, RGB ROAD, OPP. USHA COURT,, , ",0,,8822820440,,,AUTOMATIONS,https://www.goodyear.co.in/store/automations-2
Good Year,,,"189, LAMINGTON ROAD MUMBAI-400007",0,,9324070981,,,Auto Service( India),https://www.goodyear.co.in/store/auto-service-india
Good Year,,,"N.H.6, Kisar Nagar, Barahguda,  Near Vikas School",0,,8895154626,,,Auto Scan,https://www.goodyear.co.in/store/auto-scan
Good Year,,,"Opp. Apollo Hospital, G.T Road ,Ludhiana Punjab",0,,9872353000,,,Auto Serve,https://www.goodyear.co.in/store/auto-serve
Good Year,,,G-34 Palika Bhawan Rk Puram Sec-13 Delhi,0,,9910052050,,,Auto Gallery,https://www.goodyear.co.in/store/auto-gallery
Good Year,,,"NO:189 C,METTUPALAYAM ROAD,THIDIYALUR POST,CBE   641034",0,,9865976442,,,AUTO PLANET,https://www.goodyear.co.in/store/auto-planet
Good Year,,"
								  Autodounts@gmaiol.com								  ","Opp MBD Mall,Ferozpur Road Ludhiana",0,,9876577957,,,AUTO DONUTS (P) Ltd,https://www.goodyear.co.in/store/auto-donuts-p-ltd
Good Year,,,"MANGALAM PALAM ANJUMOORTHY PO.VADAKKENCHERY ,PALAKKAD",0,,9605221742,,,Auto care Wheel Alignment,https://www.goodyear.co.in/store/auto-care-wheel-alignment
Good Year,,,"Near Gitti kahdan Chowk, Nagpur",0,,8007675676,,,Auto Dynamics,https://www.goodyear.co.in/store/auto-dynamics
Good Year,,"
								  atulgroup@yahoo.com								  ","NR. VITHALANI GENERAL HOSPITAL, JADESHWAR ROAD, CHAR RASTA",0,,9426339243,,,ATUL SALES CORPORATION,https://www.goodyear.co.in/store/atul-sales-corporation
Good Year,,,Plot:No:2/104 Saminatha Nagar Main Road Kattupakkam Chennai,0,,967711841,,,Athreya Enterprises,https://www.goodyear.co.in/store/athreya-enterprises
Good Year,,,"veeragnur main road, mummudi, thalaivasal",0,,8870005797,,,Attanur Amman Tyres,https://www.goodyear.co.in/store/attanur-amman-tyres
Good Year,,,"""Shop no-2,Mumbai Pune  Road, Wakhewadi, Pune""",0,,9823050959   /  (020)25819103,,,Atul Tyres,https://www.goodyear.co.in/store/atul-tyres
Good Year,,,"NO 57, B.M ROAD, ROBERTSONPET K.G.F",0,,,,,ASHOKA TYRE & AUTOMOBILES,https://www.goodyear.co.in/store/ashoka-tyre-automobiles
Good Year,,,"333-E, PRABHAKAR PLAZA, STATION ROAD,KOLHAPUR",0,,9822020077  /  0231-2651418,,,ASHOKA TYRES,https://www.goodyear.co.in/store/ashoka-tyres-2
Good Year,,,"28, Shankarsheth Road, Near Vega Centre, pune",0,,9423574075  /  24447703,,,ASHOK TYRES,https://www.goodyear.co.in/store/ashok-tyres
Good Year,,"
								  akash780097@gmail.com								  ","By Pass road, Machalishaher",0,,9839424848,,,ASHOK TYRE SERVICE,https://www.goodyear.co.in/store/ashok-tyre-service-2
Good Year,,,,0,,9892481006,,,Ashok tyre,https://www.goodyear.co.in/store/ashok-tyre
Good Year,,"
								  ashishtyres@yahoo.com								  ","4-5 SHREEJI PARK, OPP ASHIRWAD HALL, NH8",0,,9898531878,,,ASHISH SALES CORPORATION,https://www.goodyear.co.in/store/ashish-sales-corporation-2
Good Year,,,"lalji deoji chawl, shop no -9,gokuldas pasta road,near chitra cinema dadar (e)-400014",0,,9819815656,,,Ashirwaad Tyres,https://www.goodyear.co.in/store/ashirwaad-tyres
Good Year,,,"Chuhabag, Rampur (H.P.)",0,,9418033773,,,Ashok Trader,https://www.goodyear.co.in/store/ashok-trader
Good Year,,,"hydergarh market , hydergarh",0,,9919667777,,,Asharam Tyres ltd,https://www.goodyear.co.in/store/asharam-tyres-ltd
Good Year,,"
								  jahidparasara@gmail.com								  ","OPP ICICI BANK, JINPARA MAIN ROAD",0,,9978545410,,,ASHA TYRE AGENCY,https://www.goodyear.co.in/store/asha-tyre-agency
Good Year,,,FF Road Jallabad,0,,8528444844,,,Ashok Tyre & Bros,https://www.goodyear.co.in/store/ashok-tyre-bros
Good Year,,,Hubli Road Sirsi Sirsi - Ka Karnataka,0,,9538887205,,,ARUNDHATI MOTORS,https://www.goodyear.co.in/store/arundhati-motors-2
Good Year,,"
								  arjunwheels@gmail.com								  ","Near Gandhi Nagar More, Ward No-43, Ghumtee NH31 By Pass Road Prakash Nagar, Sevoke Road",0,,9832899705,,,ARJUN WHEELS,https://www.goodyear.co.in/store/arjun-wheels-2
Good Year,,,"10 D TRIVANDRUM ROAD,TIRUNELVELI - 627002",0,,9500991620,,,Ar.As.Pv.Pv,https://www.goodyear.co.in/store/ar-as-pv-pv
Good Year,,,Alamdar Road Near Power grid station,0,,9419725554,,,AR Sons Automobiles,https://www.goodyear.co.in/store/ar-sons-automobiles
Good Year,,,Rachapur near medical collage sedam road,0,,9480285005,,,APPA WHEELS,https://www.goodyear.co.in/store/appa-wheels
Good Year,,,"Chandhighar Road,Tohana",0,,9416175710,,,Arora Traders,https://www.goodyear.co.in/store/arora-traders
Good Year,,,NO 47/2 RING ROAD SERVICE ROAD PREMNAGAR LAGGERE NEAR ADILAKSHMI COMMUNITY HALLI BANGALORE 58,0,,9008377366,,,Apoorva tyres,https://www.goodyear.co.in/store/apoorva-tyres
Good Year,,"
								  apnatradingcompany2019@gmail.com								  ","Mailani, Mehdawal Road, Khalilabad ,Santkabir Nagar,  Uttar Pradesh",0,,9919951111,,,APNA TRADERS,https://www.goodyear.co.in/store/apna-traders-2
Good Year,,"
								  deepsarma727@gmail.com								  ","Simlaguri, Barpeta Road",0,,9706499245,,,ANURADHA TYRE,https://www.goodyear.co.in/store/anuradha-tyre-2
Good Year,,,"Shop no-1,New Market, Timarpur, Delhi",0,,9910201826,,,Anuj Tyres,https://www.goodyear.co.in/store/anuj-tyres
Good Year,,,"Covai Main Road, Annur - 641 653",0,,9842211420,,,Annur Tyres & Wheel Alignments,https://www.goodyear.co.in/store/annur-tyres-wheel-alignments
Good Year,,,Near Ashok Udyan Jodhpur,0,,9810679876,,,Ansari tyres,https://www.goodyear.co.in/store/ansari-tyres-3
Good Year,,,"673/130-B,salem main road, namakkal-637001",0,,9443222079,,,Andavar & Co. Tyres,https://www.goodyear.co.in/store/andavar-co-tyres
Good Year,,,"NO :1/C NEAR ALANGAR THEATER,TIRUPUR ROAD,PANAPALAYAM,PALLADAM",0,,9443217377,,,ANUPPAR TYRES,https://www.goodyear.co.in/store/anuppar-tyres
Good Year,,,"28, Kannusamy Gounder Layout, Byepass Rd, Sivanandha colony, Cbe-12",0,,9942827700,,,Annamalayar Tyre Service Co.,https://www.goodyear.co.in/store/annamalayar-tyre-service-co
Good Year,,,Kanpur Road jokhan bag jhansi,0,,9454081200,,,Anant Kripa tyre,https://www.goodyear.co.in/store/anant-kripa-tyre
Good Year,,,"Amravati road, Wadi, Nagpur (m.s)",0,,9823069561,,,Annu Trading Co.,https://www.goodyear.co.in/store/annu-trading-co
Good Year,,"
								  anandtyrevisnagar.info@gmail.com								  ","173, SONA COMPLEX KASA ROAD,",0,,9824321391,,,ANAND TYRE SERVICE,https://www.goodyear.co.in/store/anand-tyre-service
Good Year,,,"Shop No 50,Near City Station,Shopping Complex",0,,9829195749 / 0294-3299911,,,Anant Auto World,https://www.goodyear.co.in/store/anant-auto-world
Good Year,,,"MADURAI ROAD,DINDIGUL",0,,9698123939,,,Anand Auto,https://www.goodyear.co.in/store/anand-auto
Good Year,,,"MKP Complex,Market  jn,Edapally",0,,9388831297,,,Amruthapuri agencies,https://www.goodyear.co.in/store/amruthapuri-agencies
Good Year,,,"Alamkode,Attingal.",0,,9447766897,,,AMS Tyre world,https://www.goodyear.co.in/store/ams-tyre-world
Good Year,,,"Shop. No.1, Kunal Puram, Opposite Atlas Copco, Dapodi",0,,9822043319  /   (020)27149393,,,Anand Trading Corporation,https://www.goodyear.co.in/store/anand-trading-corporation
Good Year,,,Shop No :2 2A-O-15/A-4 Dilshad Garden Delhi Delhi,0,,9810796210 /9818118702,,,AMIT TYRE,https://www.goodyear.co.in/store/amit-tyre
Good Year,,,"75 THADICOMBU ROAD,DINDIGUL - 624 001",0,,9994431868,,,Amirthakumar,https://www.goodyear.co.in/store/amirthakumar
Good Year,,,"#65,10TH AVENUE,ASHOK NAGAR,CHENNAI   600020",0,,,,,AMIGOS,https://www.goodyear.co.in/store/amigos
Good Year,,"
								  amrutenterprise2005@gmail.com								  ","OPP. RAJKAMAL PETROL PUMP, GONADAL ROAD, KOTHARIA",0,,9879423745,,,AMRUT ENTERPRISE,https://www.goodyear.co.in/store/amrut-enterprise
Good Year,,,"16/5, KARKHANA BAG MOR, MATHURA ROAD, OPP. DPS,  FARIDABAD",0,,"9891864000, 9911941660",,,Akshay Tyres Sales,https://www.goodyear.co.in/store/akshay-tyres-sales
Good Year,,,"jayaraj memmorial bldg, NH road, South Bazaar, Near Makkani, Kannur-2",0,,8129618134,,,ALIGN WORLD,https://www.goodyear.co.in/store/align-world
Good Year,,,"70/2 S.V. COMPLEX, VOC NAGAR, THANJAVUR",0,,9842857809,,,Alhajee Tyres,https://www.goodyear.co.in/store/alhajee-tyres
Good Year,,,"NEAR BUS STAND,BOTA,THE BOTA,DISTT HAMIRPUR",0,,9418511904,,,AJAY KUMAR DOGRA,https://www.goodyear.co.in/store/ajay-kumar-dogra
Good Year,,,SHOP NO 9 RAJASA ENCLAVE NR WONDER CITY KATRAJ PUNE,0,,9028784942,,,AKSHAY TYRES,https://www.goodyear.co.in/store/akshay-tyres
Good Year,,,"6/4, MG Road Near Dev  Cinema, Gurgaon",0,,,,,Ahuja Tyres,https://www.goodyear.co.in/store/ahuja-tyres-2
Good Year,,"
								  advancetyre2020@gmail.com								  ","HIGHWAY ROAD, VIDHYANAGAR, NAGALPUR",0,,9376008969,,,ADVANCE TYRE SALES & SERVICES,https://www.goodyear.co.in/store/advance-tyre-sales-services
Good Year,,"
								  adtiyapatel27@gmail.com								  ","13, UNIVERSE ARCADE, BEHIND HIGH COURT, NR CHANDAN PARTY PLOT, SOLA",0,,9825064517,,,ADITYA TYRE POINT,https://www.goodyear.co.in/store/aditya-tyre-point
Good Year,,,JALAHALLI CROSS NEAR PEENYA POLICE STATION,0,,9448818651,,,Adithya  Enterprises,https://www.goodyear.co.in/store/adithya-enterprises
Good Year,,,"200, OPP to GRG Matric School, Peelamedu, Cbe - 641004",0,,9894717188,,,Adithi Enterprises,https://www.goodyear.co.in/store/adithi-enterprises
Good Year,,,"7&8, College Road, Tiruppur - 641602",0,,9677666035,,,Aero Autos,https://www.goodyear.co.in/store/aero-autos
Good Year,,"
								  nairadiltyres@gmail.com								  ",NEAR BUS STAND,0,,9924092377,,,ADIL TYRES,https://www.goodyear.co.in/store/adil-tyres
Good Year,,"
								  acmetyre@hotmail.com								  ","Shop Number 9, Devraj Building, Swami Vivekanand Road, Goregaon (W), Goregaon We, Topiwala Marg, Kakaji Nagar, Jawahar Nagar, Goregaon West, Mumbai, Maharashtra",0,,9322644196,,,ACME TYRE SERVICE,https://www.goodyear.co.in/store/acme-tyre-service
Good Year,,,"54 AK SALAI PUDHUR, NEAR FATIMA COLLAGE, MADURAI",0,,9994423323,,,ABT maruti,https://www.goodyear.co.in/store/abt-maruti
Good Year,,,"23 B MELAPUTHUR MAIN ROAD,(NEAR JOSEPH EYE HOSPITAL) TRICHY - 1",0,,9080996362,,,ACR Agencies,https://www.goodyear.co.in/store/acr-agencies
Good Year,,"
								  abiddhankot1982@gmail.com								  ",NEAR BUS STAND ,0,,9824276976,,,ABRAR TYRE CENTRE,https://www.goodyear.co.in/store/abrar-tyre-centre
Good Year,,,Kundara,0,,8281344674,,,Abraham tyres,https://www.goodyear.co.in/store/abraham-tyres
Good Year,,,"Guru Nanak College Market,Firozpur Cant",0,,9814140708,,,Aallishan Car Shingar,https://www.goodyear.co.in/store/aallishan-car-shingar
Good Year,,"
								  bnp.2485@gmail.com								  ","GROUND FLOOR,SHILPA CHOUKRI, OPP.KALYAN SHOOPING CENTER, MEHSANA HIGHWAY",0,,9925010984,,,AAGMAN TYRES & SERVICE,https://www.goodyear.co.in/store/aagman-tyres-service
Good Year,,,"82/74 THADICOMBU ROAD, DINDIGUL - 624001",0,,7305111180,,,A2Z Car service,https://www.goodyear.co.in/store/a2z-car-service
Good Year,,,"B-35, SEC-16, NOIDA (U.P.)",0,,8800771949,,,ABN AUTOMOBILES PVT LTD,https://www.goodyear.co.in/store/abn-automobiles-pvt-ltd
Good Year,,,"SIKAR ROAD, JAIPUR",0,,9314505031,,,A1 CAR CARE,https://www.goodyear.co.in/store/a1-car-care
Good Year,,,"No.27, Commercial Road, Ooty -643001",0,,9443342208,,,A.V.Naidu & co,https://www.goodyear.co.in/store/a-v-naidu-co
Good Year,,,"C - 99 , Industrial Area Phase 2 , Mayapuri",0,,8860663241 / 9810111372,,,A.T. Industries,https://www.goodyear.co.in/store/a-t-industries
Good Year,,,"No:1400,Opposite 10 th Bus Depot Near HP Petrol Bunk,HBR layout,Kalyannagar Post",0,,9880049305,,,A1 CAR CARE CENTRE,https://www.goodyear.co.in/store/a1-car-care-centre
Good Year,,,"Patal Babu Road,  Bhagalpur",0,,9934371706,,,A.P.Tyres,https://www.goodyear.co.in/store/a-p-tyres-3
Good Year,,,"NO.25A, NAVA INDIA SIGNAL,S.N.R. COLLEGE ROAD, CBE  641004",0,,9842275324,,,A.N. TYRES,https://www.goodyear.co.in/store/a-n-tyres
Good Year,,,"# 1-8-44&45,TRUNK ROAD, KHAMMAM",0,,9246901679,,,A.S.SRINIVASA ENTERPRISES,https://www.goodyear.co.in/store/a-s-srinivasa-enterprises
Good Year,,"
								  zigwheelsindia@yahoo.com								  ",Cyber City Road Shop No. 7-8 Opp. Rapid Metro Pillar No. 43 Nathupur DLF Phase-3 Gurgaon,0,,8800497465,,,ZIG WHEEL,https://www.goodyear.co.in/store/zig-wheel
Good Year,,,"SNO 10/8,NEAR BHRAMA SUNCITY ,NEXT TO F RRESIDENCE,WADGOANSHERI,PUNE",0,,9923336043,,,Zarna Wheels,https://www.goodyear.co.in/store/zarna-wheels
Good Year,,"
								  ajaymotors213@gmail.com								  ","MUKTANAND NAGAR, 23 GOPALPURA BYE PASS ROAD, JAIPUR ,RAJASTHAN",0,,9887796564,,,Yash Tyres,https://www.goodyear.co.in/store/yash-tyres
Good Year,,,"SOUTH BYE PASS ROAD, MELA KULAVANIKAR PURAM, KURICHI BUS STOP, TIRUNELVELI -5",0,,9629917500,,,A-tech Wheel Alignment,https://www.goodyear.co.in/store/a-tech-wheel-alignment
Good Year,,,NO:27 Periyar Road T.Nagar Chennai,0,,9444053955,,,XL Tyrepoint,https://www.goodyear.co.in/store/xl-tyrepoint
Good Year,,,"Karuvan Valavu,Eravu P.O., thrissur-680620",0,,9847052652,,,WIN S TYRES,https://www.goodyear.co.in/store/win-s-tyres
Good Year,,"
								  anaskottathara@gmail.com								  ","Kottathara Complex,Naduvilagadi",0,,0494-2421297 / 9895248444,,,Wheeltech,https://www.goodyear.co.in/store/wheeltech
Good Year,,"
								  wheelspoint99@gmail.com								  ","#247/3RT,Anupama Plaza,Near Andhra bank. S.R nagar,Hyderabad*.",0,,8019777749,,,WHEELS POINT,https://www.goodyear.co.in/store/wheels-point-2
Good Year,,,"B-93, Shop No -4, Lajpat Nagar -2,opp. BSES Electricity Office",0,,01171568670,,,Wheel World,https://www.goodyear.co.in/store/the-wheels-world
Good Year,,"
								  sahooantrayami@gmail.com								  ","PLOT NO:516/1810, SURYA VIHAR, PATIA, BHUBANESWAR",0,,9437290506,,,WHEEL SOLUTION,https://www.goodyear.co.in/store/wheel-solution
Good Year,,"
								  wheelplanetgoa@gmail.com								  ","GR FLOOR, SAFALLYA PLOT NO-126, PDA COLONY, PORVORIM, BARDEZ, GOA- 403521",0,,9823686860,,,WHEEL PLANET,https://www.goodyear.co.in/store/wheel-planet
Good Year,,,"Plot.No. 711&713, Gopal Nagar, Pipeline Road, Hafeez Pet, Hyderabad,Telangana-500049",0,,04071327401,,,Wheel O City,https://www.goodyear.co.in/store/wheel-o-city
Good Year,,,"NEAR JYOTHI GAS, N.H. 220, 31ST MILE MUNDAKAYAM P.O., KERALA- 686513",0,,9656480970,,,WHEEL PLUS,https://www.goodyear.co.in/store/wheel-plus
Good Year,,,101 jn. M C ROAD ETTUMANOOR KOTTAYAM KERALA-,0,,9446206211,,,Velimattom Tyres,https://www.goodyear.co.in/store/velimattom-tyres
Good Year,,"
								  suneel_nijhawan@hotmail.com								  ",C-12/1 RANAPRATAP BAGH MAIN ROAD NEAR KOTAK MAHINDRA BANK NEWDELHI,0,,9810128023,,,Varun Tyres,https://www.goodyear.co.in/store/varun-tyres
Good Year,,"
								  universaltyres12@yahoo.com								  ",Plot No-11 Ashtavinayak bhavan sec-26A kopri Gaon Navi Mumbai Vashi,0,,9594503394,,,UNIVERSAL TYRE HOUSE,https://www.goodyear.co.in/store/universal-tyre-house
Good Year,,,"2b NH 47 Manjaly bulding perambra kodakara, Kerala",0,,9846580266,,,United Tyres,https://www.goodyear.co.in/store/united-tyres-3
Good Year,,"
								  united_tyres@yahoo.com								  ","1, R.B.HOUSE, OPP. GUN HOUSE, KHANPUR, AHMEDABAD",0,,07971845371,,,United Tyre Sale Service,https://www.goodyear.co.in/store/united-tyre-sale-service
Good Year,,,"UNIQUE SQUARE, OPP NIPPON TOYOTA, KAZHAKUTTOM, TRIVENDRUM, KERALA- 695582",0,,9947380006,,,UNIQUEZ,https://www.goodyear.co.in/store/uniquez
Good Year,,"
								  cprasad.sgt@gmail.com								  ",N.H.ROAD- Dist -SINGTAM,0,,9434033705,,,UNITED TYRE RESOLE,https://www.goodyear.co.in/store/united-tyre-resole
Good Year,,"
								  vickytyrez@gmail.com								  ","Plot: 9, Ranganathan Nagar, 200ft road, Korattur, Chennai -76",0,,8939998235,,,VICKY TYRES,https://www.goodyear.co.in/store/vicky-tyres
Good Year,,"
								  tyrepro01@gmail.com								  ","Sector -86, Greater Faridabad, Faridabad",0,,8920821583,,,TYREPRO,https://www.goodyear.co.in/store/tyrepro
Good Year,,"
								  rajneeshk953@gmail.com								  ",Opp. Fortis Hospital Dharamshala Road Birta Kangra Kangra Himachal Pradesh,0,,8988131120,,,Tyre Zone Kangra,https://www.goodyear.co.in/store/tyre-zone-kangra
Good Year,,,"KARAKKAMANDAPAM,N.H. TRIVANDRUM",0,,9446755551,,,ULTRA TYRE SALES & SERVICES,https://www.goodyear.co.in/store/ultra-tyre-sales-services
Good Year,,"
								  raunakbhadani@gmail.com								  ","81, Golaghata (VIP Road), Near Bika Banquets, Kolkata - 700048",0,,03371645744,,,TYRE ZONE,https://www.goodyear.co.in/store/tyre-zone-2
Good Year,,"
								  mohitjainnoida@gmail.com								  ","Plot No 54, Block B, Near Water Tank Noida",0,,01161495531,,,Tyre Shoppe India Pvt. Ltd.,https://www.goodyear.co.in/store/tyre-shoppee-india-pvt-ltd
Good Year,,"
								  manabpatwary75@gmail.com								  ","HOUSE NO:38, G S ROAD, KHANAPARA, KAMRUP",0,,9957207146,,,TYRE CENTRE (GUWAHATI),https://www.goodyear.co.in/store/tyre-centre-guwahati
Good Year,,"
								  anandautospares111@gmail.com								  ",NANITAL ROAD HALDWANI-,0,,8755045327,,,Tyre Shoppee (Balbeer Motors/ Anand Auto),https://www.goodyear.co.in/store/tyre-shoppee-balbeer-motors-anand-auto
Good Year,,,"Shop no-5-6, Khairnagar, Meerut, UP (250002)",0,,8861084984,,,Tyre centre,https://www.goodyear.co.in/store/tyre-centre-6
Good Year,,"
								  tyrecentrebsp@gmail.com								  ","Near Bukhari Petrol pump,Link road,Bilaspur",0,,8861084984,,,TYRE CENTRE,https://www.goodyear.co.in/store/tyre-centre
Good Year,,"
								  takolkata@gmail.com								  ","28,SARAT BOSE ROAD,KOLKATA",0,,9831021659,,,TYRE ARCADE,https://www.goodyear.co.in/store/tyre-arcade
Good Year,,,43 ALAGAR KOVIL ROAD THALLAKU Madurai Tamil Nadu,0,,9943311155,,,Tyagrajan,https://www.goodyear.co.in/store/tyagrajan
Good Year,,"
								  wheel.care.solan@gmail.com								  ",Congress Bhavan Saproon Solan (H.P.),0,,9816020010,,,Tyre Care,https://www.goodyear.co.in/store/tyre-care
Good Year,,"
								  tinkubhogal@gmail.com								  ","JALANDHAR G.T. ROAD, DABURJI BYE PASS, AMRITSAR PUNJAB-  143001",0,,9814175696,,,Tinku Wheel World,https://www.goodyear.co.in/store/tinku-wheel-world
Good Year,,,"B-15,16,17 Narela Shankari, Main Road, Ayodhya Bypass, Opposite Rudra Bhawan, Bhopal",0,,8962572677 / 6262609595,,,Tulsi Car Bazaar,https://www.goodyear.co.in/store/tulsi-car-bazaar
Good Year,,"
								  thukraltyres@gmail.com								  ","HARYANA ROAD, BHAWANI NAGAR,HOSIARPUR",0,,7009169183,,,THUKRAL TYRES,https://www.goodyear.co.in/store/thukral-tyres
Good Year,,,"Near Chilanka Theater, Bypass Road, Thiruvalla, Kerala-689101",0,,9745100161,,,Thiruvalla Auto scan & GRS Tyre World (2nd Counter),https://www.goodyear.co.in/store/thiruvalla-auto-scan-grs-tyre-world-2nd-counter
Good Year,,"
								  thiruvallaautoscan3@gmail.com								  ","3/301,2, VALIYAKALA VALUPURAYIDAM,BUILDING,KOLLANPADI,VARIYAPURAM,ELANTHOOR",0,,9496552731,,,THIRUVALLA AUTO SCAN&GRS TYRE WORLD,https://www.goodyear.co.in/store/thiruvalla-auto-scangrs-tyre-world
Good Year,,"
								  thetirezone@rediffmail.com								  ",BPCL petrol pump Manimajara Chandigarh Chandigarh-,0,,9815024708/9815024708,,,The Tyre Zone,https://www.goodyear.co.in/store/the-tyre-zone
Good Year,,,"near big bazaar gokul road hubli, Karnataka",0,,7022009101,,,Suresh Enterprises PVT LTD (Haveri),https://www.goodyear.co.in/store/suresh-enterprises-pvt-ltd-haveri
Good Year,,"
								  aletimadhu8@gmail.com 								  ",NO-204 OPPOSITE PRAJAY CITY HYDERABAD ANDHRA PRADESH,0,,9948049275,,,SS WHEELS POINT,https://www.goodyear.co.in/store/ss-wheels-point
Good Year,,,"CHAPAGURI  ROAD, BONGAIGAON, Assam",0,,9854006079,,,Surabhi Enterprise,https://www.goodyear.co.in/store/surabhi-enterprise
Good Year,,"
								  starwheelsgurgaon@yahoo.co.in								  ","GANPATI COMPLEX, NEAR ATUL KATARIA CHOWK, OLD GURGAON- DELHI ROAD, GURUGRAM, HARYANA- 122001",0,,01171568626,,,STAR WHEELS,https://www.goodyear.co.in/store/star-wheels
Good Year,,"
								  srivinyak665@gmail.com								  ",No:1B/2 A Opposite Netravathi Bar & Resturant Thindlu Main Road Vidyaranapura post Bangalore Karnataka-,0,,9980810432,,,Sri Vinayaka Tyres,https://www.goodyear.co.in/store/sri-vinayaka-tyres
Good Year,,"
								  ssautojpg@gmail.com								  ","ASSAM MORE, JALPAIGURI, , ",0,,9434340252,,,SS Automobiles,https://www.goodyear.co.in/store/ss-automobiles
Good Year,,,"17/B-16, C SECTOR, DODDABALLAPURA ROAD, OPP RAIL WHEEL FACTORY, YELAHANKA NEW TOWN, BANAGALORE, KARNATAKA- 560064",0,,8884444476,,,SRI VARI TYRES,https://www.goodyear.co.in/store/srivari-tyres
Good Year,,,"H NO 8-5-472, BESIDE FORD SHOWROOM, KOTHIRAMPUR, KARIMNAGAR, TELANGANA-505001",0,,9700884431,,,SRI RAJARAJESHWARA WHEELS AND TYRES,https://www.goodyear.co.in/store/sri-rajarajeshwara-wheels-and-tyres
Good Year,,"
								  salman_crazy60@yahoo.com								  ","SHOP NO: 1-46, RING ROAD, OPPOSITE RAJALAKSHMI THEATRE, NAGOLE ROAD, UPPAL X-ROAD",0,,9391198913/ 9553532299,,,SRI VENKAT SAI TYRES,https://www.goodyear.co.in/store/sri-venkat-sai-tyres
Good Year,,,D NO:20/34 MAIN ROAD NARASIMAHA NAGAR,0,,08672252730/9440538012,,,SRI MARUTHI MECHANICAL WORKS,https://www.goodyear.co.in/store/sri-maruthi-mechanical-works
Good Year,,"
								  ssmtyrecare@gmail.com								  ","5/104 Coimbatore Road Thillai Nagar Pollachi, Kerala",0,,04259-230909,,,Sri Sakthi Murugan Tyres,https://www.goodyear.co.in/store/sri-sakthi-murugan-tyres
Good Year,,,"NO- 64, SEKKALAI WATER TANK, KOTTAIYUR MAIN ROAD, KARAIKUDI, TAMIL NADU- 630002",0,,9443950405,,,SRI GANAPATHI TYRES & ALIGNMENT,https://www.goodyear.co.in/store/sri-ganapathi-tyres-alignment
Good Year,,"
								  sagutravels@gmail.com								  ",NO:16 & 17 Ground Floor Mico Lorry GATE-1 Pothalappa Garden Adugodi Bangalore Karnataka-,0,,080-22116441/8884256441,,,Sri Ganapathi Tyres,https://www.goodyear.co.in/store/sri-ganapathi-tyres
Good Year,,"
								  rajeshcarac@gmail.com								  ","27/1,MANALURPET ROAD, OPP SHANMUHGA COLLEGE,THIRUVANNAMALAI, TAMILNADU",0,,9629246203,,,SRI ARUNACHALESWARA TYRES,https://www.goodyear.co.in/store/sri-arunachaleswara-tyres
Good Year,,,"NEAR RAM MANDIR, SHASTRI NAGAR, JAMMU, J&K - 180004",0,,9419776267,,,SINGH TYRES SHOP,https://www.goodyear.co.in/store/singh-tyres-shop
Good Year,,,"10/3, Shri Laxmi Plaza, Sabzi Mandi Road, Near Pari Chowk, GREATER NOIDA, GAUTAM BUDDHA NAGAR, U.P - 201308",0,,01171568605,,,SHRI LAXMI TYRES,https://www.goodyear.co.in/store/shri-laxmi-tyres-3
Good Year,,"
								  jaymit2911@yahoo.com								  ","21, JIN COMPLEX, OPP.:PRABHUTA PARK, NR.BSNL EXCHANGE OFFICE GODHRA ROAD",0,,9811194346,,,SHRI LAXMI TYRES,https://www.goodyear.co.in/store/shri-laxmi-tyres
Good Year,,"
								  sindlaltyres@gmail.com								  ","CHANI JAKAT NAKA ,NEAR GURUDWARA",0,,9979881299,,,SINDLAL TYRES SALES AND SERVICE,https://www.goodyear.co.in/store/sindlal-tyres-sales-and-service
Good Year,,"
								  shreejityrehome@gmail.com								  ","SHOP NO 1, HEART VILLA, NEAR VISHNUDHARA CIRCLE, BEHIND VODAFONE TOWER, NEW GOTA",0,,7874941812,,,SHREEJI TYRE HOME,https://www.goodyear.co.in/store/shreeji-tyres
Good Year,,,"SHRI BALA JI MARKET, DELHI ROAD, REWARI",0,,9416602746,,,Shree Wheels,https://www.goodyear.co.in/store/shree-wheels
Good Year,,,"SHOP NP02,DAMEL PADA,NR. PARMAR TECHNO CENTER,VASAI PHATA,NH-8, VASAI EAST",0,,02071969224,,,Shree Shiv Shakti Tyres,https://www.goodyear.co.in/store/shree-shiv-shakti-tyres
Good Year,,,"SHOP NO:17, NALANDA NAGARI, SASWAD ROAD-FURSUNGI, HAVELI, , Dist -PUNE",0,,02071970102,,,Shreyas Tyre,https://www.goodyear.co.in/store/shreyas-tyre
Good Year,,,"Opp- Takshila colony,Gate no-2, Shiv Shakti Vihar, Garh Road Meerut, UP (250001)",0,,9411815118,,,Shivam Tyres,https://www.goodyear.co.in/store/shivam-tyres-3
Good Year,,"
								  anupam_ashish@rediffmail.com								  ","Bhurbhura more,Deogarh",0,,8789744465,,,SHREE SAI TRADERS,https://www.goodyear.co.in/store/shree-sai-traders
Good Year,,"
								  shreesagasjiautotyre@gmail.com								  ",chittor chawra udaaipur road nimbahera Udaipur Rajasthan,0,,9610565438,,,Shree Sagas ji Cycle & Auto Tyre,https://www.goodyear.co.in/store/shree-sagas-ji-cycle-auto-tyre
Good Year,,,"N.T.ROAD,GAJANANA COMPLEX, SHIVAMOGA.",0,,9448319477,,,Shiva Wheel Care,https://www.goodyear.co.in/store/shiva-wheel-care
Good Year,,"
								  sales@saityres.com								  ","RISE ON PLAZA, NEAR SARTHANA JAKATNAKA, VARACHHA",0,,9825127309 / 8603915427,,,SHREE SAI TYRES,https://www.goodyear.co.in/store/shree-sai-tyres
Good Year,,"
								  shivatyres77@gmail.com								  ",Near Hotel Heaven INN Sagar Road Shimoga Karnataka,0,,9448319477,,,Shiva Tyres,https://www.goodyear.co.in/store/shiva-tyres
Good Year,,"
								  shakticar@gmail.com								  ","5,SHIVAM COMPLEX , OPP.BHARAT PETROL PUMP,HIGHWAY ROAD",0,,9974099158,,,SHAKTI TYRE,https://www.goodyear.co.in/store/shakti-tyre
Good Year,,"
								  kishanlalbaid123@gmail.com								  ","SAKUNTALA, SAKUNTALA ROAD, WEST TRIPURA",0,,9436127046,,,SAMPATMAL BAID,https://www.goodyear.co.in/store/sampatmal-baid
Good Year,,"
								  sahaspawar55@gmail.com								  ",B2 High School Road Patel chowk Near Petrol pump Sangli Sangli Maharashtra,0,,0233 2621046,,,Shakti Traders,https://www.goodyear.co.in/store/shakti-traders
Good Year,,"
								  rahul@sangoityres.com								  ",173/174 Aaj Ka Anand Building shivaji road shivaji nagar. Pune Maharashtra,0,,020-25534906,,,Sangoi Tyres -S Nagar,https://www.goodyear.co.in/store/sangoi-tyres-s-nagar
Good Year,,,"16, PANDHANA ROAD KHANDWA - 450001",0,,8770149681,,,Sangam Tyres,https://www.goodyear.co.in/store/sangam-tyres
Good Year,,,"SHOP NO- 9 , RAJANIGANDHA SOCITY , , LBS ROAD , NEXT TO VANDANA BUS DEPOT, NAUPADA , THANE, ",0,,9890667707 / 9822676812,,,Samarth tyres,https://www.goodyear.co.in/store/samarth-tyres
Good Year,,"
								  kureshi0607@gmail.com								  ","MORIJA ROAD,CHOMU,CHOMU,JAIPUR",0,,8619857108,,,Sameer tyres,https://www.goodyear.co.in/store/sameer-tyres
Good Year,,,"shop no6,jolly apt,saraswati rd lane ,podar school,santacruz west mumbai-400054",0,,02071969225,,,SAIFEE TYRE SERVICE,https://www.goodyear.co.in/store/saifee-tyre-service
Good Year,,"
								  jigneshpatel6691@gmail.com								  ","SHOP NO C-018 AAGAM SHOPPING WORLD CANAL ROAD, VESU",0,,9913180730,,,SAI TYRES,https://www.goodyear.co.in/store/sai-tyres
Good Year,,"
								  sairamatyres511@gmail.com								  ","14-4-277, NEAR NTR STATUE, RTC BUS STAND ROAD",0,,9948251511,,,SAI RAM TYRES,https://www.goodyear.co.in/store/sai-ram-tyres
Good Year,,,"1,Azad Nagar,Manjhanpur,Kaushambi",0,,7007632020,,,Sahu Tyres Agency,https://www.goodyear.co.in/store/sahu-tyres-agency
Good Year,,,"SHOP NO-3, KALANTRI COMPOUND, POST- VILLOLI, DIST- NASHIK, MAHARASHTRA- 422010",0,,9028259990,,,SAI PRASAD TYRES,https://www.goodyear.co.in/store/sai-prasad-tyres
Good Year,,,"116/09, NEAR DATTA MANDIR, PASHAN SUS ROAD, PASHAN, PUNE",0,,9822352533,,,Sai Tyre,https://www.goodyear.co.in/store/sai-tyre
Good Year,,"
								  arunchoudhary70@yahoo.com								  ",Arun Complex Hanumangarh Road Abohar Punjab-,0,,9814162614,,,Sahil Enterprises,https://www.goodyear.co.in/store/sahil-enterprises
Good Year,,,"SHOP NO - 31/32, S.V. INTER COLLEGE MARKET, OPP KRISHNA COACHING, AYUB KHAN CHOUPLA ROAD, BAREILLY, UTTAR PRADESH.",0,,9997752212,,,S S Wheels,https://www.goodyear.co.in/store/s-s-wheels
Good Year,,"
								  srtyrezone@gmail.com								  ","SHOP NO-8, KHASRA NO 87, CHIPYANA KHURD, TIGRI, MAIN TAJ HIGHWAY ROAD, GREATER NOIDA WEST, GAUTAM BUDDHA NAGAR, UTTAR PRADESH",0,,01171568604,,,S R Tyre Zone,https://www.goodyear.co.in/store/s-r-tyre-zone
Good Year,,"
								  wadhwashivamwadhwa@gmail.com								  ",Plot No- 3 Shopping Centre Kota -7 Kota Rajasthan,0,,9414379331/0744-2360331,,,S Lalji Tyre World,https://www.goodyear.co.in/store/s-lalji-tyre-world
Good Year,,,"Pakka Bharo, Hamirpur,H.P.",0,,7018720691,,,Rydham Tyre Zone,https://www.goodyear.co.in/store/rydham-tyre-zone
Good Year,,"
								  rr.indore@yahoo.co.in								  ","Amitesh Nagar Sukhmani Plaza Scheme No.59 Near Choithram Square Indore, Madhya Pradesh",0,,9826460606,,,RR wheelz,https://www.goodyear.co.in/store/rr-wheelz
Good Year,,"
								  rrenterprises.tyres@gmail.com								  ",No:532/458/1 HBSS Ideal Home Layout Rajarajeshwari Nagar Near HP Petrol Pump Bangalore karnataka-,0,,9886367589/9986692155/9986691463,,,RR Enterprises,https://www.goodyear.co.in/store/rr-enterprises
Good Year,,"
								  mohammadshamim752@gmail.com								  ","VIP ROAD,GUWAHATI",0,,9435190414,,,ROYAL TYRE SHOPEE,https://www.goodyear.co.in/store/royal-tyre-shopee
Good Year,,"
								  travancoretyre@gmail.com								  ","16, BHARAMMA COMPLEX, PLOT NO -53, SECTOR - 15, BELAPUR, NAVI MUMBAI - 400614",0,,02071970101,,,ROYAL TYRES & BATTERIES,https://www.goodyear.co.in/store/royal-tyres-batteries
Good Year,,,NEAR ACHNAPALLY .BODHAN NIZAMABAD TELANGANA,0,,8555085540,,,RITZ AUTO SERVICES,https://www.goodyear.co.in/store/ritz-auto-services
Good Year,,"
								  horishabh@gmail.com								  ","NEAR POLICE STATION CHAR RASTA, PLOT NO.92, WARD NO. 12B",0,,9825243685,,,RISHABH TYRES,https://www.goodyear.co.in/store/rishabh-tyres
Good Year,,"
								  bhavith007@hotmai.com								  ",Guruvayoor Road Puzhakkal Padam Thrissur Kerala,0,,9400983360,,,Riverside,https://www.goodyear.co.in/store/riverside
Good Year,,"
								  ridenfastmahe@gmail.com								  ",NMP-5/168G New Mahe Panchayat .5 New Mahe Kerala-,0,,9746193435,,,Ride N Fast,https://www.goodyear.co.in/store/ride-n-fast
Good Year,,,"SHOP NO - 232, ZONE-1, M.P. NAGAR,BHOPAL, MADHYA PRADESH- 462023",0,,9993376916,,,RAGHUWANSHI TYRES,https://www.goodyear.co.in/store/raghuwanshi-tyres
Good Year,,"
								  vermapraful20@gmail.com								  ","Ladrymbai, Jaintia Hills Shillong Meghalaya",0,,9863060232,,,R.S TRADERS,https://www.goodyear.co.in/store/r-s-traders
Good Year,,,"12/2/725/32/6,RETIBOWLI, MEHDIPATNAM, HYDDERABAD,TELANGANA,500028.",0,,9949076787,,,RACHARLA WHEELS,https://www.goodyear.co.in/store/racharla-wheels
Good Year,,,"S.C.O. 2416, SECTOR - 22-C, NEAR AROMA HOTEL, CHANDIGARH- 160022",0,,9872978387,,,R.K.TYRES & ALLOYS,https://www.goodyear.co.in/store/r-k-tyres-alloys
Good Year,,"
								  kapurmanish11gmail.com								  ","SKALZANGLING AIRPORT ROAD, LEH-LADAKH LEH, J&K - 194101",0,,8492803286,,,R.R. TRADING CO.,https://www.goodyear.co.in/store/r-r-trading-co
Good Year,,"
								  rkdistibutors@gmail.com								  ","Shop No.6 Church Compound Shastri Chawok Gorakhpur,Uttar Pradesh",0,,9935686831,,,R.K DISTRIBUTOR,https://www.goodyear.co.in/store/r-k-distributor
Good Year,,"
								  debu_sarma@rediffmail.com								  ","GS Road, Khanapara, Opp. Vivanta Taj Hotel, Guwahati",0,,9435080210,,,R.F. Tyre Shop,https://www.goodyear.co.in/store/r-f-tyre-shop
Good Year,,"
								  KARANSHARMA33330@GMAIL.COM								  ","BMC CHOWK, DESH BHAGAT YADGAR HALL, JALLANDHAR, PUNJAB- 144001",0,,9417384890/79861 37032,,,R.K. MOTORS,https://www.goodyear.co.in/store/r-k-motors
Good Year,,,"CHATRIBARI ROAD, NEAR HIMMAT SINGHKA PETROL PUMP, A T ROAD,  GUWAHATI",0,,7638058204,,,R J Motors,https://www.goodyear.co.in/store/r-j-motors
Good Year,,"
								  cs78_j@yahoo.co.in								  ","SHOP NO 19-20, MATHUR VAISHYA NAGAR,OPP MORANI MOTORS,SITABARI,TONK ROAD JAIPUR",0,,9414441222,,,R C Wheel Care,https://www.goodyear.co.in/store/r-c-wheel-care
Good Year,,"
								  ravi_hudkabg@yahoo.co.in								  ",OPP VIKAS CORPORATION A?B VISION CAR GONDAL ROAD CIRCLE KOTHARIYA RAJKOT,0,,9913588846,,,R B Traders,https://www.goodyear.co.in/store/r-b-traders-2
Good Year,,"
								  shaileshjogani@premjisales.com								  ",Ganesh Apartment L.J Road Opp Sitladevi Temple Mahim (w) Mumbai,0,,9820026262,,,Premji Sales Co Pvt Ltd.,https://www.goodyear.co.in/store/premji-sales-co-pvt-ltd
Good Year,,,"415, HAZURI BAGH, SRI NAGAR, J&K- 190009",0,,9419092323,,,PRINCE AUTOMOBILES,https://www.goodyear.co.in/store/prince-automobiles
Good Year,,,"26/B,PASHAN SUS ROAD, PASHAN, PUNE",0,,8888068181   /  020-65002141,,,PASHANKAR TYRES,https://www.goodyear.co.in/store/pashankar-tyres
Good Year,,,"NEAR DHAMNI BRIDGE, KARELI, DIST - NARSINGHPUR, MADHYA PRADESH - 487221",0,,9425857154,,,PATEL KRISHI SEWA KENDRA,https://www.goodyear.co.in/store/patel-krishi-sewa-kendra
Good Year,,"
								  parvesh.goyal98@gmail.com								  ","B-2/16 Near Igl Cng Station Sector-11 Rohini, Delhi",0,,9899851042,,,PARVESH TYRE HOUSE,https://www.goodyear.co.in/store/parvesh-tyre-house
Good Year,,"
								  ntgautham@yahoo.co.in								  ",281 Sathy Road Erode- Erode Tamil Nadu,0,,9843025544,,,Parimalam Tyre Company,https://www.goodyear.co.in/store/parimalam-tyre-company
Good Year,,,"WNGS A/SHOP NO02,ORBIT GRANDREHAB,NM JOSHI MARG,MUMBAI,MAHARASTRA,INDIA-400013",0,,9869779787,,,R B Tyres,https://www.goodyear.co.in/store/r-b-tyres
Good Year,,,"KUMALI  ROAD, COURT JN. NEDUMKANDAM",0,,9447825105,,,P.S.SAJIMON WORKS CONTRACTOR,https://www.goodyear.co.in/store/p-s-sajimon-works-contractor
Good Year,,"
								  panditauto@gmail.com								  ",Post Vaduj Tal Khatav. Dist. Satara Vaduj - Vaduj Maharashtra,0,,9850131837,,,Pandit Car Point,https://www.goodyear.co.in/store/pandit-car-point
Good Year,,"
								  pankajsabharwal45@gmail.com								  ","NEAR SHRI DURGA MANDIR, SADUL SHAHAR, RAJASTHAN- 08",0,,9414873297,,,PANKAJ TYRE HOUSE,https://www.goodyear.co.in/store/pankaj-tyre-house
Good Year,,"
								  singhrk07@rediffmail.com								  ",Shop No-1 Arham Arcade Plot No- E-14 Sector 3 Belpada Kharghar Navi Mumbai. Mumbai Maharashtra,0,,9820271236,,,Om Sai Wheels,https://www.goodyear.co.in/store/om-sai-wheels
Good Year,,"
								  nilkanthtyre@gmail.com								  ","142,HARIOM CHAMBERS, , THAKKARBAPANAGAR APPROCH, OPP ADANANI HALL ,BAPUNAGAR",0,,07971845374,,,NILKANTH CORPORATION,https://www.goodyear.co.in/store/nilkanth-corporation
Good Year,,"
								  No  Email id								  ","M.G. ROAD METRO STATION, NEAR METROPOLITAN MALL & FIRST CHOICE, GURUGRAM, HARYANA- 122002",0,,9728257821,,,NEW TYRE WORLD,https://www.goodyear.co.in/store/new-tyre-world-2
Good Year,,"
								  abuzar.khan1252@gmail.com								  ","10, IT Crossing, Faizabad Road, Lucknow - 226002, Near Samthar Petrol Pump",0,,01171568623,,,NEW TYRE STATION,https://www.goodyear.co.in/store/new-tyre-station
Good Year,,,"SHOP NO- 2,THAKUR COMPLEX, ITARSI ROAD, OM RESIDENCY, BETUL, MADHYA PRADESH - 460001",0,,9425002651,,,OM ENTERPRISES,https://www.goodyear.co.in/store/om-enterprises
Good Year,,,"SPINE ROAD, SHEVANTI BAN COLONY, BHALKE PALACE, NEAR AHER GARDEN, WALHEKAR EADI ROAD, CHINCHWAD, PUNE, MAHARASHTRA- 411033",0,,9028387297,,,NEW BEST TYRES,https://www.goodyear.co.in/store/new-best-tyres
Good Year,,,"Shop No.1, Renekabai Housing Society, Pethe Nagar Corner, Mumbai Agra Road, Mumbai Agra Road, Nashik",0,,9420228898,,,New ashish tyres,https://www.goodyear.co.in/store/new-ashish-tyres
Good Year,,"
								  naveenautomobile1@gmail.com								  ",RZ-2A Roshan Garden Main Shivaji Marg Najafgarh Delhi,0,,01171568594,,,Naveen Tyres,https://www.goodyear.co.in/store/naveen-automobiles
Good Year,,"
								  adnanb28@gmail.com								  ","N.H.NO.8, NR.NAVJEEVAN HYUNDAI, GRID BISIDE-BHANA PETROL PUMP, OPP.CHOKSI CHEMICALS",0,,9825112193,,,NAVYUG TYRE TRADERS,https://www.goodyear.co.in/store/navyug-tyre-traders
Good Year,,,"Near Anjuman Hotel, Kamla Nagar, Agra",0,,9837633057,,,Nav Bharat Wheels,https://www.goodyear.co.in/store/nav-bharat-wheels
Good Year,,"
								  nationaltyrespune@yahoo.com								  ","Shop No 1, Capital plaza, D.P. Road, Malwadi, Hadapsar",0,,02071970109,,,National Tyres,https://www.goodyear.co.in/store/national-tyres-2
Good Year,,"
								  punjkushal@gmail.com								  ",Mr. Kushaldeep Punj Plot No. 5 Near Pull Porian Amritsar Punjab,0,,9872433877/9779880002/9988242485,,,National Auto,https://www.goodyear.co.in/store/national-auto
Good Year,,"
								  nationaltyresskp@gmail.com								  ","Tejasvi Circle, B.M. Road, Sakleshpur.",0,,9964023623,,,National Tyres & Wheel Alignment,https://www.goodyear.co.in/store/national-tyres-wheel-alignment
Good Year,,"
								  vikramnangia83@gmail.com								  ",S-4/57 Old Mahabir Nagar Opp. Metro Pillar No. 553 New Delhi Delhi-110018,0,,01171568673,,,Nangia Tyre Junction,https://www.goodyear.co.in/store/nangia-tyre-junction
Good Year,,,"Calcut road kollapuram, Malappuram, Kerala",0,,9447424352,,,N V H CARS,https://www.goodyear.co.in/store/n-v-h-cars
Good Year,,"
								  rohitnagpal003@gmail.com								  ","INDIRA CIRCLE, NH 15 BIKANER ROAD, SURATGARH, SHRI GANGANAGER",0,,7688888390,,,Nagpal Tyre Centre,https://www.goodyear.co.in/store/nagpal-tyre-centre
Good Year,,"
								  mehtatyre1@gmail.com								  ","NEAR GANESH TEMPLE, SALATWADA",0,,9426702087,,,MEHTA TYRES,https://www.goodyear.co.in/store/mehta-tyres
Good Year,,,"1023/24, TILAK ROAD, SWARGATE CORNER, PUNE, MAHARASHTRA- 411002",0,,02071970103,,,N MEHTA TYRES,https://www.goodyear.co.in/store/n-mehta-tyres
Good Year,,"
								  majestytyre@yahoo.com								  ",14 A/2 Punyaie Building Opp. Godoli Naka Satara. Satara Maharashtra,0,,9960529091,,,Majestic Tyre,https://www.goodyear.co.in/store/majestic-tyre
Good Year,,"
								  TYRECARE.DRIVE@GMAILCOM								  ","SHOP NO-6, BELOW GUMAT MUNICIPAL MARKET, OPP SURYA EXCELLENCY HOTEL, JAMMU, J&K- 180002",0,,9086010001,,,MAHASHAKTI AUTO WORKS,https://www.goodyear.co.in/store/mahashakti-auto-works
Good Year,,,"Tahir Market, Jeen Ghar Parisar, Near Bus stand, Guna, Madhya Pradesh",0,,9981876111,,,Megha Tyres,https://www.goodyear.co.in/store/megha-tyres
Good Year,,,"152, WALKESHWAR ROAD, MUMBAI, MAHARASHTRA- 400006",0,,02071969280,,,MAHARASHTRA TYRE SERVICE,https://www.goodyear.co.in/store/maharashtra-tyre-service
Good Year,,,"Karanth Complex, Near Adarsha Hospital, APMC Road, Puttur-574201.",0,,9972789120,,,Mahalingeshar Tyres,https://www.goodyear.co.in/store/mahalingeshar-tyres
Good Year,,"
								  magoradialworld@gmail.com								  ","BANKIDANGA, NH-2,",0,,9832193660,,,MAGO RADIAL WORLD,https://www.goodyear.co.in/store/mago-radial-world
Good Year,,,MADURAI MAIN ROAD NEAR JANAKIRAM MILLS RAJAPALAYAM,0,,9003305586,,,Madurai Sunder Tyres Pvt Ltd,https://www.goodyear.co.in/store/madurai-sunder-tyres-pvt-ltd
Good Year,,,"new sayyaji roa road Bamboo bazar mysore, Karnataka",0,,9945120821,,,Madhus Tyre Care,https://www.goodyear.co.in/store/madhus-tyre-care
Good Year,,"
								  maatyre@gmail.com								  ","Dumka road,Jamtara",0,,7004148838/9939322226,,,MAA TYRE HOUSE,https://www.goodyear.co.in/store/maa-tyre-house
Good Year,,"
								  mohd.moqueemansari1990@gmail.com								  ",D-2 DDA Market East of Kailash New Delhi-,0,,9891405353,,,M.S. TYRE HOUSE,https://www.goodyear.co.in/store/m-s-tyre-house
Good Year,,,"Baheti Complex, Hyderabad Road, Nanded - 431604",0,,9421761049  / 9028116299  / 02462-249046,,,M.M Tyres,https://www.goodyear.co.in/store/m-m-tyres
Good Year,,"
								  mukeshdpsdmp@yahoo.co.in								  ","Khermahal, Circular road,Dimapur,State- nagaland, PIN-797112",0,,9436013301,,,M.H.ENTERPRISE,https://www.goodyear.co.in/store/m-h-enterprise
Good Year,,"
								  luckyautomobiles@rediffmail.com								  ","No.-19, Dr RK Tandon Rd, Qaisar Bagh, Lucknow, Uttar Pradesh 226001",0,,01171568622,,,LUCKY AUTOMOBILES,https://www.goodyear.co.in/store/lucky-automobiles
Good Year,,"
								  shabnamlicperveen@gmail.com								  ","UTTARA COMPLEX, BASISTHA ROAD, SURVEY, BELTOLA, KAMRUP",0,,9706108417,,,KRANTI TYRES,https://www.goodyear.co.in/store/kranti-tyres
Good Year,,"
								  kaushiktyrehouse@gmail.com								  ","VISHAVKARMA CHOWK, PATIALA ROAD, NARWANA, HARYANA - 126116",0,,8930990003,,,KAUSHIK TYRE HOUSE,https://www.goodyear.co.in/store/kaushik-tyre-house
Good Year,,"
								  sarfaraz31alam@gmail.com								  ",UTTARA COMPLEX SURVEY BELTOLA GUWAHATI ASSAM,0,,9706108417,,,KRANTI TYRE HUB,https://www.goodyear.co.in/store/kranti-tyre-hub
Good Year,,"
								  sonuy751@gmail.com								  ","Shop No. 1, Main Sohna Road, Opp. Fortune Hotel, Sector 48, Gurugram",0,,01171568596,,,K&K Tyre Experts Pvt. Ltd.,https://www.goodyear.co.in/store/kk-tyre-experts-pvt-limited
Good Year,,"
								  amanmittal2298@gmail.com								  ","Infront of Santoshi mata mandir,Raigarh road,Pathalgaon",0,,8889310228,,,K.N. CARCARE,https://www.goodyear.co.in/store/k-n-carcare
Good Year,,,"SECTOR 48, CHANDIGARH",0,,9888531459,,,Kaushik Tyre,https://www.goodyear.co.in/store/kaushik-tyre
Good Year,,"
								  wheelnway@rediffmail.com								  ","1, SAMTA COLONY, BEHIND MANAS COMPLEX, NR. JODHPUR CHAR RASTA SATELLITE",0,,9558841905,,,JRD WHEEL N WAY PRIVATE LIMITED,https://www.goodyear.co.in/store/jrd-wheel-n-way-private-limited
Good Year,,,MG Road Bhagwan Takis Agra,0,,9045570584,,,K K Enterprises,https://www.goodyear.co.in/store/k-k-enterprises
Good Year,,,"TAKIA AZADGAN, ETAWAH, UTTAR PRADESH- 206001",0,,9411018469,,,Jeet Tyres,https://www.goodyear.co.in/store/jeet-tyres
Good Year,,,"EMERALD SHOPPING COMPLEX, KAKKAD ROAD, SOUTH BAZAR, KANNUR, KERALA- 670002",0,,9895533887,,,JAYANTHI TYRES,https://www.goodyear.co.in/store/jayanthi-tyres
Good Year,,"
								  manojjaswani@yahoo.com								  ","Jaswani Trading Company ,Shop N0-22, Beside Mahesh Cold Storage, Bhanpuri Chouk, Raipur ,Chhattisgarh",0,,9300674450,,,JASWANI TRADING CO RAIPUR,https://www.goodyear.co.in/store/jaswani-trading-co-raipur
Good Year,,,"CHANDIGARH KALA AMBALA ROAD, NEAR LOTTON CHUNGI NAHAN ROAD, NARAINGARH, HARYANA- 134203",0,,8930990003,,,JANTA TYRES & SERVICES,https://www.goodyear.co.in/store/janta-tyres-services
Good Year,,"
								  tyreshoppe@yahoo.com								  ","Jain Tyres, Opposite Polytechnic Hostel, GE Road,Durg ,Chhattisgarh",0,,9425242131,,,JAIN TYRES,https://www.goodyear.co.in/store/jain-tyres
Good Year,,"
								  avinash34@yahoo.in								  ",48B Aquaf Complex Gandhi Nagar Jammu Jammu & Kashmir,0,,9419191817,,,JAY KAY AUTO TRADERS,https://www.goodyear.co.in/store/jay-kay-auto-traders
Good Year,,,"Sanjay Shopping Complex, Biaora, Rajgarh, Madhya Pradesh",0,,9074440019,,,Jain Tyre,https://www.goodyear.co.in/store/jain-tyre
Good Year,,"
								  jamunawheelz22@gmail.com								  ","MRD Road,Opp. CPWD Colony,Chandmari",0,,9707458405,,,JAMUNA WHEELZ,https://www.goodyear.co.in/store/jamuna-wheelz
Good Year,,"
								  vikram.harika@gmail.com								  ","100/2, BT Rd, Near Ananya Bus Stop",0,,03371645742,,,INDO TYRES (CAL) PVT LTD,https://www.goodyear.co.in/store/indo-tyres-cal-pvt-ltd
Good Year,,"
								  indoradialtyres@gmail.com								  ","DJ/15, BP Rajarhat, New Town , North 24 Parganas, West Bengal, Pin- 700156",0,,03371645741,,,INDO RADIAL TYRES,https://www.goodyear.co.in/store/indo-radial-tyres
Good Year,,"
								  avinash34@yahoo.in								  ",48B Aquaf Complex Gandhi Nagar Jammu Jammu & Kashmir,0,,9419191817,,,J K Wheels,https://www.goodyear.co.in/store/j-k-wheels
Good Year,,"
								  Iqbal.444@Rediffmail.Com								  ","Near SBP bank Rose Avenue SC No. 3 Malerkotla, Punjab",0,,9781998470,,,Indian Tyre Service,https://www.goodyear.co.in/store/indian-tyre-service
Good Year,,"
								  imri4439@gmail.com								  ",No:87/2B SavanurPlaza NearSri Sai International Hotel P.B.Road DAVANGERE Karnataka-,0,,8747944977,,,IMR Wheel Zone,https://www.goodyear.co.in/store/imr-wheel-zone
Good Year,,"
								  inderjain45@gmail.com								  ",33/128 PRATAP PURA AGRA-,0,,9045066206,,,Holi Ram Jain & Co,https://www.goodyear.co.in/store/holi-ram-jain-co
Good Year,,"
								  hindustantyres526@gmail.com								  ","UMRAV NAGAR, RUPALI NAHER, NEAR BAJAJ, BHATAR ROAD",0,,9723697111,,,Hindustan Tyre,https://www.goodyear.co.in/store/hindustan-tyre
Good Year,,"
								  globaltyres@hotmail.com								  ",No:1/587-C Vyttila-Aroor Bye Pass Kannadikadu Maradu Cochin Kerala,0,,9516440000,,,Global Tyres,https://www.goodyear.co.in/store/global-tyres
Good Year,,,"UMRAV NAGAR, RUPALI NAHER, NEAR BAJAJ SHOWROOM, BHATAR ROAD",0,,02164-228195,,,Hindustan Tyres,https://www.goodyear.co.in/store/hindustan-tyres
Good Year,,"
								  aalam78617@gmail.com								  ","Kharsia  naka,Ambikapur",0,,9406135000,,,HINDUSTAN AUTOMOBILES,https://www.goodyear.co.in/store/hindustan-automobiles
Good Year,,"
								  rameshjnahata@yahoo.com								  ",Shop No-1 Deora Commercial centre orlem marve Road Malad (west) Mumbai. Mumbai Maharashtra,0,,9167036221,,,Gaurav Battery and Tyres,https://www.goodyear.co.in/store/gaurav-battery-and-tyres
Good Year,,"
								  gajanandtyremehsana@gmail.com								  ","OPP. DUDH SAGAR DAIRY,NR SAHYOG OFFICE, MEHSANA",0,,9898979874,,,Gajanand Tyres,https://www.goodyear.co.in/store/gajanand-tyres
Good Year,,"
								  tyrecare407@gamil.com								  ",SCO 197 SECTOR : 16 Panchkula Haryana,0,,01161495533,,,Gandhi Tyre Corner,https://www.goodyear.co.in/store/gandhi-tyre-corner
Good Year,,"
								  4wheels93@gmail.com								  ",Enchakkal-Chakai By Pass Opposite Hotel Kingsway Pettah P.O Trivandrum Kerala-,0,,0471-25303294/08547303294,,,Four Wheels & Motors,https://www.goodyear.co.in/store/four-wheels-motors
Good Year,,,"NEAR FOREST OFFICE JN, AYANAMPADAM, NENMARA, KERALA- 678505",0,,9495448512,,,FASTFIT,https://www.goodyear.co.in/store/fastfit
Good Year,,,Janathapadi Nilambur Kerala-,0,,9061848000,,,Fargo,https://www.goodyear.co.in/store/fargo
Good Year,,,"P N 11 and 12,H NO 1-62/A, SRI RANGAPURAM, BOLLARAM ROAD,MIYAPUR, HYDERABAD, TS-500049",0,,9160000010,,,EZ Wheels,https://www.goodyear.co.in/store/ez-wheels
Good Year,,,"SHOP NO- 2-6/94/9/1, GACHIBOWLI, NEAR ORR, HYDERABAD, TELANGANA- 500049",0,,9160000010,,,EZ DRIVE CAR CARE,https://www.goodyear.co.in/store/ez-drive-car-care
Good Year,,"
								  dhruvmahajan49@gmail.com								  ",NH-20 Bodh P.O. Jassur The. Nurpur Distt. Kangra (H.P.) 176201,0,,9418036279/9418111250,,,Dhruv’s Real Tyre Shoppe,https://www.goodyear.co.in/store/dhruvs-real-tyre-shoppe
Good Year,,"
								  F1tyrecity@gmail.com								  ","NH-47,Lakshmi nagar,Opp to Old kandhasamy Mill,Vasavi college Post,Bhavani",0,,9842712349,,,F1 Tyre City,https://www.goodyear.co.in/store/f1-tyre-city
Good Year,,,"ASLAM M, 1886/1A, BESIDE RAJ BHAVAN HOTEL ,OPP NEW COURT,P B ROAD, DAVANGERE, Davanagere, Karnataka, 577006, 9481337868",0,,9481337868,,,DHK Tyres & Compressors,https://www.goodyear.co.in/store/dhk-tyres-compressors
Good Year,,"
								  dhaliwal.co@gmail.com								  ",Plot No. 9 Pratap Nagar Adjoining BPC Petrol Pump Khatipura Road Vaishali Nagar Jaipur Rajasthan,0,,9829047481,,,Dhaliwal & Co-I,https://www.goodyear.co.in/store/dhaliwal-co-i
Good Year,,,"GR FLOOR, 16/11, ARYA SAMAJ ROAD, KAROL BAGH, CENTRAL DELHI, DELHI- 110005",0,,01171568679,,,DELHI TYRE SHOPPE,https://www.goodyear.co.in/store/delhi-tyre-shoppe
Good Year,,"
								  diliptyres16@gmail.com								  ",Sangli Maharashtra,0,,9372449898 / 9372449696 / 9822669797,,,Dilip Tyre,https://www.goodyear.co.in/store/dilip-tyre
Good Year,,,Shop No 27 karmakat tower Mumbai agra road nasik Nashik Maharashtra,0,,9011026227 / 9823137326/9921232349,,,Datta Tyres,https://www.goodyear.co.in/store/datta-tyres
Good Year,,,"DEVIKA SERVICE STATION, HP PETROL PUMP, BITTON MARKET, BHOPAL, MADHYA PRADESH- 462016",0,,,,,D.S.S. TYRES AND SERVICES,https://www.goodyear.co.in/store/d-s-s-tyres-and-services
Good Year,,"
								  Anuj Agarwal c3 								  ","SHOP NO- 48/49, HARI OM HERITAGE, PLOT NO-8, GOLF COURSE ROAD, SECTOR- 21, KHARHAR, NAVI MUMBAI- 410210",0,,9833524321,,,COMPLETE CAR CARE,https://www.goodyear.co.in/store/complete-car-care
Good Year,,"
								  covaityres@gmail.com								  ",No:645/1 Avinashi Road Near Prince School Thottipalayam Pirivu Coimbatore Tamilnadu,0,,9965091000,,,Covai Tyre,https://www.goodyear.co.in/store/covai-tyre
Good Year,,"
								  honeysingh364@gmail.com								  ",Dhanotu P.O.-Mahadev Tehsil- Sunder Nagar District- Mandi H.P.,0,,9418922225,,,City Tyres,https://www.goodyear.co.in/store/city-tyres
Good Year,,,"lalbagh Fort road near minerva circle Near Nandni hotel Bangalore, Karnataka",0,,08047485266,,,"Cherry, Tyre Park",https://www.goodyear.co.in/store/cherry-agencies-ho
Good Year,,"
								  citywheels@outlook.com								  ",99 Auto Market Near Padav Chowk Hisar Haryana-,0,,9991999338,,,CITY WHEELS,https://www.goodyear.co.in/store/city-wheels
Good Year,,"
								  chawla_tyre@rediffmail.com								  ","Jugsalai,Station road,Jamshedpur",0,,9334800650,,,CHAWLA TYRE PVT LTD,https://www.goodyear.co.in/store/chawla-tyre-pvt-ltd
Good Year,,"
								  rnr@cherryagencies.com								  ","No. 1047/48, Pethi's Corner, 4th Block, Dr Rajkumar Road Entrance, Beside Bharat Petroleum Petrol Bunk ",0,,08047485260,,,"Cherry, Tyre Park",https://www.goodyear.co.in/store/cherry-rajaji-nagar
Good Year,,"
								  m.maradia@yahoo.com								  ","KRISHNA KRUPA, SALATWADA",0,,9825815989,,,CHANDAN AUTOMOBILE,https://www.goodyear.co.in/store/chandan-automobile
Good Year,,,Opposite Municipal Stadium Chemmanthoor Punalur Kerala-,0,,"0475-2230700,09746363336",,,Care 4 Tyres,https://www.goodyear.co.in/store/care-4-tyres
Good Year,,"
								  capitaltyreplaza1@gmail.com								  ",Idukki Road Kattapanna Kerala,0,,9447074787,,,Capital Tyre Plaza,https://www.goodyear.co.in/store/capital-tyre-plaza
Good Year,,"
								  capitaltyres@gmail.com								  ",41 Surat Singh Building Opp. Green Park Gurudwara Yusuf Sarai New Delhi Delhi-,0,,01171568676,,,Capital Tyre Co.,https://www.goodyear.co.in/store/capital-tyre-co
Good Year,,,Before Indian Oil Perol Bunk Apsara Junction Kollam Kerala-,0,,9947249878,,,Car Clinic,https://www.goodyear.co.in/store/car-clinic
Good Year,,,"S.F. 259, TRICHY ROAD, PAPPAMPATTI PIRIVU, OPP OCEAN RESTAURANT, COIMBATORE, TAMIL NADU- 641103",0,,9976122290,,,BRIGHT AUTOMOTIVE CARE,https://www.goodyear.co.in/store/bright-automotive-care
Good Year,,,"Abhoar Road,Gali No 4,Muktsar,Dist Muktsar",0,,"9914862926, 8837766200",,,Brar Tyre,https://www.goodyear.co.in/store/brar-tyre
Good Year,,"
								  rubenbm20@gmail.com								  ",345 A.C. PACHECO ROAD BORDA MARGAO-GOA. Goa,0,,9422456008 / 0832-2725398,,,BM Tyres,https://www.goodyear.co.in/store/bm-tyres
Good Year,,"
								  bombaytyres68@gmail.com								  ",Shop No 4 Sahajanand Society TPS-6 Milan Subway santacruz ( w). Mumbai Maharashtra,0,,02071969283,,,Bombay Tyres,https://www.goodyear.co.in/store/bombay-tyres
Good Year,,"
								  kavneet.kavi@gmail.com								  ",Railway Road Kurukshetra,0,,8295002137,,,BINDRA TYRES,https://www.goodyear.co.in/store/bindra-tyres
Good Year,,"
								  bimaltyres@gmail.com								  ","BIMAL HOUSE, OPP. BOMBAY GARAGE ,GONDAL ROAD",0,,9427505085,,,BIMAL TYRE,https://www.goodyear.co.in/store/bimal-tyre
Good Year,,"
								  navneetchaudhary147.nc@gmail.com								  ",B-10 bagla market sikandra bodla road agra-,0,,9760508680,,,BHAWANI TYRE,https://www.goodyear.co.in/store/bhawani-tyre
Good Year,,"
								  kumar_sanjaynath@rediffmail.com								  ","N.H-6, PANCHGACHIA",0,,7538000786,,,BHARAT TYRES,https://www.goodyear.co.in/store/bharat-tyres
Good Year,,"
								  bharattyre555@gmail.com								  ",Railway Road Jwalapur Haridwar Uttarakhand,0,,9719566200,,,BHARAT TYRE,https://www.goodyear.co.in/store/bharat-tyre
Good Year,,"
								  mr.geetanshu@gmail.com								  ","NH-89, NAGARE ROAD, OPP RAILWAY CROSSING, NOKHA, RAJASTHAN- 334803",0,,9414577789,,,BHAGWATI MOTORS,https://www.goodyear.co.in/store/bhagwati-motors
Good Year,,,"N.TROAD, Shivamoga,Karnataka-577202",0,,9844077806,,,BHAGATHS AUTOCARE CENTRE,https://www.goodyear.co.in/store/bhagaths-autocare-centre
Good Year,,,"B-119, SECTOR-16, NOIDA (U.P.)",0,,01171568600,,,BHAGWATI TYRES,https://www.goodyear.co.in/store/bhagwati-tyres
Good Year,,"
								  saidalavikt55@gmail.com								  ","11/352, A1-352,A2, NEAR NISERY JUNCTION, UNIVERSITY ROAD, RAMANATTUKKARA, KOZHIKODE, KERALA- 673633",0,,9947649098,,,BENZ TYRES,https://www.goodyear.co.in/store/benz-tyres
Good Year,,"
								  batra.manan@gmail.com								  ","GEETA BHAWAN ROAD SONIPATH, Haryana",0,,9999133644,,,BATRA TYRE SOLE,https://www.goodyear.co.in/store/batra-tyre-sole
Good Year,,"
								  basantmotorcompany@gmail.com								  ","Main Road, In front of Gov Bus Stand, Barbil Dist- Keonjhar",0,,9937065378,,,BASANT MOTOR CO.,https://www.goodyear.co.in/store/basant-motor-co
Good Year,,"
								  banjaratyres@gmail.com								  ","SHOP NO: MIG-9, 6TH PHASE, KPHB KUKATPALLY",0,,9000300002,,,BANJARA TYRE SALES & SERVICES,https://www.goodyear.co.in/store/banjara-tyre-sales-services
Good Year,,"
								  balajiwheels.jain@gmail.com								  ","FLAT NO-H/7/712/A, WARD NO:42, SEVOKE ROAD, BHAKTINAGAR, ",0,,9832043286,,,BALAJI WHEELS,https://www.goodyear.co.in/store/balaji-wheels
Good Year,,,"01, MAIN CHOWK, PATOLI MANGOTRAIAN, JAMMU, J&K- 180007",0,,9796689761,,,BAWA TRADERS,https://www.goodyear.co.in/store/bawa-traders
Good Year,,"
								  gokulcbatra@gmail.com								  ","C-73 A, SAKET COLONY SHOPPING CENTRE, ADARSH NAGAR ,JAIPUR",0,,9414047852,,,Balaji Corporation,https://www.goodyear.co.in/store/balaji-corporation
Good Year,,"
								  baghlatyres1342@gmail.com								  ",GT Road Mallout Punjab-,0,,9501118430,,,Baghla Tyres,https://www.goodyear.co.in/store/baghla-tyres
Good Year,,,"NEAR SANGLI CYCLE STORE,HIGH SCHOOL ROAD,SANGLI",0,,9422407696 /   0233-2621820,,,BAJAJ AUTO AGENCIES,https://www.goodyear.co.in/store/bajaj-auto-agencies
Good Year,,"
								  kracts4live@gmail.com								  ",VAV ROAD DHIMA THIN RASTA,0,,8779720939,,,B K TYRES,https://www.goodyear.co.in/store/b-k-tyres
Good Year,,"
								  bdjogani_accounts@yahoo.in								  ",Shop No 8 Ishaq Manzil Lamington Road Grant Road. Mumbai Maharashtra,0,,9819933673,,,B D Jogani & Co,https://www.goodyear.co.in/store/b-d-jogani-co
Good Year,,"
								  hirakjit12automation@gmail.com								  ","R.G Baruah Road, Near Usha Court building, Ivory enclave, Ground floor, Guwahati-781003. ",0,,8822820440,,,AUTOMATIONS,https://www.goodyear.co.in/store/automations
Good Year,,"
								  atcdheeraj@gmail.com								  ","No.G-1, B.N. Complex, Bisheshwanath Road, Kaiserbagh, Lucknow, Uttar Pradesh 226001",0,,9415156066,,,AUTO TYRE CENTRE,https://www.goodyear.co.in/store/auto-tyre-centre
Good Year,,,"MURTIZAPUR ROAD, OLD R.T.O. OFFICE, NEAR RAMI HERITAGE, AKOLA, MAHARASHTRA- 444001",0,,7249754622,,,ATHARVA TYRES PRIVATE LIMITED,https://www.goodyear.co.in/store/atharva-tyres-private-limited
Good Year,,"
								  bsharma96532@gmail.com								  ","Thana Road,Jorhat, Dist- Jorhat, state- assam, PIN-785001",0,,9864496532,,,BALAJI TYERS,https://www.goodyear.co.in/store/balaji-tyers
Good Year,,"
								  asianagencies33@gmail.com								  ","B-22, LIANHMINGTHANGI, SAIRANG ROAD, BAWNGKAWN",0,,9862083135,,,ASIAN AGENCIES,https://www.goodyear.co.in/store/asian-agencies
Good Year,,"
								  ashokawheelsnskrd@gmail.com								  ","Shop No 1/8/30/5/P/4, Opposite KIMS Hospital, Minister Road",0,,04071327407,,,ASHOKA WHEELS,https://www.goodyear.co.in/store/ashoka-wheels-2
Good Year,,"
								  ashokawheelsnskrd@gmail.com								  ",Hirnyamai Co-Op society nashik Pune Road near Hotel Natraj Nashik. Nashik Maharashtra,0,,9391219111,,,Ashoka Wheels,https://www.goodyear.co.in/store/ashoka-wheels
Good Year,,,2 RAMAKRISHNAA COMPLEX NAAVLAKHA MAAIN ROAD INDORE,0,,9926877231,,,Ashoka tyres & Aligners,https://www.goodyear.co.in/store/ashoka-tyres-aligners
Good Year,,"
								  asiantyres_gmail.com								  ",Shop no 3 4 Elavia Manor Opposite Advent Atria  Below Kingston Tower Chincholi Bunder Road Malad West. Mumbai Maharashtra,0,,02071969284,,,Asian tyres,https://www.goodyear.co.in/store/asian-tyres
Good Year,,"
								  pssethi@live.com								  ",PREMISES NO.34 X1TH CROSS INDIRANAGAR IST STAGE BANGALORE,0,,9845155934,,,Ashoka Tyre Centre,https://www.goodyear.co.in/store/ashoka-tyre-centre
Good Year,,,"6/82,Chandra sekhar complex, Bellary road,Anantapur,Andhra Pradesh-515004.",0,,9866831001,,,Ashok Wheel Alignment and Tyres,https://www.goodyear.co.in/store/ashok-wheel-alignment-and-tyres
Good Year,,,"2-2-146 & 146/1, M.G. ROAD, SECUNDERABAD, TELANGANA- 500003, ",0,,9396967878,,,ASHOKA TYRES,https://www.goodyear.co.in/store/ashoka-tyres
Good Year,,"
								  arjunwheels@gmail.com								  ","Near Gandhi Nagar More, Ward No-43, Ghumtee NH31 By Pass Road Prakash Nagar, Sevoke Road",0,,9832899705,,,ARJUN WHEELS,https://www.goodyear.co.in/store/arjun-wheels
Good Year,,"
								  akash780097@gmail.com								  ","By Pass road, Machalishaher",0,,9839424848,,,ASHOK TYRE SERVICE,https://www.goodyear.co.in/store/ashok-tyre-service
Good Year,,"
								  shravansharma13@gmail.com								  ","PANJ PEER , RAJOURI ",0,,9419170298,,,ARR KAY TRADERS,https://www.goodyear.co.in/store/arr-kay-traders
Good Year,,"
								  deepsarma727@gmail.com								  ","Simlaguri, Barpeta Road",0,,9706499245,,,ANURADHA TYRE,https://www.goodyear.co.in/store/anuradha-tyre
Good Year,,,"Anchal,Kollam dt, Kerala.",0,,9495500539,,,ALEX & CO,https://www.goodyear.co.in/store/alex-co
Good Year,,"
								  da@ajmeratyres.com								  ","Gurudev Apartment Opposite NIT Garden Trimurti Nagar Nagpur, Maharashtra",0,,0712- 22224999,,,Ajmera Tyres P Ltd,https://www.goodyear.co.in/store/ajmera-tyres-p-ltd
Good Year,,"
								  ajittyres@gmail.com								  ","At Exihibition road chauraha,Patna",0,,9709700970,,,AJIT TYRES PVT LTD,https://www.goodyear.co.in/store/ajit-tyres-pvt-ltd
Good Year,,"
								  apnatradingcompany2019@gmail.com								  ","Mailani, Mehdawal Road, Khalilabad ,Santkabir Nagar,  Uttar Pradesh",0,,9919951111,,,APNA TRADERS,https://www.goodyear.co.in/store/apna-traders
Good Year,,,"SHOP NO- 101-102, BUILDING NO- 3, APNA BAZAR, JALNA ROAD, NEAR SEVEN HILLS FLYOVER, AURANGABAD, MAHARASHTRA- 431005",0,,0240-6600484,,,Ajay Traders,https://www.goodyear.co.in/store/ajay-traders
